<?xml version="1.0" encoding="UTF-8"?>
<gpx creator="Wikiloc - https://www.wikiloc.com" version="1.1" schemaLocation="http://www.topografix.com/GPX/1/1 http://www.topografix.com/GPX/1/1/gpx.xsd" xmlns="http://www.topografix.com/GPX/1/1" xmlns:xsi="http://www.w3.org/2001/XMLSchema-instance" xsi:schemaLocation="http://www.topografix.com/GPX/1/1 http://www.topografix.com/GPX/1/1/gpx.xsd http://www.garmin.com/xmlschemas/GpxExtensions/v3 http://www.garmin.com/xmlschemas/GpxExtensionsv3.xsd http://www.garmin.com/xmlschemas/TrackPointExtension/v1 http://www.garmin.com/xmlschemas/TrackPointExtensionv1.xsd http://www.garmin.com/xmlschemas/PowerExtension/v1 http://www.garmin.com/xmlschemas/PowerExtensionv1.xsd http://www.topografix.com/GPX/gpx_style/0/2 http://www.topografix.com/GPX/gpx_style/0/2/gpx_style.xsd" xmlns:gpxtpx="http://www.garmin.com/xmlschemas/TrackPointExtension/v1" xmlns:gpxx="http://www.garmin.com/xmlschemas/GpxExtensions/v3" xmlns:gpxpx="http://www.garmin.com/xmlschemas/PowerExtension/v1" xmlns:gpx_style="http://www.topografix.com/GPX/gpx_style/0/2">
  <metadata>
    <name>Wikiloc - Paseo de Cubillas</name>
    <author>
      <name>gpx.studio</name>
      <link href="https://gpx.studio"/>
    </author>
    <link href="https://www.wikiloc.com/hiking-trails/paseo-de-cubillas-276937680">
      <text>Paseo de Cubillas - Wikiloc on Wikiloc</text>
    </link>
  </metadata>
  <trk>
    <name>Paseo de Cubillas - Wikiloc</name>
    <trkseg>
      <trkpt lat="43.256538" lon="-3.464546">
        <ele>87</ele>
      </trkpt>
      <trkpt lat="43.256655" lon="-3.464577">
        <ele>87</ele>
      </trkpt>
      <trkpt lat="43.256735" lon="-3.464599">
        <ele>86.9</ele>
      </trkpt>
      <trkpt lat="43.256987" lon="-3.464632">
        <ele>85.83</ele>
      </trkpt>
      <trkpt lat="43.257068" lon="-3.464623">
        <ele>85.54</ele>
      </trkpt>
      <trkpt lat="43.257147" lon="-3.464602">
        <ele>85.27</ele>
      </trkpt>
      <trkpt lat="43.257299" lon="-3.464564">
        <ele>85</ele>
      </trkpt>
      <trkpt lat="43.257312" lon="-3.464648">
        <ele>85</ele>
      </trkpt>
      <trkpt lat="43.257426" lon="-3.464665">
        <ele>84.41</ele>
      </trkpt>
      <trkpt lat="43.257425" lon="-3.464729">
        <ele>84.37</ele>
      </trkpt>
      <trkpt lat="43.257425" lon="-3.464729">
        <ele>84.37</ele>
      </trkpt>
      <trkpt lat="43.257422" lon="-3.464843">
        <ele>84.8</ele>
      </trkpt>
      <trkpt lat="43.257413" lon="-3.464936">
        <ele>85</ele>
      </trkpt>
      <trkpt lat="43.257668" lon="-3.465068">
        <ele>84.3</ele>
      </trkpt>
      <trkpt lat="43.257823" lon="-3.465222">
        <ele>84.95</ele>
      </trkpt>
      <trkpt lat="43.257836" lon="-3.465222">
        <ele>84.86</ele>
      </trkpt>
      <trkpt lat="43.25792" lon="-3.465283">
        <ele>84.7</ele>
      </trkpt>
      <trkpt lat="43.258008" lon="-3.465333">
        <ele>84.64</ele>
      </trkpt>
      <trkpt lat="43.258025" lon="-3.465395">
        <ele>84.7</ele>
      </trkpt>
      <trkpt lat="43.258025" lon="-3.465395">
        <ele>84.7</ele>
      </trkpt>
      <trkpt lat="43.258025" lon="-3.465395">
        <ele>84.7</ele>
      </trkpt>
      <trkpt lat="43.258147" lon="-3.465707">
        <ele>84</ele>
      </trkpt>
      <trkpt lat="43.258214" lon="-3.46604">
        <ele>83.63</ele>
      </trkpt>
      <trkpt lat="43.258273" lon="-3.466072">
        <ele>83.38</ele>
      </trkpt>
      <trkpt lat="43.258342" lon="-3.466165">
        <ele>83</ele>
      </trkpt>
      <trkpt lat="43.258459" lon="-3.466185">
        <ele>82.69</ele>
      </trkpt>
      <trkpt lat="43.258459" lon="-3.466185">
        <ele>82.69</ele>
      </trkpt>
      <trkpt lat="43.258723" lon="-3.466232">
        <ele>82</ele>
      </trkpt>
      <trkpt lat="43.258781" lon="-3.466256">
        <ele>82</ele>
      </trkpt>
      <trkpt lat="43.258832" lon="-3.46631">
        <ele>81.95</ele>
      </trkpt>
      <trkpt lat="43.258864" lon="-3.466362">
        <ele>81.69</ele>
      </trkpt>
      <trkpt lat="43.25892" lon="-3.466498">
        <ele>81.27</ele>
      </trkpt>
      <trkpt lat="43.25892" lon="-3.466498">
        <ele>81.27</ele>
      </trkpt>
      <trkpt lat="43.259076" lon="-3.466865">
        <ele>80</ele>
      </trkpt>
      <trkpt lat="43.259117" lon="-3.466852">
        <ele>80</ele>
      </trkpt>
      <trkpt lat="43.25917" lon="-3.466858">
        <ele>80</ele>
      </trkpt>
      <trkpt lat="43.259251" lon="-3.466848">
        <ele>79.5</ele>
      </trkpt>
      <trkpt lat="43.259251" lon="-3.466848">
        <ele>79.5</ele>
      </trkpt>
      <trkpt lat="43.259543" lon="-3.466786">
        <ele>76.37</ele>
      </trkpt>
      <trkpt lat="43.25978" lon="-3.466751">
        <ele>75.5</ele>
      </trkpt>
      <trkpt lat="43.25978" lon="-3.466751">
        <ele>75.5</ele>
      </trkpt>
      <trkpt lat="43.260129" lon="-3.466724">
        <ele>74.72</ele>
      </trkpt>
      <trkpt lat="43.26039" lon="-3.466777">
        <ele>73.51</ele>
      </trkpt>
      <trkpt lat="43.260551" lon="-3.466837">
        <ele>73.69</ele>
      </trkpt>
      <trkpt lat="43.260633" lon="-3.466844">
        <ele>73.77</ele>
      </trkpt>
      <trkpt lat="43.260746" lon="-3.466836">
        <ele>73.56</ele>
      </trkpt>
      <trkpt lat="43.261037" lon="-3.466753">
        <ele>73</ele>
      </trkpt>
      <trkpt lat="43.261153" lon="-3.466709">
        <ele>72.59</ele>
      </trkpt>
      <trkpt lat="43.261153" lon="-3.466709">
        <ele>72.6</ele>
      </trkpt>
      <trkpt lat="43.261255" lon="-3.466669">
        <ele>72.24</ele>
      </trkpt>
      <trkpt lat="43.261322" lon="-3.466631">
        <ele>71.93</ele>
      </trkpt>
      <trkpt lat="43.261359" lon="-3.466587">
        <ele>71.78</ele>
      </trkpt>
      <trkpt lat="43.261419" lon="-3.466452">
        <ele>71.3</ele>
      </trkpt>
      <trkpt lat="43.261495" lon="-3.466353">
        <ele>71</ele>
      </trkpt>
      <trkpt lat="43.261597" lon="-3.466239">
        <ele>71</ele>
      </trkpt>
      <trkpt lat="43.261638" lon="-3.466234">
        <ele>71</ele>
      </trkpt>
      <trkpt lat="43.261763" lon="-3.466296">
        <ele>71</ele>
      </trkpt>
      <trkpt lat="43.261763" lon="-3.466296">
        <ele>71</ele>
      </trkpt>
      <trkpt lat="43.26177" lon="-3.466299">
        <ele>71</ele>
      </trkpt>
      <trkpt lat="43.262042" lon="-3.465469">
        <ele>69.13</ele>
      </trkpt>
      <trkpt lat="43.262099" lon="-3.465349">
        <ele>68.91</ele>
      </trkpt>
      <trkpt lat="43.262146" lon="-3.465301">
        <ele>68.79</ele>
      </trkpt>
      <trkpt lat="43.262182" lon="-3.465269">
        <ele>68.82</ele>
      </trkpt>
      <trkpt lat="43.262211" lon="-3.465214">
        <ele>69.09</ele>
      </trkpt>
      <trkpt lat="43.262247" lon="-3.465043">
        <ele>70</ele>
      </trkpt>
      <trkpt lat="43.262297" lon="-3.464728">
        <ele>70</ele>
      </trkpt>
      <trkpt lat="43.262335" lon="-3.464653">
        <ele>69.99</ele>
      </trkpt>
      <trkpt lat="43.262532" lon="-3.464335">
        <ele>69.08</ele>
      </trkpt>
      <trkpt lat="43.262629" lon="-3.464082">
        <ele>68.76</ele>
      </trkpt>
      <trkpt lat="43.262732" lon="-3.46373">
        <ele>68.81</ele>
      </trkpt>
      <trkpt lat="43.262732" lon="-3.46373">
        <ele>68.82</ele>
      </trkpt>
      <trkpt lat="43.262763" lon="-3.463597">
        <ele>68.57</ele>
      </trkpt>
      <trkpt lat="43.26284" lon="-3.463169">
        <ele>67.95</ele>
      </trkpt>
      <trkpt lat="43.262864" lon="-3.462974">
        <ele>68</ele>
      </trkpt>
      <trkpt lat="43.26299" lon="-3.462417">
        <ele>67.76</ele>
      </trkpt>
      <trkpt lat="43.263182" lon="-3.461437">
        <ele>67.23</ele>
      </trkpt>
      <trkpt lat="43.263203" lon="-3.461397">
        <ele>67.06</ele>
      </trkpt>
      <trkpt lat="43.263203" lon="-3.461397">
        <ele>67.06</ele>
      </trkpt>
      <trkpt lat="43.263231" lon="-3.461383">
        <ele>67</ele>
      </trkpt>
      <trkpt lat="43.26337" lon="-3.461397">
        <ele>65.96</ele>
      </trkpt>
      <trkpt lat="43.263925" lon="-3.46149">
        <ele>67.68</ele>
      </trkpt>
      <trkpt lat="43.264037" lon="-3.461503">
        <ele>69.14</ele>
      </trkpt>
      <trkpt lat="43.264085" lon="-3.461476">
        <ele>69.33</ele>
      </trkpt>
      <trkpt lat="43.26414" lon="-3.461337">
        <ele>71.14</ele>
      </trkpt>
      <trkpt lat="43.26414" lon="-3.461337">
        <ele>71.14</ele>
      </trkpt>
      <trkpt lat="43.264182" lon="-3.461182">
        <ele>70.69</ele>
      </trkpt>
      <trkpt lat="43.264181" lon="-3.461126">
        <ele>69.84</ele>
      </trkpt>
      <trkpt lat="43.264167" lon="-3.461067">
        <ele>69.02</ele>
      </trkpt>
      <trkpt lat="43.264084" lon="-3.460905">
        <ele>67.97</ele>
      </trkpt>
      <trkpt lat="43.264051" lon="-3.460771">
        <ele>67.71</ele>
      </trkpt>
      <trkpt lat="43.263983" lon="-3.46025">
        <ele>67.01</ele>
      </trkpt>
      <trkpt lat="43.263983" lon="-3.460203">
        <ele>66.81</ele>
      </trkpt>
      <trkpt lat="43.264005" lon="-3.460085">
        <ele>66.78</ele>
      </trkpt>
      <trkpt lat="43.264005" lon="-3.460085">
        <ele>66.78</ele>
      </trkpt>
      <trkpt lat="43.264214" lon="-3.458934">
        <ele>66.4</ele>
      </trkpt>
      <trkpt lat="43.264247" lon="-3.458829">
        <ele>65.91</ele>
      </trkpt>
      <trkpt lat="43.264296" lon="-3.45876">
        <ele>65.91</ele>
      </trkpt>
      <trkpt lat="43.264296" lon="-3.45876">
        <ele>65.91</ele>
      </trkpt>
      <trkpt lat="43.264718" lon="-3.458159">
        <ele>65.89</ele>
      </trkpt>
      <trkpt lat="43.264799" lon="-3.457927">
        <ele>65.09</ele>
      </trkpt>
      <trkpt lat="43.264873" lon="-3.457789">
        <ele>64.75</ele>
      </trkpt>
      <trkpt lat="43.265269" lon="-3.45738">
        <ele>64.59</ele>
      </trkpt>
      <trkpt lat="43.265713" lon="-3.456804">
        <ele>63.99</ele>
      </trkpt>
      <trkpt lat="43.266681" lon="-3.455473">
        <ele>63.18</ele>
      </trkpt>
      <trkpt lat="43.266741" lon="-3.455415">
        <ele>63.29</ele>
      </trkpt>
      <trkpt lat="43.266741" lon="-3.455415">
        <ele>63.29</ele>
      </trkpt>
      <trkpt lat="43.267153" lon="-3.455007">
        <ele>63.77</ele>
      </trkpt>
      <trkpt lat="43.267492" lon="-3.454694">
        <ele>63.79</ele>
      </trkpt>
      <trkpt lat="43.267655" lon="-3.454525">
        <ele>63.64</ele>
      </trkpt>
      <trkpt lat="43.267963" lon="-3.454303">
        <ele>63</ele>
      </trkpt>
      <trkpt lat="43.26806" lon="-3.454243">
        <ele>63</ele>
      </trkpt>
      <trkpt lat="43.26806" lon="-3.454243">
        <ele>63</ele>
      </trkpt>
      <trkpt lat="43.26808" lon="-3.45426">
        <ele>63</ele>
      </trkpt>
      <trkpt lat="43.268081" lon="-3.454291">
        <ele>63</ele>
      </trkpt>
      <trkpt lat="43.268073" lon="-3.45431">
        <ele>63</ele>
      </trkpt>
      <trkpt lat="43.268056" lon="-3.454315">
        <ele>63</ele>
      </trkpt>
      <trkpt lat="43.268056" lon="-3.454315">
        <ele>63</ele>
      </trkpt>
      <trkpt lat="43.267998" lon="-3.454299">
        <ele>63</ele>
      </trkpt>
      <trkpt lat="43.267963" lon="-3.454303">
        <ele>63</ele>
      </trkpt>
      <trkpt lat="43.267655" lon="-3.454525">
        <ele>63.64</ele>
      </trkpt>
      <trkpt lat="43.267492" lon="-3.454694">
        <ele>63.79</ele>
      </trkpt>
      <trkpt lat="43.267153" lon="-3.455007">
        <ele>63.77</ele>
      </trkpt>
      <trkpt lat="43.266877" lon="-3.455285">
        <ele>63.53</ele>
      </trkpt>
      <trkpt lat="43.266868" lon="-3.455392">
        <ele>64.5</ele>
      </trkpt>
      <trkpt lat="43.266868" lon="-3.455392">
        <ele>64.5</ele>
      </trkpt>
      <trkpt lat="43.266866" lon="-3.455421">
        <ele>64.77</ele>
      </trkpt>
      <trkpt lat="43.266951" lon="-3.455533">
        <ele>64.67</ele>
      </trkpt>
      <trkpt lat="43.266967" lon="-3.455565">
        <ele>64.81</ele>
      </trkpt>
      <trkpt lat="43.266967" lon="-3.455618">
        <ele>65</ele>
      </trkpt>
      <trkpt lat="43.266949" lon="-3.45568">
        <ele>64.93</ele>
      </trkpt>
      <trkpt lat="43.266886" lon="-3.455818">
        <ele>64.72</ele>
      </trkpt>
      <trkpt lat="43.266719" lon="-3.456097">
        <ele>64.98</ele>
      </trkpt>
      <trkpt lat="43.266719" lon="-3.456097">
        <ele>64.98</ele>
      </trkpt>
      <trkpt lat="43.266466" lon="-3.456523">
        <ele>65.37</ele>
      </trkpt>
      <trkpt lat="43.266371" lon="-3.456704">
        <ele>65.24</ele>
      </trkpt>
      <trkpt lat="43.266076" lon="-3.457459">
        <ele>66</ele>
      </trkpt>
      <trkpt lat="43.266036" lon="-3.457532">
        <ele>66.14</ele>
      </trkpt>
      <trkpt lat="43.266014" lon="-3.457548">
        <ele>66.1</ele>
      </trkpt>
      <trkpt lat="43.266014" lon="-3.457548">
        <ele>66.1</ele>
      </trkpt>
      <trkpt lat="43.265967" lon="-3.457581">
        <ele>66.01</ele>
      </trkpt>
      <trkpt lat="43.265666" lon="-3.45771">
        <ele>66.28</ele>
      </trkpt>
      <trkpt lat="43.265629" lon="-3.457747">
        <ele>66.49</ele>
      </trkpt>
      <trkpt lat="43.265595" lon="-3.45781">
        <ele>66.66</ele>
      </trkpt>
      <trkpt lat="43.265595" lon="-3.45781">
        <ele>66.66</ele>
      </trkpt>
      <trkpt lat="43.265562" lon="-3.457869">
        <ele>66.82</ele>
      </trkpt>
      <trkpt lat="43.265572" lon="-3.457955">
        <ele>66.96</ele>
      </trkpt>
      <trkpt lat="43.265596" lon="-3.458052">
        <ele>67.27</ele>
      </trkpt>
      <trkpt lat="43.265613" lon="-3.458125">
        <ele>67.69</ele>
      </trkpt>
      <trkpt lat="43.265604" lon="-3.458187">
        <ele>68.06</ele>
      </trkpt>
      <trkpt lat="43.265548" lon="-3.458275">
        <ele>68.56</ele>
      </trkpt>
      <trkpt lat="43.265492" lon="-3.458402">
        <ele>69.67</ele>
      </trkpt>
      <trkpt lat="43.265417" lon="-3.458542">
        <ele>70.76</ele>
      </trkpt>
      <trkpt lat="43.265417" lon="-3.458542">
        <ele>70.77</ele>
      </trkpt>
      <trkpt lat="43.265284" lon="-3.458741">
        <ele>71.36</ele>
      </trkpt>
      <trkpt lat="43.265067" lon="-3.459031">
        <ele>68.62</ele>
      </trkpt>
      <trkpt lat="43.265005" lon="-3.459138">
        <ele>68.62</ele>
      </trkpt>
      <trkpt lat="43.264813" lon="-3.460088">
        <ele>75.1</ele>
      </trkpt>
      <trkpt lat="43.264767" lon="-3.460188">
        <ele>75.5</ele>
      </trkpt>
      <trkpt lat="43.264648" lon="-3.460448">
        <ele>76.56</ele>
      </trkpt>
      <trkpt lat="43.264502" lon="-3.460569">
        <ele>73.74</ele>
      </trkpt>
      <trkpt lat="43.264365" lon="-3.460698">
        <ele>69.95</ele>
      </trkpt>
      <trkpt lat="43.264324" lon="-3.460753">
        <ele>68.86</ele>
      </trkpt>
      <trkpt lat="43.264264" lon="-3.460862">
        <ele>69.42</ele>
      </trkpt>
      <trkpt lat="43.264139" lon="-3.46134">
        <ele>71.15</ele>
      </trkpt>
      <trkpt lat="43.264089" lon="-3.461465">
        <ele>69.48</ele>
      </trkpt>
      <trkpt lat="43.264089" lon="-3.461465">
        <ele>69.48</ele>
      </trkpt>
      <trkpt lat="43.264085" lon="-3.461476">
        <ele>69.33</ele>
      </trkpt>
      <trkpt lat="43.264037" lon="-3.461503">
        <ele>69.14</ele>
      </trkpt>
      <trkpt lat="43.263925" lon="-3.46149">
        <ele>67.68</ele>
      </trkpt>
      <trkpt lat="43.26337" lon="-3.461397">
        <ele>65.96</ele>
      </trkpt>
      <trkpt lat="43.263241" lon="-3.461384">
        <ele>66.92</ele>
      </trkpt>
      <trkpt lat="43.263241" lon="-3.461384">
        <ele>66.92</ele>
      </trkpt>
      <trkpt lat="43.263203" lon="-3.461397">
        <ele>67.06</ele>
      </trkpt>
      <trkpt lat="43.263182" lon="-3.461437">
        <ele>67.23</ele>
      </trkpt>
      <trkpt lat="43.26299" lon="-3.462417">
        <ele>67.76</ele>
      </trkpt>
      <trkpt lat="43.262864" lon="-3.462974">
        <ele>68</ele>
      </trkpt>
      <trkpt lat="43.26284" lon="-3.463169">
        <ele>67.95</ele>
      </trkpt>
      <trkpt lat="43.262763" lon="-3.463597">
        <ele>68.57</ele>
      </trkpt>
      <trkpt lat="43.262694" lon="-3.463863">
        <ele>68.81</ele>
      </trkpt>
      <trkpt lat="43.262694" lon="-3.463863">
        <ele>68.81</ele>
      </trkpt>
      <trkpt lat="43.262629" lon="-3.464082">
        <ele>68.76</ele>
      </trkpt>
      <trkpt lat="43.262532" lon="-3.464335">
        <ele>69.08</ele>
      </trkpt>
      <trkpt lat="43.262335" lon="-3.464653">
        <ele>69.99</ele>
      </trkpt>
      <trkpt lat="43.262297" lon="-3.464728">
        <ele>70</ele>
      </trkpt>
      <trkpt lat="43.262247" lon="-3.465043">
        <ele>70</ele>
      </trkpt>
      <trkpt lat="43.262211" lon="-3.465214">
        <ele>69.09</ele>
      </trkpt>
      <trkpt lat="43.262182" lon="-3.465269">
        <ele>68.82</ele>
      </trkpt>
      <trkpt lat="43.262146" lon="-3.465301">
        <ele>68.79</ele>
      </trkpt>
      <trkpt lat="43.262099" lon="-3.465349">
        <ele>68.91</ele>
      </trkpt>
      <trkpt lat="43.262042" lon="-3.465469">
        <ele>69.13</ele>
      </trkpt>
      <trkpt lat="43.261783" lon="-3.466259">
        <ele>70.91</ele>
      </trkpt>
      <trkpt lat="43.261783" lon="-3.466259">
        <ele>70.91</ele>
      </trkpt>
      <trkpt lat="43.26177" lon="-3.466299">
        <ele>71</ele>
      </trkpt>
      <trkpt lat="43.261638" lon="-3.466234">
        <ele>71</ele>
      </trkpt>
      <trkpt lat="43.261597" lon="-3.466239">
        <ele>71</ele>
      </trkpt>
      <trkpt lat="43.261495" lon="-3.466353">
        <ele>71</ele>
      </trkpt>
      <trkpt lat="43.261419" lon="-3.466452">
        <ele>71.3</ele>
      </trkpt>
      <trkpt lat="43.261359" lon="-3.466587">
        <ele>71.78</ele>
      </trkpt>
      <trkpt lat="43.261322" lon="-3.466631">
        <ele>71.93</ele>
      </trkpt>
      <trkpt lat="43.261255" lon="-3.466669">
        <ele>72.24</ele>
      </trkpt>
      <trkpt lat="43.261037" lon="-3.466753">
        <ele>73</ele>
      </trkpt>
      <trkpt lat="43.260939" lon="-3.466781">
        <ele>73.19</ele>
      </trkpt>
      <trkpt lat="43.260939" lon="-3.466781">
        <ele>73.19</ele>
      </trkpt>
      <trkpt lat="43.260746" lon="-3.466836">
        <ele>73.56</ele>
      </trkpt>
      <trkpt lat="43.260633" lon="-3.466844">
        <ele>73.77</ele>
      </trkpt>
      <trkpt lat="43.260551" lon="-3.466837">
        <ele>73.69</ele>
      </trkpt>
      <trkpt lat="43.26039" lon="-3.466777">
        <ele>73.51</ele>
      </trkpt>
      <trkpt lat="43.260271" lon="-3.466753">
        <ele>73.96</ele>
      </trkpt>
      <trkpt lat="43.260271" lon="-3.466753">
        <ele>73.96</ele>
      </trkpt>
      <trkpt lat="43.260129" lon="-3.466724">
        <ele>74.72</ele>
      </trkpt>
      <trkpt lat="43.259838" lon="-3.466742">
        <ele>75.19</ele>
      </trkpt>
      <trkpt lat="43.259543" lon="-3.466786">
        <ele>76.37</ele>
      </trkpt>
      <trkpt lat="43.259366" lon="-3.466828">
        <ele>78.47</ele>
      </trkpt>
      <trkpt lat="43.259212" lon="-3.466853">
        <ele>79.74</ele>
      </trkpt>
      <trkpt lat="43.259212" lon="-3.466853">
        <ele>79.74</ele>
      </trkpt>
      <trkpt lat="43.259117" lon="-3.466852">
        <ele>80</ele>
      </trkpt>
      <trkpt lat="43.259076" lon="-3.466865">
        <ele>80</ele>
      </trkpt>
      <trkpt lat="43.258996" lon="-3.466682">
        <ele>80.7</ele>
      </trkpt>
      <trkpt lat="43.258996" lon="-3.466682">
        <ele>80.7</ele>
      </trkpt>
      <trkpt lat="43.258864" lon="-3.466362">
        <ele>81.69</ele>
      </trkpt>
      <trkpt lat="43.258832" lon="-3.46631">
        <ele>81.95</ele>
      </trkpt>
      <trkpt lat="43.258781" lon="-3.466256">
        <ele>82</ele>
      </trkpt>
      <trkpt lat="43.258723" lon="-3.466232">
        <ele>82</ele>
      </trkpt>
      <trkpt lat="43.25846" lon="-3.466186">
        <ele>82.69</ele>
      </trkpt>
      <trkpt lat="43.25846" lon="-3.466186">
        <ele>82.69</ele>
      </trkpt>
      <trkpt lat="43.258342" lon="-3.466165">
        <ele>83</ele>
      </trkpt>
      <trkpt lat="43.258273" lon="-3.466072">
        <ele>83.38</ele>
      </trkpt>
      <trkpt lat="43.258214" lon="-3.46604">
        <ele>83.63</ele>
      </trkpt>
      <trkpt lat="43.258147" lon="-3.465707">
        <ele>84</ele>
      </trkpt>
      <trkpt lat="43.258013" lon="-3.465364">
        <ele>84.77</ele>
      </trkpt>
      <trkpt lat="43.258008" lon="-3.465333">
        <ele>84.64</ele>
      </trkpt>
      <trkpt lat="43.25792" lon="-3.465283">
        <ele>84.7</ele>
      </trkpt>
      <trkpt lat="43.257836" lon="-3.465222">
        <ele>84.86</ele>
      </trkpt>
      <trkpt lat="43.257823" lon="-3.465222">
        <ele>84.95</ele>
      </trkpt>
      <trkpt lat="43.257668" lon="-3.465068">
        <ele>84.3</ele>
      </trkpt>
      <trkpt lat="43.25753" lon="-3.464997">
        <ele>84.68</ele>
      </trkpt>
      <trkpt lat="43.25753" lon="-3.464997">
        <ele>84.68</ele>
      </trkpt>
      <trkpt lat="43.257413" lon="-3.464936">
        <ele>85</ele>
      </trkpt>
      <trkpt lat="43.257422" lon="-3.464843">
        <ele>84.8</ele>
      </trkpt>
      <trkpt lat="43.257426" lon="-3.464679">
        <ele>84.4</ele>
      </trkpt>
      <trkpt lat="43.257426" lon="-3.464679">
        <ele>84.4</ele>
      </trkpt>
      <trkpt lat="43.257426" lon="-3.464665">
        <ele>84.41</ele>
      </trkpt>
      <trkpt lat="43.257312" lon="-3.464648">
        <ele>85</ele>
      </trkpt>
      <trkpt lat="43.257299" lon="-3.464564">
        <ele>85</ele>
      </trkpt>
      <trkpt lat="43.257147" lon="-3.464602">
        <ele>85.27</ele>
      </trkpt>
      <trkpt lat="43.257068" lon="-3.464623">
        <ele>85.54</ele>
      </trkpt>
      <trkpt lat="43.256987" lon="-3.464632">
        <ele>85.83</ele>
      </trkpt>
      <trkpt lat="43.256735" lon="-3.464599">
        <ele>86.9</ele>
      </trkpt>
      <trkpt lat="43.256535" lon="-3.464545">
        <ele>87.01</ele>
      </trkpt>
    </trkseg>
  </trk>
</gpx>
