<?xml version="1.0" encoding="UTF-8"?>
<gpx creator="https://gpx.studio" version="1.1" xmlns="http://www.topografix.com/GPX/1/1" xmlns:xsi="http://www.w3.org/2001/XMLSchema-instance" xsi:schemaLocation="http://www.topografix.com/GPX/1/1 http://www.topografix.com/GPX/1/1/gpx.xsd http://www.garmin.com/xmlschemas/GpxExtensions/v3 http://www.garmin.com/xmlschemas/GpxExtensionsv3.xsd http://www.garmin.com/xmlschemas/TrackPointExtension/v1 http://www.garmin.com/xmlschemas/TrackPointExtensionv1.xsd http://www.garmin.com/xmlschemas/PowerExtension/v1 http://www.garmin.com/xmlschemas/PowerExtensionv1.xsd http://www.topografix.com/GPX/gpx_style/0/2 http://www.topografix.com/GPX/gpx_style/0/2/gpx_style.xsd" xmlns:gpxtpx="http://www.garmin.com/xmlschemas/TrackPointExtension/v1" xmlns:gpxx="http://www.garmin.com/xmlschemas/GpxExtensions/v3" xmlns:gpxpx="http://www.garmin.com/xmlschemas/PowerExtension/v1" xmlns:gpx_style="http://www.topografix.com/GPX/gpx_style/0/2">
  <metadata>
    <name>Nuevo archivo 2</name>
    <author>
      <name>gpx.studio</name>
      <link href="https://gpx.studio"/>
    </author>
  </metadata>
  <trk>
    <name>Nuevo archivo 2</name>
    <trkseg>
      <trkpt lat="43.256538" lon="-3.464546">
        <ele>87</ele>
      </trkpt>
      <trkpt lat="43.256735" lon="-3.464599">
        <ele>86.9</ele>
      </trkpt>
      <trkpt lat="43.256987" lon="-3.464632">
        <ele>85.83</ele>
      </trkpt>
      <trkpt lat="43.257068" lon="-3.464623">
        <ele>85.54</ele>
      </trkpt>
      <trkpt lat="43.257095" lon="-3.464615">
        <ele>85.46</ele>
      </trkpt>
      <trkpt lat="43.257147" lon="-3.464602">
        <ele>85.27</ele>
      </trkpt>
      <trkpt lat="43.257299" lon="-3.464564">
        <ele>85</ele>
      </trkpt>
      <trkpt lat="43.257312" lon="-3.464648">
        <ele>85</ele>
      </trkpt>
      <trkpt lat="43.257426" lon="-3.464665">
        <ele>84.41</ele>
      </trkpt>
      <trkpt lat="43.257422" lon="-3.464843">
        <ele>84.8</ele>
      </trkpt>
      <trkpt lat="43.257413" lon="-3.464936">
        <ele>85</ele>
      </trkpt>
      <trkpt lat="43.25742" lon="-3.464936">
        <ele>84.97</ele>
      </trkpt>
      <trkpt lat="43.257413" lon="-3.464936">
        <ele>85</ele>
      </trkpt>
      <trkpt lat="43.257668" lon="-3.465068">
        <ele>84.3</ele>
      </trkpt>
      <trkpt lat="43.257823" lon="-3.465222">
        <ele>84.95</ele>
      </trkpt>
      <trkpt lat="43.257836" lon="-3.465222">
        <ele>84.86</ele>
      </trkpt>
      <trkpt lat="43.25792" lon="-3.465283">
        <ele>84.7</ele>
      </trkpt>
      <trkpt lat="43.258008" lon="-3.465333">
        <ele>84.64</ele>
      </trkpt>
      <trkpt lat="43.258013" lon="-3.465364">
        <ele>84.77</ele>
      </trkpt>
      <trkpt lat="43.25813" lon="-3.465664">
        <ele>84.1</ele>
      </trkpt>
      <trkpt lat="43.258147" lon="-3.465707">
        <ele>84</ele>
      </trkpt>
      <trkpt lat="43.258214" lon="-3.46604">
        <ele>83.63</ele>
      </trkpt>
      <trkpt lat="43.258273" lon="-3.466072">
        <ele>83.38</ele>
      </trkpt>
      <trkpt lat="43.258342" lon="-3.466165">
        <ele>83</ele>
      </trkpt>
      <trkpt lat="43.258362" lon="-3.466223">
        <ele>83</ele>
      </trkpt>
      <trkpt lat="43.25837" lon="-3.466285">
        <ele>83.08</ele>
      </trkpt>
      <trkpt lat="43.258358" lon="-3.466685">
        <ele>82.88</ele>
      </trkpt>
      <trkpt lat="43.258324" lon="-3.467186">
        <ele>81.65</ele>
      </trkpt>
      <trkpt lat="43.25826" lon="-3.467598">
        <ele>81.64</ele>
      </trkpt>
      <trkpt lat="43.258232" lon="-3.467711">
        <ele>81.43</ele>
      </trkpt>
      <trkpt lat="43.258202" lon="-3.467778">
        <ele>81.18</ele>
      </trkpt>
      <trkpt lat="43.258163" lon="-3.46784">
        <ele>81.43</ele>
      </trkpt>
      <trkpt lat="43.258052" lon="-3.467965">
        <ele>80.65</ele>
      </trkpt>
      <trkpt lat="43.257825" lon="-3.46819">
        <ele>78.57</ele>
      </trkpt>
      <trkpt lat="43.257745" lon="-3.468248">
        <ele>76.9</ele>
      </trkpt>
      <trkpt lat="43.257622" lon="-3.468372">
        <ele>74.94</ele>
      </trkpt>
      <trkpt lat="43.257563" lon="-3.468472">
        <ele>74.34</ele>
      </trkpt>
      <trkpt lat="43.257546" lon="-3.468579">
        <ele>74.13</ele>
      </trkpt>
      <trkpt lat="43.257551" lon="-3.468722">
        <ele>72.8</ele>
      </trkpt>
      <trkpt lat="43.257542" lon="-3.468879">
        <ele>70.19</ele>
      </trkpt>
      <trkpt lat="43.257488" lon="-3.469156">
        <ele>70.83</ele>
      </trkpt>
      <trkpt lat="43.257476" lon="-3.46919">
        <ele>71.02</ele>
      </trkpt>
      <trkpt lat="43.25727" lon="-3.469419">
        <ele>73.06</ele>
      </trkpt>
      <trkpt lat="43.25726812384985" lon="-3.469421607530706">
        <ele>73.06031799131877</ele>
      </trkpt>
      <trkpt lat="43.257093" lon="-3.469665">
        <ele>73.09</ele>
      </trkpt>
      <trkpt lat="43.257008" lon="-3.46977">
        <ele>73.23</ele>
      </trkpt>
      <trkpt lat="43.256911" lon="-3.46987">
        <ele>73.3</ele>
      </trkpt>
      <trkpt lat="43.25681" lon="-3.469997">
        <ele>73.45</ele>
      </trkpt>
      <trkpt lat="43.256714" lon="-3.470151">
        <ele>73.49</ele>
      </trkpt>
      <trkpt lat="43.256484" lon="-3.470566">
        <ele>74.07</ele>
      </trkpt>
      <trkpt lat="43.256432" lon="-3.470667">
        <ele>74.16</ele>
      </trkpt>
      <trkpt lat="43.256321" lon="-3.470938">
        <ele>73.61</ele>
      </trkpt>
      <trkpt lat="43.256262" lon="-3.470956">
        <ele>74.36</ele>
      </trkpt>
      <trkpt lat="43.256117" lon="-3.470967">
        <ele>75.92</ele>
      </trkpt>
      <trkpt lat="43.25608" lon="-3.470959">
        <ele>76.3</ele>
      </trkpt>
      <trkpt lat="43.256047" lon="-3.470931">
        <ele>77.07</ele>
      </trkpt>
      <trkpt lat="43.255965" lon="-3.470789">
        <ele>78.9</ele>
      </trkpt>
      <trkpt lat="43.255942" lon="-3.470762">
        <ele>79.03</ele>
      </trkpt>
      <trkpt lat="43.255848" lon="-3.470699">
        <ele>79.82</ele>
      </trkpt>
      <trkpt lat="43.255795" lon="-3.470648">
        <ele>80</ele>
      </trkpt>
      <trkpt lat="43.255728" lon="-3.470528">
        <ele>80.2</ele>
      </trkpt>
      <trkpt lat="43.255637" lon="-3.470323">
        <ele>81.92</ele>
      </trkpt>
      <trkpt lat="43.255592" lon="-3.47029">
        <ele>82.64</ele>
      </trkpt>
      <trkpt lat="43.255527" lon="-3.470298">
        <ele>84.03</ele>
      </trkpt>
      <trkpt lat="43.255287" lon="-3.470458">
        <ele>89.38</ele>
      </trkpt>
      <trkpt lat="43.255159" lon="-3.470641">
        <ele>91.56</ele>
      </trkpt>
      <trkpt lat="43.255133" lon="-3.47064">
        <ele>91.97</ele>
      </trkpt>
      <trkpt lat="43.255112" lon="-3.470607">
        <ele>92.3</ele>
      </trkpt>
      <trkpt lat="43.25506" lon="-3.470592">
        <ele>93.22</ele>
      </trkpt>
      <trkpt lat="43.254988" lon="-3.470507">
        <ele>94.9</ele>
      </trkpt>
      <trkpt lat="43.254936" lon="-3.470433">
        <ele>96.03</ele>
      </trkpt>
      <trkpt lat="43.254914" lon="-3.470371">
        <ele>95.92</ele>
      </trkpt>
      <trkpt lat="43.254846" lon="-3.470283">
        <ele>95.86</ele>
      </trkpt>
      <trkpt lat="43.25456" lon="-3.470277">
        <ele>94.02</ele>
      </trkpt>
      <trkpt lat="43.254468" lon="-3.47033">
        <ele>94.52</ele>
      </trkpt>
      <trkpt lat="43.254399" lon="-3.470415">
        <ele>95.34</ele>
      </trkpt>
      <trkpt lat="43.254307" lon="-3.470595">
        <ele>96.16</ele>
      </trkpt>
      <trkpt lat="43.254133" lon="-3.470766">
        <ele>98.83</ele>
      </trkpt>
      <trkpt lat="43.254051" lon="-3.470857">
        <ele>100.35</ele>
      </trkpt>
      <trkpt lat="43.253957" lon="-3.470928">
        <ele>102.58</ele>
      </trkpt>
      <trkpt lat="43.253871" lon="-3.471052">
        <ele>105.79</ele>
      </trkpt>
      <trkpt lat="43.25382" lon="-3.471208">
        <ele>108.63</ele>
      </trkpt>
      <trkpt lat="43.253828" lon="-3.471364">
        <ele>109.87</ele>
      </trkpt>
      <trkpt lat="43.253725" lon="-3.471776">
        <ele>116.5</ele>
      </trkpt>
      <trkpt lat="43.253691" lon="-3.471913">
        <ele>118.7</ele>
      </trkpt>
      <trkpt lat="43.253611" lon="-3.472163">
        <ele>123.52</ele>
      </trkpt>
      <trkpt lat="43.253521" lon="-3.472369">
        <ele>127.56</ele>
      </trkpt>
      <trkpt lat="43.253498" lon="-3.472493">
        <ele>129.2</ele>
      </trkpt>
      <trkpt lat="43.253504" lon="-3.47272">
        <ele>132.33</ele>
      </trkpt>
      <trkpt lat="43.253579" lon="-3.473038">
        <ele>137.58</ele>
      </trkpt>
      <trkpt lat="43.253603" lon="-3.473212">
        <ele>140.03</ele>
      </trkpt>
      <trkpt lat="43.253614" lon="-3.473366">
        <ele>140.76</ele>
      </trkpt>
      <trkpt lat="43.253605" lon="-3.473454">
        <ele>141.55</ele>
      </trkpt>
      <trkpt lat="43.253586" lon="-3.473537">
        <ele>142.3</ele>
      </trkpt>
      <trkpt lat="43.253545" lon="-3.473657">
        <ele>143.49</ele>
      </trkpt>
      <trkpt lat="43.253498" lon="-3.473693">
        <ele>144.43</ele>
      </trkpt>
      <trkpt lat="43.253446" lon="-3.473693">
        <ele>145.83</ele>
      </trkpt>
      <trkpt lat="43.253236" lon="-3.473637">
        <ele>151.69</ele>
      </trkpt>
      <trkpt lat="43.2531" lon="-3.473654">
        <ele>154.38</ele>
      </trkpt>
      <trkpt lat="43.252939" lon="-3.473796">
        <ele>159.59</ele>
      </trkpt>
      <trkpt lat="43.252864" lon="-3.47392">
        <ele>161.57</ele>
      </trkpt>
      <trkpt lat="43.252804" lon="-3.474129">
        <ele>163.3</ele>
      </trkpt>
      <trkpt lat="43.252577" lon="-3.474465">
        <ele>170.14</ele>
      </trkpt>
      <trkpt lat="43.252452" lon="-3.474609">
        <ele>173.01</ele>
      </trkpt>
      <trkpt lat="43.252388" lon="-3.474698">
        <ele>174.5</ele>
      </trkpt>
      <trkpt lat="43.252336" lon="-3.474786">
        <ele>175.12</ele>
      </trkpt>
      <trkpt lat="43.252302" lon="-3.474928">
        <ele>174.57</ele>
      </trkpt>
      <trkpt lat="43.25227" lon="-3.47499">
        <ele>174.88</ele>
      </trkpt>
      <trkpt lat="43.252203" lon="-3.475054">
        <ele>176.35</ele>
      </trkpt>
      <trkpt lat="43.2521" lon="-3.475102">
        <ele>179.8</ele>
      </trkpt>
      <trkpt lat="43.252021" lon="-3.47509">
        <ele>182.77</ele>
      </trkpt>
      <trkpt lat="43.251969" lon="-3.475072">
        <ele>184.68</ele>
      </trkpt>
      <trkpt lat="43.251834" lon="-3.474857">
        <ele>191.31</ele>
      </trkpt>
      <trkpt lat="43.251797" lon="-3.474822">
        <ele>192.7</ele>
      </trkpt>
      <trkpt lat="43.251682" lon="-3.474833">
        <ele>196.47</ele>
      </trkpt>
      <trkpt lat="43.251658" lon="-3.474807">
        <ele>197.54</ele>
      </trkpt>
      <trkpt lat="43.251643" lon="-3.474677">
        <ele>199.53</ele>
      </trkpt>
      <trkpt lat="43.251671" lon="-3.474471">
        <ele>200.79</ele>
      </trkpt>
      <trkpt lat="43.251673" lon="-3.474262">
        <ele>202.45</ele>
      </trkpt>
      <trkpt lat="43.251688" lon="-3.474011">
        <ele>203.89</ele>
      </trkpt>
      <trkpt lat="43.251684" lon="-3.473781">
        <ele>205.38</ele>
      </trkpt>
      <trkpt lat="43.251655" lon="-3.473486">
        <ele>208.18</ele>
      </trkpt>
      <trkpt lat="43.251596" lon="-3.473003">
        <ele>212.19</ele>
      </trkpt>
      <trkpt lat="43.251533" lon="-3.472655">
        <ele>216.18</ele>
      </trkpt>
      <trkpt lat="43.251437" lon="-3.471986">
        <ele>220.94</ele>
      </trkpt>
      <trkpt lat="43.251377" lon="-3.471677">
        <ele>224.82</ele>
      </trkpt>
      <trkpt lat="43.251271" lon="-3.4713">
        <ele>226.62</ele>
      </trkpt>
      <trkpt lat="43.25113" lon="-3.470972">
        <ele>226.83</ele>
      </trkpt>
      <trkpt lat="43.251031" lon="-3.470881">
        <ele>226.65</ele>
      </trkpt>
      <trkpt lat="43.25087" lon="-3.470822">
        <ele>228.36</ele>
      </trkpt>
      <trkpt lat="43.250724" lon="-3.470695">
        <ele>232.26</ele>
      </trkpt>
      <trkpt lat="43.25067" lon="-3.470521">
        <ele>230.66</ele>
      </trkpt>
      <trkpt lat="43.250585" lon="-3.470368">
        <ele>229.55</ele>
      </trkpt>
      <trkpt lat="43.250329" lon="-3.470132">
        <ele>234.18</ele>
      </trkpt>
      <trkpt lat="43.250147" lon="-3.469938">
        <ele>237.33</ele>
      </trkpt>
      <trkpt lat="43.249872" lon="-3.469614">
        <ele>240.61</ele>
      </trkpt>
      <trkpt lat="43.249734" lon="-3.469469">
        <ele>241.28</ele>
      </trkpt>
      <trkpt lat="43.249671" lon="-3.469427">
        <ele>241.92</ele>
      </trkpt>
      <trkpt lat="43.249488" lon="-3.469304">
        <ele>243.78</ele>
      </trkpt>
      <trkpt lat="43.249309" lon="-3.469233">
        <ele>245.6</ele>
      </trkpt>
      <trkpt lat="43.248992" lon="-3.46916">
        <ele>247.75</ele>
      </trkpt>
      <trkpt lat="43.248706" lon="-3.46913">
        <ele>248.39</ele>
      </trkpt>
      <trkpt lat="43.248556" lon="-3.46913">
        <ele>249.38</ele>
      </trkpt>
      <trkpt lat="43.248309" lon="-3.46923">
        <ele>251.6</ele>
      </trkpt>
      <trkpt lat="43.248148" lon="-3.469345">
        <ele>254.07</ele>
      </trkpt>
      <trkpt lat="43.247847" lon="-3.469628">
        <ele>253.51</ele>
      </trkpt>
      <trkpt lat="43.247761" lon="-3.469746">
        <ele>254.82</ele>
      </trkpt>
      <trkpt lat="43.247706" lon="-3.469882">
        <ele>257.93</ele>
      </trkpt>
      <trkpt lat="43.247551" lon="-3.470153">
        <ele>263.73</ele>
      </trkpt>
      <trkpt lat="43.247452" lon="-3.470392">
        <ele>271.06</ele>
      </trkpt>
      <trkpt lat="43.247403" lon="-3.470536">
        <ele>273.65</ele>
      </trkpt>
      <trkpt lat="43.247401" lon="-3.470651">
        <ele>276.89</ele>
      </trkpt>
      <trkpt lat="43.247459" lon="-3.470978">
        <ele>287.77</ele>
      </trkpt>
      <trkpt lat="43.247454" lon="-3.471061">
        <ele>289.97</ele>
      </trkpt>
      <trkpt lat="43.247332" lon="-3.471414">
        <ele>296.29</ele>
      </trkpt>
      <trkpt lat="43.247278" lon="-3.471529">
        <ele>296.96</ele>
      </trkpt>
      <trkpt lat="43.247208" lon="-3.471606">
        <ele>296.45</ele>
      </trkpt>
      <trkpt lat="43.247012" lon="-3.471774">
        <ele>299.81</ele>
      </trkpt>
      <trkpt lat="43.246798" lon="-3.471948">
        <ele>308.3</ele>
      </trkpt>
      <trkpt lat="43.246583" lon="-3.472089">
        <ele>315.83</ele>
      </trkpt>
      <trkpt lat="43.246518" lon="-3.472198">
        <ele>318.96</ele>
      </trkpt>
      <trkpt lat="43.246411" lon="-3.472517">
        <ele>324.52</ele>
      </trkpt>
      <trkpt lat="43.246395" lon="-3.472611">
        <ele>326.69</ele>
      </trkpt>
      <trkpt lat="43.246391" lon="-3.472739">
        <ele>328.2</ele>
      </trkpt>
      <trkpt lat="43.246376" lon="-3.472849">
        <ele>329.46</ele>
      </trkpt>
      <trkpt lat="43.24634" lon="-3.472962">
        <ele>330.97</ele>
      </trkpt>
      <trkpt lat="43.246281" lon="-3.473087">
        <ele>333.25</ele>
      </trkpt>
      <trkpt lat="43.246183" lon="-3.47325">
        <ele>337.27</ele>
      </trkpt>
      <trkpt lat="43.246123" lon="-3.473378">
        <ele>338.83</ele>
      </trkpt>
      <trkpt lat="43.246088" lon="-3.473425">
        <ele>339.41</ele>
      </trkpt>
      <trkpt lat="43.246041" lon="-3.473516">
        <ele>339.89</ele>
      </trkpt>
      <trkpt lat="43.245945" lon="-3.473746">
        <ele>339.76</ele>
      </trkpt>
      <trkpt lat="43.245747" lon="-3.474144">
        <ele>338.13</ele>
      </trkpt>
      <trkpt lat="43.245588" lon="-3.47447">
        <ele>339.26</ele>
      </trkpt>
      <trkpt lat="43.245473" lon="-3.474794">
        <ele>340.35</ele>
      </trkpt>
      <trkpt lat="43.245377" lon="-3.475122">
        <ele>344.33</ele>
      </trkpt>
      <trkpt lat="43.245268" lon="-3.475626">
        <ele>349.01</ele>
      </trkpt>
      <trkpt lat="43.24516" lon="-3.476278">
        <ele>354.14</ele>
      </trkpt>
      <trkpt lat="43.245133" lon="-3.476383">
        <ele>354.38</ele>
      </trkpt>
      <trkpt lat="43.245108" lon="-3.476448">
        <ele>354.79</ele>
      </trkpt>
      <trkpt lat="43.245081" lon="-3.47652">
        <ele>355.24</ele>
      </trkpt>
      <trkpt lat="43.244987" lon="-3.476892">
        <ele>356.47</ele>
      </trkpt>
      <trkpt lat="43.244977" lon="-3.476988">
        <ele>356.93</ele>
      </trkpt>
      <trkpt lat="43.244969" lon="-3.477292">
        <ele>358.61</ele>
      </trkpt>
      <trkpt lat="43.244937" lon="-3.47742">
        <ele>360.36</ele>
      </trkpt>
      <trkpt lat="43.244886" lon="-3.47756">
        <ele>362.04</ele>
      </trkpt>
      <trkpt lat="43.244864" lon="-3.477649">
        <ele>363.03</ele>
      </trkpt>
      <trkpt lat="43.244872" lon="-3.477737">
        <ele>363.27</ele>
      </trkpt>
      <trkpt lat="43.244845" lon="-3.478004">
        <ele>365.32</ele>
      </trkpt>
      <trkpt lat="43.244801" lon="-3.478219">
        <ele>366.8</ele>
      </trkpt>
      <trkpt lat="43.244777" lon="-3.478381">
        <ele>367.3</ele>
      </trkpt>
      <trkpt lat="43.244705" lon="-3.478642">
        <ele>367.94</ele>
      </trkpt>
      <trkpt lat="43.24448" lon="-3.479331">
        <ele>362.15</ele>
      </trkpt>
      <trkpt lat="43.244415" lon="-3.479551">
        <ele>359.05</ele>
      </trkpt>
      <trkpt lat="43.244382" lon="-3.479709">
        <ele>356.53</ele>
      </trkpt>
      <trkpt lat="43.244364" lon="-3.47986">
        <ele>355.14</ele>
      </trkpt>
      <trkpt lat="43.244351" lon="-3.480017">
        <ele>352.28</ele>
      </trkpt>
      <trkpt lat="43.244346" lon="-3.480234">
        <ele>350.36</ele>
      </trkpt>
      <trkpt lat="43.244375" lon="-3.480383">
        <ele>349.4</ele>
      </trkpt>
      <trkpt lat="43.244434" lon="-3.480577">
        <ele>346.97</ele>
      </trkpt>
      <trkpt lat="43.244513" lon="-3.480732">
        <ele>345.59</ele>
      </trkpt>
      <trkpt lat="43.244525" lon="-3.480794">
        <ele>344.65</ele>
      </trkpt>
      <trkpt lat="43.24451" lon="-3.480867">
        <ele>344.52</ele>
      </trkpt>
      <trkpt lat="43.244347" lon="-3.481464">
        <ele>335.77</ele>
      </trkpt>
      <trkpt lat="43.244215" lon="-3.482204">
        <ele>333.62</ele>
      </trkpt>
      <trkpt lat="43.244205" lon="-3.48244">
        <ele>331.57</ele>
      </trkpt>
      <trkpt lat="43.244237" lon="-3.482747">
        <ele>331.15</ele>
      </trkpt>
      <trkpt lat="43.244276" lon="-3.483033">
        <ele>328.73</ele>
      </trkpt>
      <trkpt lat="43.244273" lon="-3.483173">
        <ele>327.52</ele>
      </trkpt>
      <trkpt lat="43.244257" lon="-3.483343">
        <ele>327.22</ele>
      </trkpt>
      <trkpt lat="43.244225" lon="-3.48351">
        <ele>326.98</ele>
      </trkpt>
      <trkpt lat="43.244201" lon="-3.483897">
        <ele>324.7</ele>
      </trkpt>
      <trkpt lat="43.244173" lon="-3.48413">
        <ele>323.17</ele>
      </trkpt>
      <trkpt lat="43.244167" lon="-3.484314">
        <ele>323.09</ele>
      </trkpt>
      <trkpt lat="43.24421" lon="-3.48463">
        <ele>325.51</ele>
      </trkpt>
      <trkpt lat="43.244296" lon="-3.485143">
        <ele>323.69</ele>
      </trkpt>
      <trkpt lat="43.244317" lon="-3.4853">
        <ele>323.97</ele>
      </trkpt>
      <trkpt lat="43.244323" lon="-3.485476">
        <ele>324.36</ele>
      </trkpt>
      <trkpt lat="43.244358" lon="-3.485851">
        <ele>321.99</ele>
      </trkpt>
      <trkpt lat="43.244412" lon="-3.48615">
        <ele>320.05</ele>
      </trkpt>
      <trkpt lat="43.244447" lon="-3.486288">
        <ele>319.77</ele>
      </trkpt>
      <trkpt lat="43.244773" lon="-3.48712">
        <ele>319.36</ele>
      </trkpt>
      <trkpt lat="43.244887" lon="-3.487519">
        <ele>317.39</ele>
      </trkpt>
      <trkpt lat="43.245051" lon="-3.487839">
        <ele>317.73</ele>
      </trkpt>
      <trkpt lat="43.245091" lon="-3.487904">
        <ele>317.23</ele>
      </trkpt>
      <trkpt lat="43.245143" lon="-3.487964">
        <ele>316.09</ele>
      </trkpt>
      <trkpt lat="43.24517" lon="-3.487859">
        <ele>314.18</ele>
      </trkpt>
      <trkpt lat="43.245146" lon="-3.487506">
        <ele>308.47</ele>
      </trkpt>
      <trkpt lat="43.245152" lon="-3.487007">
        <ele>301.6</ele>
      </trkpt>
      <trkpt lat="43.245166" lon="-3.486902">
        <ele>299.22</ele>
      </trkpt>
      <trkpt lat="43.245193" lon="-3.486872">
        <ele>297.65</ele>
      </trkpt>
      <trkpt lat="43.245219" lon="-3.486874">
        <ele>296.89</ele>
      </trkpt>
      <trkpt lat="43.245239" lon="-3.486893">
        <ele>296.68</ele>
      </trkpt>
      <trkpt lat="43.245273" lon="-3.486962">
        <ele>296.54</ele>
      </trkpt>
      <trkpt lat="43.245293" lon="-3.487032">
        <ele>296.65</ele>
      </trkpt>
      <trkpt lat="43.245315" lon="-3.487069">
        <ele>296.51</ele>
      </trkpt>
      <trkpt lat="43.245364" lon="-3.487062">
        <ele>295.21</ele>
      </trkpt>
      <trkpt lat="43.245378" lon="-3.487045">
        <ele>294.61</ele>
      </trkpt>
      <trkpt lat="43.24539" lon="-3.486994">
        <ele>293.49</ele>
      </trkpt>
      <trkpt lat="43.245392" lon="-3.486692">
        <ele>288.21</ele>
      </trkpt>
      <trkpt lat="43.245373" lon="-3.486568">
        <ele>286.02</ele>
      </trkpt>
      <trkpt lat="43.245332" lon="-3.48644">
        <ele>283.42</ele>
      </trkpt>
      <trkpt lat="43.245265" lon="-3.4863">
        <ele>281.15</ele>
      </trkpt>
      <trkpt lat="43.245239" lon="-3.486215">
        <ele>280.42</ele>
      </trkpt>
      <trkpt lat="43.245233" lon="-3.486127">
        <ele>279.53</ele>
      </trkpt>
      <trkpt lat="43.245258" lon="-3.486039">
        <ele>277.53</ele>
      </trkpt>
      <trkpt lat="43.245322" lon="-3.4857">
        <ele>272.03</ele>
      </trkpt>
      <trkpt lat="43.245342" lon="-3.485575">
        <ele>270.47</ele>
      </trkpt>
      <trkpt lat="43.245379" lon="-3.485463">
        <ele>269.07</ele>
      </trkpt>
      <trkpt lat="43.245446" lon="-3.485352">
        <ele>266.85</ele>
      </trkpt>
      <trkpt lat="43.24553" lon="-3.48526">
        <ele>264.39</ele>
      </trkpt>
      <trkpt lat="43.245638" lon="-3.485164">
        <ele>262.34</ele>
      </trkpt>
      <trkpt lat="43.245724" lon="-3.485102">
        <ele>261.1</ele>
      </trkpt>
      <trkpt lat="43.245947" lon="-3.485057">
        <ele>257.21</ele>
      </trkpt>
      <trkpt lat="43.246072" lon="-3.485082">
        <ele>254.51</ele>
      </trkpt>
      <trkpt lat="43.246141" lon="-3.485123">
        <ele>253.28</ele>
      </trkpt>
      <trkpt lat="43.246167" lon="-3.485159">
        <ele>252.99</ele>
      </trkpt>
      <trkpt lat="43.246205" lon="-3.485275">
        <ele>250.64</ele>
      </trkpt>
      <trkpt lat="43.246232" lon="-3.48545">
        <ele>248.51</ele>
      </trkpt>
      <trkpt lat="43.246219" lon="-3.485831">
        <ele>244.46</ele>
      </trkpt>
      <trkpt lat="43.246239" lon="-3.485911">
        <ele>243.42</ele>
      </trkpt>
      <trkpt lat="43.24631" lon="-3.486026">
        <ele>240.91</ele>
      </trkpt>
      <trkpt lat="43.246407" lon="-3.486136">
        <ele>239.42</ele>
      </trkpt>
      <trkpt lat="43.246469" lon="-3.486191">
        <ele>238.29</ele>
      </trkpt>
      <trkpt lat="43.246532" lon="-3.486223">
        <ele>237.39</ele>
      </trkpt>
      <trkpt lat="43.246832" lon="-3.486288">
        <ele>231.89</ele>
      </trkpt>
      <trkpt lat="43.246916" lon="-3.486294">
        <ele>230.56</ele>
      </trkpt>
      <trkpt lat="43.246977" lon="-3.486285">
        <ele>229.42</ele>
      </trkpt>
      <trkpt lat="43.247018" lon="-3.486253">
        <ele>228.2</ele>
      </trkpt>
      <trkpt lat="43.247048" lon="-3.486206">
        <ele>226.99</ele>
      </trkpt>
      <trkpt lat="43.247069" lon="-3.486148">
        <ele>226.56</ele>
      </trkpt>
      <trkpt lat="43.247096" lon="-3.485979">
        <ele>225.74</ele>
      </trkpt>
      <trkpt lat="43.247122" lon="-3.485887">
        <ele>225.3</ele>
      </trkpt>
      <trkpt lat="43.247159" lon="-3.485808">
        <ele>225.12</ele>
      </trkpt>
      <trkpt lat="43.247211" lon="-3.485731">
        <ele>224.6</ele>
      </trkpt>
      <trkpt lat="43.247322" lon="-3.485596">
        <ele>222.59</ele>
      </trkpt>
      <trkpt lat="43.247564" lon="-3.485268">
        <ele>216.07</ele>
      </trkpt>
      <trkpt lat="43.247639" lon="-3.485125">
        <ele>213.3</ele>
      </trkpt>
      <trkpt lat="43.247674" lon="-3.485014">
        <ele>211.16</ele>
      </trkpt>
      <trkpt lat="43.247714" lon="-3.484973">
        <ele>209.61</ele>
      </trkpt>
      <trkpt lat="43.247774" lon="-3.484964">
        <ele>207.71</ele>
      </trkpt>
      <trkpt lat="43.24786" lon="-3.484975">
        <ele>205.32</ele>
      </trkpt>
      <trkpt lat="43.247923" lon="-3.484962">
        <ele>203.56</ele>
      </trkpt>
      <trkpt lat="43.247993" lon="-3.484913">
        <ele>202.06</ele>
      </trkpt>
      <trkpt lat="43.248048" lon="-3.484855">
        <ele>200.38</ele>
      </trkpt>
      <trkpt lat="43.248101" lon="-3.48478">
        <ele>198.82</ele>
      </trkpt>
      <trkpt lat="43.24815" lon="-3.484695">
        <ele>196.93</ele>
      </trkpt>
      <trkpt lat="43.248191" lon="-3.484592">
        <ele>195.53</ele>
      </trkpt>
      <trkpt lat="43.248209" lon="-3.484496">
        <ele>194.78</ele>
      </trkpt>
      <trkpt lat="43.248212" lon="-3.484327">
        <ele>192.54</ele>
      </trkpt>
      <trkpt lat="43.248225" lon="-3.484269">
        <ele>191.94</ele>
      </trkpt>
      <trkpt lat="43.248273" lon="-3.484172">
        <ele>190.61</ele>
      </trkpt>
      <trkpt lat="43.248352" lon="-3.483975">
        <ele>187.19</ele>
      </trkpt>
      <trkpt lat="43.248425" lon="-3.483868">
        <ele>185.4</ele>
      </trkpt>
      <trkpt lat="43.248564" lon="-3.483725">
        <ele>182.88</ele>
      </trkpt>
      <trkpt lat="43.248886" lon="-3.483301">
        <ele>176.78</ele>
      </trkpt>
      <trkpt lat="43.248936" lon="-3.483059">
        <ele>175.56</ele>
      </trkpt>
      <trkpt lat="43.248988" lon="-3.482924">
        <ele>174.01</ele>
      </trkpt>
      <trkpt lat="43.249035" lon="-3.482873">
        <ele>172.98</ele>
      </trkpt>
      <trkpt lat="43.249066" lon="-3.48286">
        <ele>172.24</ele>
      </trkpt>
      <trkpt lat="43.249102" lon="-3.482858">
        <ele>171.38</ele>
      </trkpt>
      <trkpt lat="43.249304" lon="-3.482963">
        <ele>168.03</ele>
      </trkpt>
      <trkpt lat="43.249621" lon="-3.483098">
        <ele>162.91</ele>
      </trkpt>
      <trkpt lat="43.249945" lon="-3.483113">
        <ele>158.75</ele>
      </trkpt>
      <trkpt lat="43.250304" lon="-3.483248">
        <ele>153.59</ele>
      </trkpt>
      <trkpt lat="43.250414" lon="-3.483322">
        <ele>152.53</ele>
      </trkpt>
      <trkpt lat="43.250825" lon="-3.483742">
        <ele>143.2</ele>
      </trkpt>
      <trkpt lat="43.251078" lon="-3.483933">
        <ele>137.41</ele>
      </trkpt>
      <trkpt lat="43.251123" lon="-3.483931">
        <ele>136.58</ele>
      </trkpt>
      <trkpt lat="43.251149" lon="-3.483903">
        <ele>135.83</ele>
      </trkpt>
      <trkpt lat="43.251167" lon="-3.483864">
        <ele>135.06</ele>
      </trkpt>
      <trkpt lat="43.251174" lon="-3.483748">
        <ele>133.59</ele>
      </trkpt>
      <trkpt lat="43.251157" lon="-3.483605">
        <ele>132.33</ele>
      </trkpt>
      <trkpt lat="43.251103" lon="-3.483337">
        <ele>130.52</ele>
      </trkpt>
      <trkpt lat="43.25107" lon="-3.483136">
        <ele>128.08</ele>
      </trkpt>
      <trkpt lat="43.251081" lon="-3.483076">
        <ele>127.21</ele>
      </trkpt>
      <trkpt lat="43.2511" lon="-3.483036">
        <ele>126.41</ele>
      </trkpt>
      <trkpt lat="43.251122" lon="-3.483018">
        <ele>125.64</ele>
      </trkpt>
      <trkpt lat="43.25117" lon="-3.483001">
        <ele>124.09</ele>
      </trkpt>
      <trkpt lat="43.251224" lon="-3.483021">
        <ele>122.94</ele>
      </trkpt>
      <trkpt lat="43.251294" lon="-3.483063">
        <ele>121.75</ele>
      </trkpt>
      <trkpt lat="43.251373" lon="-3.483076">
        <ele>120.38</ele>
      </trkpt>
      <trkpt lat="43.251403" lon="-3.48307">
        <ele>119.76</ele>
      </trkpt>
      <trkpt lat="43.251427" lon="-3.483053">
        <ele>119.04</ele>
      </trkpt>
      <trkpt lat="43.251447" lon="-3.483024">
        <ele>118.15</ele>
      </trkpt>
      <trkpt lat="43.251464" lon="-3.482949">
        <ele>116.6</ele>
      </trkpt>
      <trkpt lat="43.251464" lon="-3.482865">
        <ele>115.51</ele>
      </trkpt>
      <trkpt lat="43.251445" lon="-3.482764">
        <ele>114.6</ele>
      </trkpt>
      <trkpt lat="43.25141" lon="-3.482634">
        <ele>113.14</ele>
      </trkpt>
      <trkpt lat="43.25136" lon="-3.482506">
        <ele>112.69</ele>
      </trkpt>
      <trkpt lat="43.251317" lon="-3.48242">
        <ele>112.73</ele>
      </trkpt>
      <trkpt lat="43.251183" lon="-3.482194">
        <ele>113.34</ele>
      </trkpt>
      <trkpt lat="43.25108" lon="-3.481917">
        <ele>112.26</ele>
      </trkpt>
      <trkpt lat="43.251067" lon="-3.48179">
        <ele>111.33</ele>
      </trkpt>
      <trkpt lat="43.251068" lon="-3.481717">
        <ele>110.34</ele>
      </trkpt>
      <trkpt lat="43.251077" lon="-3.48166">
        <ele>109.15</ele>
      </trkpt>
      <trkpt lat="43.251106" lon="-3.481573">
        <ele>107.31</ele>
      </trkpt>
      <trkpt lat="43.25117" lon="-3.481447">
        <ele>104.02</ele>
      </trkpt>
      <trkpt lat="43.251179" lon="-3.48134">
        <ele>102.73</ele>
      </trkpt>
      <trkpt lat="43.251163" lon="-3.48127">
        <ele>102.56</ele>
      </trkpt>
      <trkpt lat="43.251137" lon="-3.48121">
        <ele>102.8</ele>
      </trkpt>
      <trkpt lat="43.25113" lon="-3.481163">
        <ele>103.03</ele>
      </trkpt>
      <trkpt lat="43.251124" lon="-3.481031">
        <ele>103.47</ele>
      </trkpt>
      <trkpt lat="43.251126" lon="-3.480858">
        <ele>103.27</ele>
      </trkpt>
      <trkpt lat="43.251138" lon="-3.480679">
        <ele>101.95</ele>
      </trkpt>
      <trkpt lat="43.251178" lon="-3.4805">
        <ele>100.37</ele>
      </trkpt>
      <trkpt lat="43.251194" lon="-3.480484">
        <ele>100.29</ele>
      </trkpt>
      <trkpt lat="43.251222" lon="-3.480479">
        <ele>100.24</ele>
      </trkpt>
      <trkpt lat="43.251397" lon="-3.480499">
        <ele>98.77</ele>
      </trkpt>
      <trkpt lat="43.251562" lon="-3.480499">
        <ele>96.22</ele>
      </trkpt>
      <trkpt lat="43.251706" lon="-3.480525">
        <ele>96.06</ele>
      </trkpt>
      <trkpt lat="43.25184" lon="-3.480526">
        <ele>95.77</ele>
      </trkpt>
      <trkpt lat="43.252065" lon="-3.480416">
        <ele>94</ele>
      </trkpt>
      <trkpt lat="43.252252" lon="-3.480278">
        <ele>95.02</ele>
      </trkpt>
      <trkpt lat="43.25229" lon="-3.480258">
        <ele>95.45</ele>
      </trkpt>
      <trkpt lat="43.252389" lon="-3.480232">
        <ele>95.78</ele>
      </trkpt>
      <trkpt lat="43.25245" lon="-3.480233">
        <ele>95.7</ele>
      </trkpt>
      <trkpt lat="43.252525" lon="-3.480107">
        <ele>95.15</ele>
      </trkpt>
      <trkpt lat="43.252719" lon="-3.480162">
        <ele>94.95</ele>
      </trkpt>
      <trkpt lat="43.252734" lon="-3.480147">
        <ele>94.9</ele>
      </trkpt>
      <trkpt lat="43.252924" lon="-3.48013">
        <ele>93.19</ele>
      </trkpt>
      <trkpt lat="43.252956" lon="-3.48011">
        <ele>93</ele>
      </trkpt>
      <trkpt lat="43.253025" lon="-3.479871">
        <ele>92.13</ele>
      </trkpt>
      <trkpt lat="43.253039" lon="-3.479795">
        <ele>91.62</ele>
      </trkpt>
      <trkpt lat="43.253039" lon="-3.479364">
        <ele>89.52</ele>
      </trkpt>
      <trkpt lat="43.253039" lon="-3.479216">
        <ele>88.8</ele>
      </trkpt>
      <trkpt lat="43.253076" lon="-3.47895">
        <ele>87.96</ele>
      </trkpt>
      <trkpt lat="43.253081" lon="-3.478857">
        <ele>87.5</ele>
      </trkpt>
      <trkpt lat="43.253069" lon="-3.478783">
        <ele>87.06</ele>
      </trkpt>
      <trkpt lat="43.252949" lon="-3.478563">
        <ele>87.44</ele>
      </trkpt>
      <trkpt lat="43.252947" lon="-3.478515">
        <ele>87.71</ele>
      </trkpt>
      <trkpt lat="43.252964" lon="-3.478457">
        <ele>87.89</ele>
      </trkpt>
      <trkpt lat="43.253003" lon="-3.478377">
        <ele>88.05</ele>
      </trkpt>
      <trkpt lat="43.253123" lon="-3.478195">
        <ele>88.15</ele>
      </trkpt>
      <trkpt lat="43.25346" lon="-3.477816">
        <ele>87.69</ele>
      </trkpt>
      <trkpt lat="43.253514" lon="-3.477734">
        <ele>87.71</ele>
      </trkpt>
      <trkpt lat="43.253595" lon="-3.477644">
        <ele>87.62</ele>
      </trkpt>
      <trkpt lat="43.253793" lon="-3.477453">
        <ele>86.18</ele>
      </trkpt>
      <trkpt lat="43.254097" lon="-3.477176">
        <ele>86.41</ele>
      </trkpt>
      <trkpt lat="43.254188" lon="-3.477118">
        <ele>86.03</ele>
      </trkpt>
      <trkpt lat="43.254261" lon="-3.477096">
        <ele>86.01</ele>
      </trkpt>
      <trkpt lat="43.25445" lon="-3.477106">
        <ele>85</ele>
      </trkpt>
      <trkpt lat="43.25461" lon="-3.477176">
        <ele>84.84</ele>
      </trkpt>
      <trkpt lat="43.254689" lon="-3.477241">
        <ele>84.19</ele>
      </trkpt>
      <trkpt lat="43.254841" lon="-3.477437">
        <ele>84</ele>
      </trkpt>
      <trkpt lat="43.254914" lon="-3.477461">
        <ele>84.11</ele>
      </trkpt>
      <trkpt lat="43.254953" lon="-3.477456">
        <ele>84.01</ele>
      </trkpt>
      <trkpt lat="43.255012" lon="-3.47742">
        <ele>83.45</ele>
      </trkpt>
      <trkpt lat="43.255077" lon="-3.477361">
        <ele>82.9</ele>
      </trkpt>
      <trkpt lat="43.255172" lon="-3.47725">
        <ele>81.44</ele>
      </trkpt>
      <trkpt lat="43.255312" lon="-3.477011">
        <ele>80.58</ele>
      </trkpt>
      <trkpt lat="43.25547" lon="-3.476642">
        <ele>79.3</ele>
      </trkpt>
      <trkpt lat="43.25555" lon="-3.476413">
        <ele>78.3</ele>
      </trkpt>
      <trkpt lat="43.255694" lon="-3.476127">
        <ele>77.65</ele>
      </trkpt>
      <trkpt lat="43.255739" lon="-3.476093">
        <ele>76.83</ele>
      </trkpt>
      <trkpt lat="43.255683" lon="-3.47553">
        <ele>75.1</ele>
      </trkpt>
      <trkpt lat="43.255683" lon="-3.475451">
        <ele>75.21</ele>
      </trkpt>
      <trkpt lat="43.255683" lon="-3.475199">
        <ele>75.54</ele>
      </trkpt>
      <trkpt lat="43.255709" lon="-3.474933">
        <ele>76.53</ele>
      </trkpt>
      <trkpt lat="43.255714" lon="-3.474687">
        <ele>75.55</ele>
      </trkpt>
      <trkpt lat="43.255721" lon="-3.474576">
        <ele>76.42</ele>
      </trkpt>
      <trkpt lat="43.255743" lon="-3.474436">
        <ele>76.24</ele>
      </trkpt>
      <trkpt lat="43.255798" lon="-3.474278">
        <ele>75.42</ele>
      </trkpt>
      <trkpt lat="43.255825" lon="-3.474142">
        <ele>76.01</ele>
      </trkpt>
      <trkpt lat="43.255912" lon="-3.473234">
        <ele>74.37</ele>
      </trkpt>
      <trkpt lat="43.255967" lon="-3.47286">
        <ele>75.02</ele>
      </trkpt>
      <trkpt lat="43.255972" lon="-3.472391">
        <ele>75.35</ele>
      </trkpt>
      <trkpt lat="43.256001" lon="-3.472044">
        <ele>74.66</ele>
      </trkpt>
      <trkpt lat="43.256018" lon="-3.471925">
        <ele>74.25</ele>
      </trkpt>
      <trkpt lat="43.256136" lon="-3.471436">
        <ele>72.95</ele>
      </trkpt>
      <trkpt lat="43.256227" lon="-3.471173">
        <ele>72.6</ele>
      </trkpt>
      <trkpt lat="43.256432" lon="-3.470667">
        <ele>74.16</ele>
      </trkpt>
      <trkpt lat="43.256515" lon="-3.470509">
        <ele>73.99</ele>
      </trkpt>
      <trkpt lat="43.256714" lon="-3.470151">
        <ele>73.49</ele>
      </trkpt>
      <trkpt lat="43.25681" lon="-3.469997">
        <ele>73.45</ele>
      </trkpt>
      <trkpt lat="43.256902" lon="-3.469879">
        <ele>73.31</ele>
      </trkpt>
      <trkpt lat="43.257008" lon="-3.46977">
        <ele>73.23</ele>
      </trkpt>
      <trkpt lat="43.257198" lon="-3.469519">
        <ele>73.08</ele>
      </trkpt>
      <trkpt lat="43.25727" lon="-3.469419">
        <ele>73.06</ele>
      </trkpt>
      <trkpt lat="43.257476" lon="-3.46919">
        <ele>71.02</ele>
      </trkpt>
      <trkpt lat="43.257488" lon="-3.469156">
        <ele>70.83</ele>
      </trkpt>
      <trkpt lat="43.257542" lon="-3.468879">
        <ele>70.19</ele>
      </trkpt>
      <trkpt lat="43.257551" lon="-3.468722">
        <ele>72.8</ele>
      </trkpt>
      <trkpt lat="43.257546" lon="-3.468579">
        <ele>74.13</ele>
      </trkpt>
      <trkpt lat="43.257563" lon="-3.468472">
        <ele>74.34</ele>
      </trkpt>
      <trkpt lat="43.257617" lon="-3.468379">
        <ele>74.89</ele>
      </trkpt>
      <trkpt lat="43.257617" lon="-3.468379">
        <ele>74.89</ele>
      </trkpt>
      <trkpt lat="43.257734" lon="-3.468256">
        <ele>76.67</ele>
      </trkpt>
      <trkpt lat="43.257825" lon="-3.46819">
        <ele>78.57</ele>
      </trkpt>
      <trkpt lat="43.258052" lon="-3.467965">
        <ele>80.65</ele>
      </trkpt>
      <trkpt lat="43.258163" lon="-3.46784">
        <ele>81.43</ele>
      </trkpt>
      <trkpt lat="43.258202" lon="-3.467778">
        <ele>81.18</ele>
      </trkpt>
      <trkpt lat="43.258232" lon="-3.467711">
        <ele>81.43</ele>
      </trkpt>
      <trkpt lat="43.25826" lon="-3.467598">
        <ele>81.64</ele>
      </trkpt>
      <trkpt lat="43.258324" lon="-3.467186">
        <ele>81.65</ele>
      </trkpt>
      <trkpt lat="43.258341" lon="-3.466928">
        <ele>82.28</ele>
      </trkpt>
      <trkpt lat="43.258358" lon="-3.466685">
        <ele>82.88</ele>
      </trkpt>
      <trkpt lat="43.25837" lon="-3.466285">
        <ele>83.08</ele>
      </trkpt>
      <trkpt lat="43.258362" lon="-3.466223">
        <ele>83</ele>
      </trkpt>
      <trkpt lat="43.258342" lon="-3.466165">
        <ele>83</ele>
      </trkpt>
      <trkpt lat="43.258273" lon="-3.466072">
        <ele>83.38</ele>
      </trkpt>
      <trkpt lat="43.258214" lon="-3.46604">
        <ele>83.63</ele>
      </trkpt>
      <trkpt lat="43.258147" lon="-3.465707">
        <ele>84</ele>
      </trkpt>
      <trkpt lat="43.258093" lon="-3.465569">
        <ele>84.31</ele>
      </trkpt>
      <trkpt lat="43.258013" lon="-3.465364">
        <ele>84.77</ele>
      </trkpt>
      <trkpt lat="43.258008" lon="-3.465333">
        <ele>84.64</ele>
      </trkpt>
      <trkpt lat="43.25792" lon="-3.465283">
        <ele>84.7</ele>
      </trkpt>
      <trkpt lat="43.257836" lon="-3.465222">
        <ele>84.86</ele>
      </trkpt>
      <trkpt lat="43.257823" lon="-3.465222">
        <ele>84.95</ele>
      </trkpt>
      <trkpt lat="43.257769" lon="-3.465168">
        <ele>84.72</ele>
      </trkpt>
      <trkpt lat="43.257668" lon="-3.465068">
        <ele>84.3</ele>
      </trkpt>
      <trkpt lat="43.257413" lon="-3.464936">
        <ele>85</ele>
      </trkpt>
      <trkpt lat="43.257422" lon="-3.464843">
        <ele>84.8</ele>
      </trkpt>
      <trkpt lat="43.257426" lon="-3.464665">
        <ele>84.41</ele>
      </trkpt>
      <trkpt lat="43.257352" lon="-3.464654">
        <ele>84.8</ele>
      </trkpt>
      <trkpt lat="43.257352" lon="-3.464654">
        <ele>84.8</ele>
      </trkpt>
      <trkpt lat="43.257312" lon="-3.464648">
        <ele>85</ele>
      </trkpt>
      <trkpt lat="43.257299" lon="-3.464564">
        <ele>85</ele>
      </trkpt>
      <trkpt lat="43.257147" lon="-3.464602">
        <ele>85.27</ele>
      </trkpt>
      <trkpt lat="43.257068" lon="-3.464623">
        <ele>85.54</ele>
      </trkpt>
      <trkpt lat="43.256987" lon="-3.464632">
        <ele>85.83</ele>
      </trkpt>
      <trkpt lat="43.256735" lon="-3.464599">
        <ele>86.9</ele>
      </trkpt>
      <trkpt lat="43.256538" lon="-3.464546">
        <ele>87</ele>
      </trkpt>
    </trkseg>
  </trk>
</gpx>
