<?xml version="1.0" encoding="UTF-8"?>
<gpx creator="Wikiloc - https://www.wikiloc.com" version="1.1" schemaLocation="http://www.topografix.com/GPX/1/1 http://www.topografix.com/GPX/1/1/gpx.xsd" xmlns="http://www.topografix.com/GPX/1/1" xmlns:xsi="http://www.w3.org/2001/XMLSchema-instance" xsi:schemaLocation="http://www.topografix.com/GPX/1/1 http://www.topografix.com/GPX/1/1/gpx.xsd http://www.garmin.com/xmlschemas/GpxExtensions/v3 http://www.garmin.com/xmlschemas/GpxExtensionsv3.xsd http://www.garmin.com/xmlschemas/TrackPointExtension/v1 http://www.garmin.com/xmlschemas/TrackPointExtensionv1.xsd http://www.garmin.com/xmlschemas/PowerExtension/v1 http://www.garmin.com/xmlschemas/PowerExtensionv1.xsd http://www.topografix.com/GPX/gpx_style/0/2 http://www.topografix.com/GPX/gpx_style/0/2/gpx_style.xsd" xmlns:gpxtpx="http://www.garmin.com/xmlschemas/TrackPointExtension/v1" xmlns:gpxx="http://www.garmin.com/xmlschemas/GpxExtensions/v3" xmlns:gpxpx="http://www.garmin.com/xmlschemas/PowerExtension/v1" xmlns:gpx_style="http://www.topografix.com/GPX/gpx_style/0/2">
  <metadata>
    <name>Wikiloc - Monte Cucurio, Ancillo, Ramales</name>
    <author>
      <name>gpx.studio</name>
      <link href="https://gpx.studio"/>
    </author>
    <link href="https://www.wikiloc.com/hiking-trails/monte-cucurio-ancillo-ramales-236565598">
      <text>Monte Cucurio, Ancillo, Ramales - Wikiloc on Wikiloc</text>
    </link>
  </metadata>
  <trk>
    <name>Monte Cucurio, Ancillo, Ramales - Wikiloc</name>
    <trkseg>
      <trkpt lat="43.256536" lon="-3.464563">
        <ele>87</ele>
      </trkpt>
      <trkpt lat="43.256538" lon="-3.464546">
        <ele>87</ele>
      </trkpt>
      <trkpt lat="43.256735" lon="-3.464599">
        <ele>86.9</ele>
      </trkpt>
      <trkpt lat="43.256822" lon="-3.46461">
        <ele>86.53</ele>
      </trkpt>
      <trkpt lat="43.256987" lon="-3.464632">
        <ele>85.83</ele>
      </trkpt>
      <trkpt lat="43.257068" lon="-3.464623">
        <ele>85.54</ele>
      </trkpt>
      <trkpt lat="43.257119" lon="-3.464609">
        <ele>85.38</ele>
      </trkpt>
      <trkpt lat="43.257119" lon="-3.464609">
        <ele>85.38</ele>
      </trkpt>
      <trkpt lat="43.257147" lon="-3.464602">
        <ele>85.27</ele>
      </trkpt>
      <trkpt lat="43.257299" lon="-3.464564">
        <ele>85</ele>
      </trkpt>
      <trkpt lat="43.257312" lon="-3.464648">
        <ele>85</ele>
      </trkpt>
      <trkpt lat="43.257403" lon="-3.464661">
        <ele>84.53</ele>
      </trkpt>
      <trkpt lat="43.257403" lon="-3.464661">
        <ele>84.53</ele>
      </trkpt>
      <trkpt lat="43.257426" lon="-3.464665">
        <ele>84.41</ele>
      </trkpt>
      <trkpt lat="43.257422" lon="-3.464843">
        <ele>84.8</ele>
      </trkpt>
      <trkpt lat="43.257414" lon="-3.464923">
        <ele>84.97</ele>
      </trkpt>
      <trkpt lat="43.257414" lon="-3.464923">
        <ele>84.97</ele>
      </trkpt>
      <trkpt lat="43.257414" lon="-3.464923">
        <ele>84.97</ele>
      </trkpt>
      <trkpt lat="43.257413" lon="-3.464936">
        <ele>85</ele>
      </trkpt>
      <trkpt lat="43.257668" lon="-3.465068">
        <ele>84.3</ele>
      </trkpt>
      <trkpt lat="43.257823" lon="-3.465222">
        <ele>84.95</ele>
      </trkpt>
      <trkpt lat="43.257836" lon="-3.465222">
        <ele>84.86</ele>
      </trkpt>
      <trkpt lat="43.257902" lon="-3.465266">
        <ele>84.65</ele>
      </trkpt>
      <trkpt lat="43.257902" lon="-3.465266">
        <ele>84.65</ele>
      </trkpt>
      <trkpt lat="43.25792" lon="-3.465283">
        <ele>84.7</ele>
      </trkpt>
      <trkpt lat="43.258008" lon="-3.465333">
        <ele>84.64</ele>
      </trkpt>
      <trkpt lat="43.258013" lon="-3.465364">
        <ele>84.77</ele>
      </trkpt>
      <trkpt lat="43.258147" lon="-3.465707">
        <ele>84</ele>
      </trkpt>
      <trkpt lat="43.258214" lon="-3.46604">
        <ele>83.63</ele>
      </trkpt>
      <trkpt lat="43.258273" lon="-3.466072">
        <ele>83.38</ele>
      </trkpt>
      <trkpt lat="43.258301" lon="-3.46611">
        <ele>83.22</ele>
      </trkpt>
      <trkpt lat="43.258342" lon="-3.466165">
        <ele>83</ele>
      </trkpt>
      <trkpt lat="43.258362" lon="-3.466223">
        <ele>83</ele>
      </trkpt>
      <trkpt lat="43.25837" lon="-3.466285">
        <ele>83.08</ele>
      </trkpt>
      <trkpt lat="43.258358" lon="-3.466685">
        <ele>82.88</ele>
      </trkpt>
      <trkpt lat="43.258324" lon="-3.467186">
        <ele>81.65</ele>
      </trkpt>
      <trkpt lat="43.258287" lon="-3.467432">
        <ele>81.44</ele>
      </trkpt>
      <trkpt lat="43.258287" lon="-3.467432">
        <ele>81.44</ele>
      </trkpt>
      <trkpt lat="43.258287" lon="-3.467432">
        <ele>81.44</ele>
      </trkpt>
      <trkpt lat="43.25826" lon="-3.467598">
        <ele>81.64</ele>
      </trkpt>
      <trkpt lat="43.258232" lon="-3.467711">
        <ele>81.43</ele>
      </trkpt>
      <trkpt lat="43.258202" lon="-3.467778">
        <ele>81.18</ele>
      </trkpt>
      <trkpt lat="43.258163" lon="-3.46784">
        <ele>81.43</ele>
      </trkpt>
      <trkpt lat="43.258052" lon="-3.467965">
        <ele>80.65</ele>
      </trkpt>
      <trkpt lat="43.257825" lon="-3.46819">
        <ele>78.57</ele>
      </trkpt>
      <trkpt lat="43.257734" lon="-3.468256">
        <ele>76.67</ele>
      </trkpt>
      <trkpt lat="43.257622" lon="-3.468372">
        <ele>74.94</ele>
      </trkpt>
      <trkpt lat="43.257563" lon="-3.468472">
        <ele>74.34</ele>
      </trkpt>
      <trkpt lat="43.257546" lon="-3.468579">
        <ele>74.13</ele>
      </trkpt>
      <trkpt lat="43.257551" lon="-3.468722">
        <ele>72.8</ele>
      </trkpt>
      <trkpt lat="43.257542" lon="-3.468879">
        <ele>70.19</ele>
      </trkpt>
      <trkpt lat="43.257488" lon="-3.469156">
        <ele>70.83</ele>
      </trkpt>
      <trkpt lat="43.257488" lon="-3.469156">
        <ele>70.83</ele>
      </trkpt>
      <trkpt lat="43.257476" lon="-3.46919">
        <ele>71.02</ele>
      </trkpt>
      <trkpt lat="43.25727" lon="-3.469419">
        <ele>73.06</ele>
      </trkpt>
      <trkpt lat="43.257093" lon="-3.469665">
        <ele>73.09</ele>
      </trkpt>
      <trkpt lat="43.257008" lon="-3.46977">
        <ele>73.23</ele>
      </trkpt>
      <trkpt lat="43.256902" lon="-3.469879">
        <ele>73.31</ele>
      </trkpt>
      <trkpt lat="43.25681" lon="-3.469997">
        <ele>73.45</ele>
      </trkpt>
      <trkpt lat="43.256714" lon="-3.470151">
        <ele>73.49</ele>
      </trkpt>
      <trkpt lat="43.256484" lon="-3.470566">
        <ele>74.07</ele>
      </trkpt>
      <trkpt lat="43.256432" lon="-3.470667">
        <ele>74.16</ele>
      </trkpt>
      <trkpt lat="43.256321" lon="-3.470938">
        <ele>73.61</ele>
      </trkpt>
      <trkpt lat="43.256223" lon="-3.470959">
        <ele>74.78</ele>
      </trkpt>
      <trkpt lat="43.256223" lon="-3.470959">
        <ele>74.78</ele>
      </trkpt>
      <trkpt lat="43.256117" lon="-3.470967">
        <ele>75.92</ele>
      </trkpt>
      <trkpt lat="43.25608" lon="-3.470959">
        <ele>76.3</ele>
      </trkpt>
      <trkpt lat="43.256052" lon="-3.470938">
        <ele>76.91</ele>
      </trkpt>
      <trkpt lat="43.256021" lon="-3.470895">
        <ele>77.86</ele>
      </trkpt>
      <trkpt lat="43.255965" lon="-3.470789">
        <ele>78.9</ele>
      </trkpt>
      <trkpt lat="43.255942" lon="-3.470762">
        <ele>79.03</ele>
      </trkpt>
      <trkpt lat="43.255848" lon="-3.470699">
        <ele>79.82</ele>
      </trkpt>
      <trkpt lat="43.255795" lon="-3.470648">
        <ele>80</ele>
      </trkpt>
      <trkpt lat="43.255728" lon="-3.470528">
        <ele>80.2</ele>
      </trkpt>
      <trkpt lat="43.255637" lon="-3.470323">
        <ele>81.92</ele>
      </trkpt>
      <trkpt lat="43.255592" lon="-3.47029">
        <ele>82.64</ele>
      </trkpt>
      <trkpt lat="43.255527" lon="-3.470298">
        <ele>84.03</ele>
      </trkpt>
      <trkpt lat="43.255287" lon="-3.470458">
        <ele>89.38</ele>
      </trkpt>
      <trkpt lat="43.255159" lon="-3.470641">
        <ele>91.56</ele>
      </trkpt>
      <trkpt lat="43.255133" lon="-3.47064">
        <ele>91.97</ele>
      </trkpt>
      <trkpt lat="43.255112" lon="-3.470607">
        <ele>92.3</ele>
      </trkpt>
      <trkpt lat="43.25506" lon="-3.470592">
        <ele>93.22</ele>
      </trkpt>
      <trkpt lat="43.255017" lon="-3.470548">
        <ele>94.27</ele>
      </trkpt>
      <trkpt lat="43.254936" lon="-3.470433">
        <ele>96.03</ele>
      </trkpt>
      <trkpt lat="43.254914" lon="-3.470371">
        <ele>95.92</ele>
      </trkpt>
      <trkpt lat="43.254851" lon="-3.47029">
        <ele>95.87</ele>
      </trkpt>
      <trkpt lat="43.254851" lon="-3.47029">
        <ele>95.87</ele>
      </trkpt>
      <trkpt lat="43.254846" lon="-3.470283">
        <ele>95.86</ele>
      </trkpt>
      <trkpt lat="43.25456" lon="-3.470277">
        <ele>94.02</ele>
      </trkpt>
      <trkpt lat="43.254468" lon="-3.47033">
        <ele>94.52</ele>
      </trkpt>
      <trkpt lat="43.254399" lon="-3.470415">
        <ele>95.34</ele>
      </trkpt>
      <trkpt lat="43.254307" lon="-3.470595">
        <ele>96.16</ele>
      </trkpt>
      <trkpt lat="43.254133" lon="-3.470766">
        <ele>98.83</ele>
      </trkpt>
      <trkpt lat="43.254051" lon="-3.470857">
        <ele>100.35</ele>
      </trkpt>
      <trkpt lat="43.253957" lon="-3.470928">
        <ele>102.58</ele>
      </trkpt>
      <trkpt lat="43.253881" lon="-3.471037">
        <ele>105.41</ele>
      </trkpt>
      <trkpt lat="43.253881" lon="-3.471037">
        <ele>105.41</ele>
      </trkpt>
      <trkpt lat="43.25382" lon="-3.471208">
        <ele>108.63</ele>
      </trkpt>
      <trkpt lat="43.253828" lon="-3.471364">
        <ele>109.87</ele>
      </trkpt>
      <trkpt lat="43.253691" lon="-3.471913">
        <ele>118.7</ele>
      </trkpt>
      <trkpt lat="43.253611" lon="-3.472163">
        <ele>123.52</ele>
      </trkpt>
      <trkpt lat="43.253521" lon="-3.472369">
        <ele>127.56</ele>
      </trkpt>
      <trkpt lat="43.253499" lon="-3.472488">
        <ele>129.13</ele>
      </trkpt>
      <trkpt lat="43.253499" lon="-3.472488">
        <ele>129.13</ele>
      </trkpt>
      <trkpt lat="43.253504" lon="-3.47272">
        <ele>132.33</ele>
      </trkpt>
      <trkpt lat="43.253579" lon="-3.473038">
        <ele>137.58</ele>
      </trkpt>
      <trkpt lat="43.253603" lon="-3.473212">
        <ele>140.03</ele>
      </trkpt>
      <trkpt lat="43.253614" lon="-3.473366">
        <ele>140.76</ele>
      </trkpt>
      <trkpt lat="43.253605" lon="-3.473454">
        <ele>141.55</ele>
      </trkpt>
      <trkpt lat="43.253586" lon="-3.473537">
        <ele>142.3</ele>
      </trkpt>
      <trkpt lat="43.253545" lon="-3.473657">
        <ele>143.49</ele>
      </trkpt>
      <trkpt lat="43.253512" lon="-3.473682">
        <ele>144.15</ele>
      </trkpt>
      <trkpt lat="43.253512" lon="-3.473682">
        <ele>144.14</ele>
      </trkpt>
      <trkpt lat="43.253498" lon="-3.473693">
        <ele>144.43</ele>
      </trkpt>
      <trkpt lat="43.253446" lon="-3.473693">
        <ele>145.83</ele>
      </trkpt>
      <trkpt lat="43.253236" lon="-3.473637">
        <ele>151.69</ele>
      </trkpt>
      <trkpt lat="43.2531" lon="-3.473654">
        <ele>154.38</ele>
      </trkpt>
      <trkpt lat="43.252939" lon="-3.473796">
        <ele>159.59</ele>
      </trkpt>
      <trkpt lat="43.252864" lon="-3.47392">
        <ele>161.57</ele>
      </trkpt>
      <trkpt lat="43.252804" lon="-3.474129">
        <ele>163.3</ele>
      </trkpt>
      <trkpt lat="43.252577" lon="-3.474465">
        <ele>170.14</ele>
      </trkpt>
      <trkpt lat="43.252452" lon="-3.474609">
        <ele>173.01</ele>
      </trkpt>
      <trkpt lat="43.252388" lon="-3.474698">
        <ele>174.5</ele>
      </trkpt>
      <trkpt lat="43.252336" lon="-3.474786">
        <ele>175.12</ele>
      </trkpt>
      <trkpt lat="43.252302" lon="-3.474928">
        <ele>174.57</ele>
      </trkpt>
      <trkpt lat="43.25227" lon="-3.47499">
        <ele>174.88</ele>
      </trkpt>
      <trkpt lat="43.252203" lon="-3.475054">
        <ele>176.35</ele>
      </trkpt>
      <trkpt lat="43.2521" lon="-3.475102">
        <ele>179.8</ele>
      </trkpt>
      <trkpt lat="43.251969" lon="-3.475072">
        <ele>184.68</ele>
      </trkpt>
      <trkpt lat="43.251882" lon="-3.474933">
        <ele>188.97</ele>
      </trkpt>
      <trkpt lat="43.251882" lon="-3.474933">
        <ele>188.96</ele>
      </trkpt>
      <trkpt lat="43.251834" lon="-3.474857">
        <ele>191.31</ele>
      </trkpt>
      <trkpt lat="43.251797" lon="-3.474822">
        <ele>192.7</ele>
      </trkpt>
      <trkpt lat="43.251682" lon="-3.474833">
        <ele>196.47</ele>
      </trkpt>
      <trkpt lat="43.251658" lon="-3.474807">
        <ele>197.54</ele>
      </trkpt>
      <trkpt lat="43.251643" lon="-3.474677">
        <ele>199.53</ele>
      </trkpt>
      <trkpt lat="43.251671" lon="-3.474471">
        <ele>200.79</ele>
      </trkpt>
      <trkpt lat="43.251673" lon="-3.474262">
        <ele>202.45</ele>
      </trkpt>
      <trkpt lat="43.251688" lon="-3.474016">
        <ele>203.86</ele>
      </trkpt>
      <trkpt lat="43.251688" lon="-3.474016">
        <ele>203.86</ele>
      </trkpt>
      <trkpt lat="43.251684" lon="-3.473781">
        <ele>205.38</ele>
      </trkpt>
      <trkpt lat="43.251658" lon="-3.473507">
        <ele>208</ele>
      </trkpt>
      <trkpt lat="43.251596" lon="-3.473003">
        <ele>212.19</ele>
      </trkpt>
      <trkpt lat="43.251533" lon="-3.472655">
        <ele>216.18</ele>
      </trkpt>
      <trkpt lat="43.251437" lon="-3.471986">
        <ele>220.94</ele>
      </trkpt>
      <trkpt lat="43.251377" lon="-3.471677">
        <ele>224.82</ele>
      </trkpt>
      <trkpt lat="43.251271" lon="-3.4713">
        <ele>226.62</ele>
      </trkpt>
      <trkpt lat="43.25113" lon="-3.470972">
        <ele>226.83</ele>
      </trkpt>
      <trkpt lat="43.251028" lon="-3.47088">
        <ele>226.68</ele>
      </trkpt>
      <trkpt lat="43.251028" lon="-3.47088">
        <ele>226.69</ele>
      </trkpt>
      <trkpt lat="43.25087" lon="-3.470822">
        <ele>228.36</ele>
      </trkpt>
      <trkpt lat="43.250724" lon="-3.470695">
        <ele>232.26</ele>
      </trkpt>
      <trkpt lat="43.25067" lon="-3.470521">
        <ele>230.66</ele>
      </trkpt>
      <trkpt lat="43.250585" lon="-3.470368">
        <ele>229.55</ele>
      </trkpt>
      <trkpt lat="43.250447" lon="-3.470241">
        <ele>232.04</ele>
      </trkpt>
      <trkpt lat="43.250447" lon="-3.470241">
        <ele>232.04</ele>
      </trkpt>
      <trkpt lat="43.250329" lon="-3.470132">
        <ele>234.18</ele>
      </trkpt>
      <trkpt lat="43.250147" lon="-3.469938">
        <ele>237.33</ele>
      </trkpt>
      <trkpt lat="43.249872" lon="-3.469614">
        <ele>240.61</ele>
      </trkpt>
      <trkpt lat="43.249734" lon="-3.469469">
        <ele>241.28</ele>
      </trkpt>
      <trkpt lat="43.249488" lon="-3.469304">
        <ele>243.78</ele>
      </trkpt>
      <trkpt lat="43.249309" lon="-3.469233">
        <ele>245.6</ele>
      </trkpt>
      <trkpt lat="43.248992" lon="-3.46916">
        <ele>247.75</ele>
      </trkpt>
      <trkpt lat="43.248657" lon="-3.46913">
        <ele>248.71</ele>
      </trkpt>
      <trkpt lat="43.248657" lon="-3.46913">
        <ele>248.71</ele>
      </trkpt>
      <trkpt lat="43.248556" lon="-3.46913">
        <ele>249.38</ele>
      </trkpt>
      <trkpt lat="43.248309" lon="-3.46923">
        <ele>251.6</ele>
      </trkpt>
      <trkpt lat="43.248148" lon="-3.469345">
        <ele>254.07</ele>
      </trkpt>
      <trkpt lat="43.247847" lon="-3.469628">
        <ele>253.51</ele>
      </trkpt>
      <trkpt lat="43.247761" lon="-3.469746">
        <ele>254.82</ele>
      </trkpt>
      <trkpt lat="43.247706" lon="-3.469882">
        <ele>257.93</ele>
      </trkpt>
      <trkpt lat="43.247551" lon="-3.470153">
        <ele>263.73</ele>
      </trkpt>
      <trkpt lat="43.247502" lon="-3.47027">
        <ele>267.33</ele>
      </trkpt>
      <trkpt lat="43.247503" lon="-3.47027">
        <ele>267.33</ele>
      </trkpt>
      <trkpt lat="43.247452" lon="-3.470392">
        <ele>271.06</ele>
      </trkpt>
      <trkpt lat="43.247403" lon="-3.470536">
        <ele>273.65</ele>
      </trkpt>
      <trkpt lat="43.247401" lon="-3.470651">
        <ele>276.89</ele>
      </trkpt>
      <trkpt lat="43.247459" lon="-3.470978">
        <ele>287.77</ele>
      </trkpt>
      <trkpt lat="43.247454" lon="-3.471061">
        <ele>289.97</ele>
      </trkpt>
      <trkpt lat="43.247332" lon="-3.471414">
        <ele>296.29</ele>
      </trkpt>
      <trkpt lat="43.247278" lon="-3.471529">
        <ele>296.96</ele>
      </trkpt>
      <trkpt lat="43.247208" lon="-3.471606">
        <ele>296.45</ele>
      </trkpt>
      <trkpt lat="43.247012" lon="-3.471774">
        <ele>299.81</ele>
      </trkpt>
      <trkpt lat="43.246798" lon="-3.471948">
        <ele>308.3</ele>
      </trkpt>
      <trkpt lat="43.246583" lon="-3.472089">
        <ele>315.83</ele>
      </trkpt>
      <trkpt lat="43.246518" lon="-3.472198">
        <ele>318.96</ele>
      </trkpt>
      <trkpt lat="43.246411" lon="-3.472517">
        <ele>324.52</ele>
      </trkpt>
      <trkpt lat="43.246395" lon="-3.472611">
        <ele>326.69</ele>
      </trkpt>
      <trkpt lat="43.246391" lon="-3.472739">
        <ele>328.2</ele>
      </trkpt>
      <trkpt lat="43.246376" lon="-3.472849">
        <ele>329.46</ele>
      </trkpt>
      <trkpt lat="43.24634" lon="-3.472962">
        <ele>330.97</ele>
      </trkpt>
      <trkpt lat="43.246281" lon="-3.473087">
        <ele>333.25</ele>
      </trkpt>
      <trkpt lat="43.246183" lon="-3.47325">
        <ele>337.27</ele>
      </trkpt>
      <trkpt lat="43.246123" lon="-3.473378">
        <ele>338.83</ele>
      </trkpt>
      <trkpt lat="43.246088" lon="-3.473425">
        <ele>339.41</ele>
      </trkpt>
      <trkpt lat="43.246041" lon="-3.473516">
        <ele>339.89</ele>
      </trkpt>
      <trkpt lat="43.245945" lon="-3.473746">
        <ele>339.76</ele>
      </trkpt>
      <trkpt lat="43.245747" lon="-3.474144">
        <ele>338.13</ele>
      </trkpt>
      <trkpt lat="43.245588" lon="-3.47447">
        <ele>339.26</ele>
      </trkpt>
      <trkpt lat="43.245473" lon="-3.474794">
        <ele>340.35</ele>
      </trkpt>
      <trkpt lat="43.245377" lon="-3.475122">
        <ele>344.33</ele>
      </trkpt>
      <trkpt lat="43.245273" lon="-3.475605">
        <ele>348.82</ele>
      </trkpt>
      <trkpt lat="43.245273" lon="-3.475605">
        <ele>348.82</ele>
      </trkpt>
      <trkpt lat="43.24516" lon="-3.476278">
        <ele>354.14</ele>
      </trkpt>
      <trkpt lat="43.245133" lon="-3.476383">
        <ele>354.38</ele>
      </trkpt>
      <trkpt lat="43.245081" lon="-3.47652">
        <ele>355.24</ele>
      </trkpt>
      <trkpt lat="43.244987" lon="-3.476892">
        <ele>356.47</ele>
      </trkpt>
      <trkpt lat="43.244977" lon="-3.476988">
        <ele>356.93</ele>
      </trkpt>
      <trkpt lat="43.244969" lon="-3.477292">
        <ele>358.61</ele>
      </trkpt>
      <trkpt lat="43.244937" lon="-3.47742">
        <ele>360.36</ele>
      </trkpt>
      <trkpt lat="43.244886" lon="-3.47756">
        <ele>362.04</ele>
      </trkpt>
      <trkpt lat="43.244864" lon="-3.477649">
        <ele>363.03</ele>
      </trkpt>
      <trkpt lat="43.244872" lon="-3.477737">
        <ele>363.27</ele>
      </trkpt>
      <trkpt lat="43.244845" lon="-3.478004">
        <ele>365.32</ele>
      </trkpt>
      <trkpt lat="43.244801" lon="-3.478219">
        <ele>366.8</ele>
      </trkpt>
      <trkpt lat="43.244777" lon="-3.478381">
        <ele>367.3</ele>
      </trkpt>
      <trkpt lat="43.244705" lon="-3.478642">
        <ele>367.94</ele>
      </trkpt>
      <trkpt lat="43.24448" lon="-3.479331">
        <ele>362.15</ele>
      </trkpt>
      <trkpt lat="43.244415" lon="-3.479551">
        <ele>359.05</ele>
      </trkpt>
      <trkpt lat="43.244382" lon="-3.479709">
        <ele>356.53</ele>
      </trkpt>
      <trkpt lat="43.244355" lon="-3.479961">
        <ele>353.3</ele>
      </trkpt>
      <trkpt lat="43.244355" lon="-3.479961">
        <ele>353.3</ele>
      </trkpt>
      <trkpt lat="43.244346" lon="-3.480234">
        <ele>350.36</ele>
      </trkpt>
      <trkpt lat="43.244375" lon="-3.480383">
        <ele>349.4</ele>
      </trkpt>
      <trkpt lat="43.244434" lon="-3.480577">
        <ele>346.97</ele>
      </trkpt>
      <trkpt lat="43.244513" lon="-3.480732">
        <ele>345.59</ele>
      </trkpt>
      <trkpt lat="43.244525" lon="-3.480794">
        <ele>344.65</ele>
      </trkpt>
      <trkpt lat="43.24451" lon="-3.480867">
        <ele>344.52</ele>
      </trkpt>
      <trkpt lat="43.244347" lon="-3.481464">
        <ele>335.77</ele>
      </trkpt>
      <trkpt lat="43.244215" lon="-3.482204">
        <ele>333.62</ele>
      </trkpt>
      <trkpt lat="43.244205" lon="-3.48244">
        <ele>331.57</ele>
      </trkpt>
      <trkpt lat="43.244237" lon="-3.482747">
        <ele>331.15</ele>
      </trkpt>
      <trkpt lat="43.244276" lon="-3.483033">
        <ele>328.73</ele>
      </trkpt>
      <trkpt lat="43.244273" lon="-3.483173">
        <ele>327.52</ele>
      </trkpt>
      <trkpt lat="43.244257" lon="-3.483343">
        <ele>327.22</ele>
      </trkpt>
      <trkpt lat="43.244225" lon="-3.48351">
        <ele>326.98</ele>
      </trkpt>
      <trkpt lat="43.244201" lon="-3.483897">
        <ele>324.7</ele>
      </trkpt>
      <trkpt lat="43.244173" lon="-3.48413">
        <ele>323.17</ele>
      </trkpt>
      <trkpt lat="43.244167" lon="-3.484314">
        <ele>323.09</ele>
      </trkpt>
      <trkpt lat="43.24421" lon="-3.484633">
        <ele>325.53</ele>
      </trkpt>
      <trkpt lat="43.244299" lon="-3.485169">
        <ele>323.74</ele>
      </trkpt>
      <trkpt lat="43.244299" lon="-3.485169">
        <ele>323.74</ele>
      </trkpt>
      <trkpt lat="43.244317" lon="-3.4853">
        <ele>323.97</ele>
      </trkpt>
      <trkpt lat="43.244323" lon="-3.485476">
        <ele>324.36</ele>
      </trkpt>
      <trkpt lat="43.244358" lon="-3.485851">
        <ele>321.99</ele>
      </trkpt>
      <trkpt lat="43.244412" lon="-3.48615">
        <ele>320.05</ele>
      </trkpt>
      <trkpt lat="43.244447" lon="-3.486288">
        <ele>319.77</ele>
      </trkpt>
      <trkpt lat="43.244773" lon="-3.48712">
        <ele>319.36</ele>
      </trkpt>
      <trkpt lat="43.244887" lon="-3.487519">
        <ele>317.39</ele>
      </trkpt>
      <trkpt lat="43.245051" lon="-3.487839">
        <ele>317.73</ele>
      </trkpt>
      <trkpt lat="43.245091" lon="-3.487904">
        <ele>317.23</ele>
      </trkpt>
      <trkpt lat="43.245143" lon="-3.487964">
        <ele>316.09</ele>
      </trkpt>
      <trkpt lat="43.245118" lon="-3.488071">
        <ele>317.5</ele>
      </trkpt>
      <trkpt lat="43.24509" lon="-3.488139">
        <ele>318.81</ele>
      </trkpt>
      <trkpt lat="43.24505" lon="-3.488201">
        <ele>320.36</ele>
      </trkpt>
      <trkpt lat="43.24505" lon="-3.488201">
        <ele>320.36</ele>
      </trkpt>
      <trkpt lat="43.24495" lon="-3.48834">
        <ele>323.3</ele>
      </trkpt>
      <trkpt lat="43.244868" lon="-3.488418">
        <ele>325.68</ele>
      </trkpt>
      <trkpt lat="43.24487" lon="-3.489407">
        <ele>319.17</ele>
      </trkpt>
      <trkpt lat="43.244854" lon="-3.489547">
        <ele>318.88</ele>
      </trkpt>
      <trkpt lat="43.244825" lon="-3.489691">
        <ele>319.62</ele>
      </trkpt>
      <trkpt lat="43.24483" lon="-3.490493">
        <ele>328.58</ele>
      </trkpt>
      <trkpt lat="43.244822" lon="-3.490597">
        <ele>329.56</ele>
      </trkpt>
      <trkpt lat="43.24482" lon="-3.490806">
        <ele>331.42</ele>
      </trkpt>
      <trkpt lat="43.244838" lon="-3.491287">
        <ele>337.98</ele>
      </trkpt>
      <trkpt lat="43.244835" lon="-3.491376">
        <ele>339.41</ele>
      </trkpt>
      <trkpt lat="43.244828" lon="-3.491395">
        <ele>339.88</ele>
      </trkpt>
      <trkpt lat="43.244828" lon="-3.491395">
        <ele>339.88</ele>
      </trkpt>
      <trkpt lat="43.244817" lon="-3.491429">
        <ele>340.69</ele>
      </trkpt>
      <trkpt lat="43.244775" lon="-3.491441">
        <ele>341.78</ele>
      </trkpt>
      <trkpt lat="43.244619" lon="-3.49137">
        <ele>345.18</ele>
      </trkpt>
      <trkpt lat="43.244417" lon="-3.491341">
        <ele>350.53</ele>
      </trkpt>
      <trkpt lat="43.244327" lon="-3.491339">
        <ele>353.5</ele>
      </trkpt>
      <trkpt lat="43.244279" lon="-3.491355">
        <ele>355.49</ele>
      </trkpt>
      <trkpt lat="43.24425" lon="-3.491396">
        <ele>357.38</ele>
      </trkpt>
      <trkpt lat="43.244221" lon="-3.491498">
        <ele>359.95</ele>
      </trkpt>
      <trkpt lat="43.244181" lon="-3.491834">
        <ele>366.57</ele>
      </trkpt>
      <trkpt lat="43.244085" lon="-3.492284">
        <ele>373.31</ele>
      </trkpt>
      <trkpt lat="43.244084" lon="-3.492463">
        <ele>374.48</ele>
      </trkpt>
      <trkpt lat="43.244142" lon="-3.492721">
        <ele>376.46</ele>
      </trkpt>
      <trkpt lat="43.244156" lon="-3.492754">
        <ele>376.77</ele>
      </trkpt>
      <trkpt lat="43.244156" lon="-3.492754">
        <ele>376.77</ele>
      </trkpt>
      <trkpt lat="43.244185" lon="-3.492823">
        <ele>377.41</ele>
      </trkpt>
      <trkpt lat="43.244205" lon="-3.492913">
        <ele>378.96</ele>
      </trkpt>
      <trkpt lat="43.244214" lon="-3.493039">
        <ele>380.99</ele>
      </trkpt>
      <trkpt lat="43.244205" lon="-3.493318">
        <ele>384.82</ele>
      </trkpt>
      <trkpt lat="43.244221" lon="-3.493427">
        <ele>385.5</ele>
      </trkpt>
      <trkpt lat="43.244229" lon="-3.493818">
        <ele>391.37</ele>
      </trkpt>
      <trkpt lat="43.244236" lon="-3.493908">
        <ele>392.01</ele>
      </trkpt>
      <trkpt lat="43.244302" lon="-3.494133">
        <ele>393.05</ele>
      </trkpt>
      <trkpt lat="43.244281" lon="-3.494303">
        <ele>394.33</ele>
      </trkpt>
      <trkpt lat="43.244247" lon="-3.49446">
        <ele>394.78</ele>
      </trkpt>
      <trkpt lat="43.244249" lon="-3.494597">
        <ele>396.47</ele>
      </trkpt>
      <trkpt lat="43.244249" lon="-3.494597">
        <ele>396.47</ele>
      </trkpt>
      <trkpt lat="43.244253" lon="-3.494634">
        <ele>396.89</ele>
      </trkpt>
      <trkpt lat="43.244331" lon="-3.494812">
        <ele>399.56</ele>
      </trkpt>
      <trkpt lat="43.2445" lon="-3.495134">
        <ele>405.37</ele>
      </trkpt>
      <trkpt lat="43.244538" lon="-3.495234">
        <ele>406.84</ele>
      </trkpt>
      <trkpt lat="43.244548" lon="-3.495335">
        <ele>408.2</ele>
      </trkpt>
      <trkpt lat="43.244547" lon="-3.495454">
        <ele>410.94</ele>
      </trkpt>
      <trkpt lat="43.244567" lon="-3.495645">
        <ele>414.33</ele>
      </trkpt>
      <trkpt lat="43.24463" lon="-3.495776">
        <ele>417.31</ele>
      </trkpt>
      <trkpt lat="43.244666" lon="-3.495949">
        <ele>418.88</ele>
      </trkpt>
      <trkpt lat="43.244737" lon="-3.496377">
        <ele>419.56</ele>
      </trkpt>
      <trkpt lat="43.244731" lon="-3.496728">
        <ele>419.82</ele>
      </trkpt>
      <trkpt lat="43.244711" lon="-3.496834">
        <ele>421.12</ele>
      </trkpt>
      <trkpt lat="43.244612" lon="-3.497203">
        <ele>424.78</ele>
      </trkpt>
      <trkpt lat="43.244625" lon="-3.497381">
        <ele>424.66</ele>
      </trkpt>
      <trkpt lat="43.244672" lon="-3.497628">
        <ele>425.01</ele>
      </trkpt>
      <trkpt lat="43.244781" lon="-3.497959">
        <ele>422.89</ele>
      </trkpt>
      <trkpt lat="43.244833" lon="-3.498081">
        <ele>421.42</ele>
      </trkpt>
      <trkpt lat="43.244901" lon="-3.498413">
        <ele>419.65</ele>
      </trkpt>
      <trkpt lat="43.244935" lon="-3.498506">
        <ele>418.67</ele>
      </trkpt>
      <trkpt lat="43.245009" lon="-3.498662">
        <ele>417.16</ele>
      </trkpt>
      <trkpt lat="43.245357" lon="-3.49928">
        <ele>416.03</ele>
      </trkpt>
      <trkpt lat="43.245423" lon="-3.49937">
        <ele>414.98</ele>
      </trkpt>
      <trkpt lat="43.245564" lon="-3.499658">
        <ele>414.17</ele>
      </trkpt>
      <trkpt lat="43.245671" lon="-3.499916">
        <ele>415.01</ele>
      </trkpt>
      <trkpt lat="43.245778" lon="-3.500153">
        <ele>417.21</ele>
      </trkpt>
      <trkpt lat="43.245826" lon="-3.500288">
        <ele>417.87</ele>
      </trkpt>
      <trkpt lat="43.246148" lon="-3.50106">
        <ele>421.86</ele>
      </trkpt>
      <trkpt lat="43.246308" lon="-3.501415">
        <ele>422.97</ele>
      </trkpt>
      <trkpt lat="43.246356" lon="-3.501552">
        <ele>422.72</ele>
      </trkpt>
      <trkpt lat="43.246415" lon="-3.501927">
        <ele>423.44</ele>
      </trkpt>
      <trkpt lat="43.246486" lon="-3.502279">
        <ele>423.62</ele>
      </trkpt>
      <trkpt lat="43.246565" lon="-3.502798">
        <ele>426.05</ele>
      </trkpt>
      <trkpt lat="43.246628" lon="-3.503855">
        <ele>427.36</ele>
      </trkpt>
      <trkpt lat="43.246628" lon="-3.503855">
        <ele>427.36</ele>
      </trkpt>
      <trkpt lat="43.246631" lon="-3.503909">
        <ele>427.37</ele>
      </trkpt>
      <trkpt lat="43.246617" lon="-3.504122">
        <ele>427.73</ele>
      </trkpt>
      <trkpt lat="43.246554" lon="-3.504507">
        <ele>428.12</ele>
      </trkpt>
      <trkpt lat="43.246504" lon="-3.504739">
        <ele>427.38</ele>
      </trkpt>
      <trkpt lat="43.246398" lon="-3.505085">
        <ele>426.73</ele>
      </trkpt>
      <trkpt lat="43.246333" lon="-3.505195">
        <ele>426.73</ele>
      </trkpt>
      <trkpt lat="43.246276" lon="-3.505339">
        <ele>425.95</ele>
      </trkpt>
      <trkpt lat="43.245879" lon="-3.506051">
        <ele>420.95</ele>
      </trkpt>
      <trkpt lat="43.245837" lon="-3.506169">
        <ele>418.96</ele>
      </trkpt>
      <trkpt lat="43.245656" lon="-3.506532">
        <ele>414.86</ele>
      </trkpt>
      <trkpt lat="43.245566" lon="-3.506757">
        <ele>411.03</ele>
      </trkpt>
      <trkpt lat="43.245425" lon="-3.50737">
        <ele>402.86</ele>
      </trkpt>
      <trkpt lat="43.245421" lon="-3.507536">
        <ele>400.12</ele>
      </trkpt>
      <trkpt lat="43.245428" lon="-3.507673">
        <ele>397.56</ele>
      </trkpt>
      <trkpt lat="43.245453" lon="-3.507796">
        <ele>395.42</ele>
      </trkpt>
      <trkpt lat="43.245502" lon="-3.507916">
        <ele>393.54</ele>
      </trkpt>
      <trkpt lat="43.245545" lon="-3.507986">
        <ele>392.48</ele>
      </trkpt>
      <trkpt lat="43.245545" lon="-3.507986">
        <ele>392.48</ele>
      </trkpt>
      <trkpt lat="43.245623" lon="-3.508112">
        <ele>390.57</ele>
      </trkpt>
      <trkpt lat="43.245685" lon="-3.508174">
        <ele>390.23</ele>
      </trkpt>
      <trkpt lat="43.245778" lon="-3.508214">
        <ele>389.92</ele>
      </trkpt>
      <trkpt lat="43.24595" lon="-3.508158">
        <ele>392.19</ele>
      </trkpt>
      <trkpt lat="43.246162" lon="-3.508054">
        <ele>392.87</ele>
      </trkpt>
      <trkpt lat="43.24628" lon="-3.507985">
        <ele>393.51</ele>
      </trkpt>
      <trkpt lat="43.246381" lon="-3.507951">
        <ele>393.4</ele>
      </trkpt>
      <trkpt lat="43.246498" lon="-3.507935">
        <ele>393.58</ele>
      </trkpt>
      <trkpt lat="43.246614" lon="-3.507933">
        <ele>392.94</ele>
      </trkpt>
      <trkpt lat="43.246695" lon="-3.507945">
        <ele>392.08</ele>
      </trkpt>
      <trkpt lat="43.246794" lon="-3.507974">
        <ele>391.18</ele>
      </trkpt>
      <trkpt lat="43.247084" lon="-3.508105">
        <ele>387.34</ele>
      </trkpt>
      <trkpt lat="43.247217" lon="-3.508192">
        <ele>385.64</ele>
      </trkpt>
      <trkpt lat="43.247255" lon="-3.50823">
        <ele>385.49</ele>
      </trkpt>
      <trkpt lat="43.247466" lon="-3.508518">
        <ele>383.17</ele>
      </trkpt>
      <trkpt lat="43.247538" lon="-3.50866">
        <ele>382.22</ele>
      </trkpt>
      <trkpt lat="43.247674" lon="-3.508892">
        <ele>380.78</ele>
      </trkpt>
      <trkpt lat="43.247674" lon="-3.508892">
        <ele>380.77</ele>
      </trkpt>
      <trkpt lat="43.24775" lon="-3.509039">
        <ele>381.1</ele>
      </trkpt>
      <trkpt lat="43.247843" lon="-3.509297">
        <ele>381.25</ele>
      </trkpt>
      <trkpt lat="43.248047" lon="-3.509669">
        <ele>379.95</ele>
      </trkpt>
      <trkpt lat="43.248119" lon="-3.509782">
        <ele>379.5</ele>
      </trkpt>
      <trkpt lat="43.248372" lon="-3.510076">
        <ele>377.7</ele>
      </trkpt>
      <trkpt lat="43.248594" lon="-3.510339">
        <ele>375.44</ele>
      </trkpt>
      <trkpt lat="43.248692" lon="-3.510431">
        <ele>373.18</ele>
      </trkpt>
      <trkpt lat="43.248789" lon="-3.510541">
        <ele>371.44</ele>
      </trkpt>
      <trkpt lat="43.248818" lon="-3.510584">
        <ele>370.94</ele>
      </trkpt>
      <trkpt lat="43.248857" lon="-3.510669">
        <ele>370.56</ele>
      </trkpt>
      <trkpt lat="43.248871" lon="-3.510768">
        <ele>370.61</ele>
      </trkpt>
      <trkpt lat="43.248893" lon="-3.510835">
        <ele>369.67</ele>
      </trkpt>
      <trkpt lat="43.24892" lon="-3.510854">
        <ele>368.44</ele>
      </trkpt>
      <trkpt lat="43.248934" lon="-3.51085">
        <ele>367.91</ele>
      </trkpt>
      <trkpt lat="43.248942" lon="-3.51083">
        <ele>367.66</ele>
      </trkpt>
      <trkpt lat="43.248976" lon="-3.51086">
        <ele>367.06</ele>
      </trkpt>
      <trkpt lat="43.249039" lon="-3.510846">
        <ele>365.44</ele>
      </trkpt>
      <trkpt lat="43.249085" lon="-3.510786">
        <ele>364.42</ele>
      </trkpt>
      <trkpt lat="43.249125" lon="-3.510752">
        <ele>364.81</ele>
      </trkpt>
      <trkpt lat="43.249165" lon="-3.510731">
        <ele>365.33</ele>
      </trkpt>
      <trkpt lat="43.24921" lon="-3.510743">
        <ele>366.26</ele>
      </trkpt>
      <trkpt lat="43.249232" lon="-3.510796">
        <ele>367.24</ele>
      </trkpt>
      <trkpt lat="43.249257" lon="-3.511058">
        <ele>370.76</ele>
      </trkpt>
      <trkpt lat="43.249349" lon="-3.511718">
        <ele>375.24</ele>
      </trkpt>
      <trkpt lat="43.249367" lon="-3.512062">
        <ele>374.34</ele>
      </trkpt>
      <trkpt lat="43.249399" lon="-3.51256">
        <ele>376.38</ele>
      </trkpt>
      <trkpt lat="43.249495" lon="-3.513055">
        <ele>376.61</ele>
      </trkpt>
      <trkpt lat="43.249615" lon="-3.513378">
        <ele>378.47</ele>
      </trkpt>
      <trkpt lat="43.249703" lon="-3.513659">
        <ele>377.46</ele>
      </trkpt>
      <trkpt lat="43.249705" lon="-3.514018">
        <ele>377.04</ele>
      </trkpt>
      <trkpt lat="43.249725" lon="-3.514148">
        <ele>375.16</ele>
      </trkpt>
      <trkpt lat="43.249748" lon="-3.514192">
        <ele>373.55</ele>
      </trkpt>
      <trkpt lat="43.249782" lon="-3.514158">
        <ele>371.009</ele>
      </trkpt>
      <trkpt lat="43.249748" lon="-3.514192">
        <ele>373.55</ele>
      </trkpt>
      <trkpt lat="43.249785" lon="-3.514264">
        <ele>370.91</ele>
      </trkpt>
      <trkpt lat="43.249842" lon="-3.514279">
        <ele>369.39</ele>
      </trkpt>
      <trkpt lat="43.249911" lon="-3.514224">
        <ele>367.32</ele>
      </trkpt>
      <trkpt lat="43.250015" lon="-3.514108">
        <ele>364.24</ele>
      </trkpt>
      <trkpt lat="43.250254" lon="-3.513878">
        <ele>364.59</ele>
      </trkpt>
      <trkpt lat="43.250448" lon="-3.51362">
        <ele>362.12</ele>
      </trkpt>
      <trkpt lat="43.250763" lon="-3.512998">
        <ele>365.55</ele>
      </trkpt>
      <trkpt lat="43.250836" lon="-3.512884">
        <ele>366.09</ele>
      </trkpt>
      <trkpt lat="43.250894" lon="-3.512865">
        <ele>367.51</ele>
      </trkpt>
      <trkpt lat="43.25091" lon="-3.5129">
        <ele>368.59</ele>
      </trkpt>
      <trkpt lat="43.250994" lon="-3.512707">
        <ele>366.05</ele>
      </trkpt>
      <trkpt lat="43.251005" lon="-3.512697">
        <ele>366.04</ele>
      </trkpt>
      <trkpt lat="43.251094" lon="-3.512493">
        <ele>364.56</ele>
      </trkpt>
      <trkpt lat="43.251203" lon="-3.512163">
        <ele>360.78</ele>
      </trkpt>
      <trkpt lat="43.251334" lon="-3.511693">
        <ele>353.55</ele>
      </trkpt>
      <trkpt lat="43.251362" lon="-3.511634">
        <ele>352.59</ele>
      </trkpt>
      <trkpt lat="43.251415" lon="-3.511606">
        <ele>352.26</ele>
      </trkpt>
      <trkpt lat="43.251498" lon="-3.511589">
        <ele>351.07</ele>
      </trkpt>
      <trkpt lat="43.251571" lon="-3.511562">
        <ele>349.55</ele>
      </trkpt>
      <trkpt lat="43.251644" lon="-3.51151">
        <ele>347.2</ele>
      </trkpt>
      <trkpt lat="43.251751" lon="-3.511404">
        <ele>343.13</ele>
      </trkpt>
      <trkpt lat="43.251959" lon="-3.511169">
        <ele>337.23</ele>
      </trkpt>
      <trkpt lat="43.251959" lon="-3.511169">
        <ele>337.23</ele>
      </trkpt>
      <trkpt lat="43.252052" lon="-3.511064">
        <ele>334.59</ele>
      </trkpt>
      <trkpt lat="43.252105" lon="-3.510993">
        <ele>334.05</ele>
      </trkpt>
      <trkpt lat="43.252126" lon="-3.510979">
        <ele>333.98</ele>
      </trkpt>
      <trkpt lat="43.252124" lon="-3.510915">
        <ele>333.42</ele>
      </trkpt>
      <trkpt lat="43.252158" lon="-3.510742">
        <ele>333.2</ele>
      </trkpt>
      <trkpt lat="43.25216" lon="-3.510663">
        <ele>333.17</ele>
      </trkpt>
      <trkpt lat="43.252121" lon="-3.510403">
        <ele>332.48</ele>
      </trkpt>
      <trkpt lat="43.252121" lon="-3.510403">
        <ele>332.48</ele>
      </trkpt>
      <trkpt lat="43.252059" lon="-3.510041">
        <ele>331.34</ele>
      </trkpt>
      <trkpt lat="43.25203" lon="-3.509542">
        <ele>332.76</ele>
      </trkpt>
      <trkpt lat="43.251997" lon="-3.509397">
        <ele>331.6</ele>
      </trkpt>
      <trkpt lat="43.251949" lon="-3.509297">
        <ele>329.5</ele>
      </trkpt>
      <trkpt lat="43.251864" lon="-3.509077">
        <ele>326.03</ele>
      </trkpt>
      <trkpt lat="43.25184" lon="-3.508977">
        <ele>324.88</ele>
      </trkpt>
      <trkpt lat="43.251781" lon="-3.508648">
        <ele>321.99</ele>
      </trkpt>
      <trkpt lat="43.251766" lon="-3.508511">
        <ele>321.72</ele>
      </trkpt>
      <trkpt lat="43.251727" lon="-3.508402">
        <ele>319.63</ele>
      </trkpt>
      <trkpt lat="43.251675" lon="-3.508231">
        <ele>319.2</ele>
      </trkpt>
      <trkpt lat="43.251637" lon="-3.508041">
        <ele>316.75</ele>
      </trkpt>
      <trkpt lat="43.251612" lon="-3.507866">
        <ele>314.08</ele>
      </trkpt>
      <trkpt lat="43.251595" lon="-3.507531">
        <ele>306.15</ele>
      </trkpt>
      <trkpt lat="43.251601" lon="-3.507426">
        <ele>304.39</ele>
      </trkpt>
      <trkpt lat="43.251644" lon="-3.507202">
        <ele>300.11</ele>
      </trkpt>
      <trkpt lat="43.251667" lon="-3.50699">
        <ele>294.83</ele>
      </trkpt>
      <trkpt lat="43.251676" lon="-3.50683">
        <ele>291.35</ele>
      </trkpt>
      <trkpt lat="43.251669" lon="-3.506407">
        <ele>282.14</ele>
      </trkpt>
      <trkpt lat="43.25168" lon="-3.506162">
        <ele>276.7</ele>
      </trkpt>
      <trkpt lat="43.251758" lon="-3.505903">
        <ele>274.43</ele>
      </trkpt>
      <trkpt lat="43.251758" lon="-3.505903">
        <ele>274.43</ele>
      </trkpt>
      <trkpt lat="43.251809" lon="-3.505675">
        <ele>272.33</ele>
      </trkpt>
      <trkpt lat="43.251865" lon="-3.505466">
        <ele>269.93</ele>
      </trkpt>
      <trkpt lat="43.251898" lon="-3.50537">
        <ele>269.41</ele>
      </trkpt>
      <trkpt lat="43.251902" lon="-3.50525">
        <ele>267.63</ele>
      </trkpt>
      <trkpt lat="43.251915" lon="-3.505143">
        <ele>266.89</ele>
      </trkpt>
      <trkpt lat="43.251941" lon="-3.505047">
        <ele>266.15</ele>
      </trkpt>
      <trkpt lat="43.252142" lon="-3.504543">
        <ele>263.47</ele>
      </trkpt>
      <trkpt lat="43.252197" lon="-3.504426">
        <ele>263.04</ele>
      </trkpt>
      <trkpt lat="43.252243" lon="-3.504251">
        <ele>261.29</ele>
      </trkpt>
      <trkpt lat="43.252293" lon="-3.504022">
        <ele>257.52</ele>
      </trkpt>
      <trkpt lat="43.252421" lon="-3.5036">
        <ele>252.71</ele>
      </trkpt>
      <trkpt lat="43.252526" lon="-3.503305">
        <ele>250.7</ele>
      </trkpt>
      <trkpt lat="43.252627" lon="-3.503076">
        <ele>250.21</ele>
      </trkpt>
      <trkpt lat="43.252715" lon="-3.50262">
        <ele>243.43</ele>
      </trkpt>
      <trkpt lat="43.252797" lon="-3.502286">
        <ele>239.29</ele>
      </trkpt>
      <trkpt lat="43.252798" lon="-3.502167">
        <ele>236.19</ele>
      </trkpt>
      <trkpt lat="43.252857" lon="-3.501968">
        <ele>234.35</ele>
      </trkpt>
      <trkpt lat="43.252897" lon="-3.50178">
        <ele>232.16</ele>
      </trkpt>
      <trkpt lat="43.253028" lon="-3.501422">
        <ele>230.81</ele>
      </trkpt>
      <trkpt lat="43.253174" lon="-3.500943">
        <ele>229.41</ele>
      </trkpt>
      <trkpt lat="43.253383" lon="-3.500437">
        <ele>224.91</ele>
      </trkpt>
      <trkpt lat="43.253383" lon="-3.500437">
        <ele>224.91</ele>
      </trkpt>
      <trkpt lat="43.253471" lon="-3.500226">
        <ele>221.62</ele>
      </trkpt>
      <trkpt lat="43.253643" lon="-3.500014">
        <ele>220.67</ele>
      </trkpt>
      <trkpt lat="43.253716" lon="-3.499852">
        <ele>218.58</ele>
      </trkpt>
      <trkpt lat="43.253806" lon="-3.499598">
        <ele>215.14</ele>
      </trkpt>
      <trkpt lat="43.253871" lon="-3.499474">
        <ele>213.66</ele>
      </trkpt>
      <trkpt lat="43.254032" lon="-3.499312">
        <ele>212.13</ele>
      </trkpt>
      <trkpt lat="43.254091" lon="-3.499197">
        <ele>209.23</ele>
      </trkpt>
      <trkpt lat="43.254313" lon="-3.498868">
        <ele>201.41</ele>
      </trkpt>
      <trkpt lat="43.254356" lon="-3.498834">
        <ele>200.19</ele>
      </trkpt>
      <trkpt lat="43.254574" lon="-3.498744">
        <ele>193.93</ele>
      </trkpt>
      <trkpt lat="43.254638" lon="-3.498686">
        <ele>192.52</ele>
      </trkpt>
      <trkpt lat="43.254738" lon="-3.498548">
        <ele>190.86</ele>
      </trkpt>
      <trkpt lat="43.254864" lon="-3.498285">
        <ele>189.21</ele>
      </trkpt>
      <trkpt lat="43.25489" lon="-3.498198">
        <ele>188.35</ele>
      </trkpt>
      <trkpt lat="43.254912" lon="-3.498027">
        <ele>185.44</ele>
      </trkpt>
      <trkpt lat="43.254945" lon="-3.497931">
        <ele>183.68</ele>
      </trkpt>
      <trkpt lat="43.255056" lon="-3.497807">
        <ele>182.67</ele>
      </trkpt>
      <trkpt lat="43.255175" lon="-3.497632">
        <ele>179.04</ele>
      </trkpt>
      <trkpt lat="43.255265" lon="-3.497437">
        <ele>173.98</ele>
      </trkpt>
      <trkpt lat="43.255379" lon="-3.497298">
        <ele>170.04</ele>
      </trkpt>
      <trkpt lat="43.255464" lon="-3.497136">
        <ele>165.08</ele>
      </trkpt>
      <trkpt lat="43.255559" lon="-3.49697">
        <ele>161.67</ele>
      </trkpt>
      <trkpt lat="43.255597" lon="-3.496867">
        <ele>158.84</ele>
      </trkpt>
      <trkpt lat="43.255635" lon="-3.496782">
        <ele>158.13</ele>
      </trkpt>
      <trkpt lat="43.255759" lon="-3.496634">
        <ele>157.95</ele>
      </trkpt>
      <trkpt lat="43.255832" lon="-3.496519">
        <ele>156.41</ele>
      </trkpt>
      <trkpt lat="43.255882" lon="-3.496353">
        <ele>150.58</ele>
      </trkpt>
      <trkpt lat="43.255976" lon="-3.496199">
        <ele>150.07</ele>
      </trkpt>
      <trkpt lat="43.256069" lon="-3.496049">
        <ele>147.04</ele>
      </trkpt>
      <trkpt lat="43.25613" lon="-3.495928">
        <ele>141.61</ele>
      </trkpt>
      <trkpt lat="43.256318" lon="-3.49556">
        <ele>132.33</ele>
      </trkpt>
      <trkpt lat="43.256429" lon="-3.49548">
        <ele>132.16</ele>
      </trkpt>
      <trkpt lat="43.256519" lon="-3.495419">
        <ele>130.03</ele>
      </trkpt>
      <trkpt lat="43.256634" lon="-3.495306">
        <ele>127.03</ele>
      </trkpt>
      <trkpt lat="43.256641" lon="-3.495186">
        <ele>122.36</ele>
      </trkpt>
      <trkpt lat="43.256734" lon="-3.495045">
        <ele>120.63</ele>
      </trkpt>
      <trkpt lat="43.25692" lon="-3.494846">
        <ele>116.68</ele>
      </trkpt>
      <trkpt lat="43.25692" lon="-3.494846">
        <ele>116.69</ele>
      </trkpt>
      <trkpt lat="43.256993" lon="-3.494768">
        <ele>115.15</ele>
      </trkpt>
      <trkpt lat="43.25702" lon="-3.494717">
        <ele>113.8</ele>
      </trkpt>
      <trkpt lat="43.257025" lon="-3.494655">
        <ele>111.72</ele>
      </trkpt>
      <trkpt lat="43.256863" lon="-3.494614">
        <ele>108.76</ele>
      </trkpt>
      <trkpt lat="43.25695" lon="-3.494496">
        <ele>107.48</ele>
      </trkpt>
      <trkpt lat="43.256969" lon="-3.494437">
        <ele>106.8</ele>
      </trkpt>
      <trkpt lat="43.256985" lon="-3.494349">
        <ele>105.91</ele>
      </trkpt>
      <trkpt lat="43.256965" lon="-3.493554">
        <ele>102.09</ele>
      </trkpt>
      <trkpt lat="43.25693" lon="-3.493123">
        <ele>100.17</ele>
      </trkpt>
      <trkpt lat="43.256904" lon="-3.492953">
        <ele>100</ele>
      </trkpt>
      <trkpt lat="43.256786" lon="-3.49231">
        <ele>96.45</ele>
      </trkpt>
      <trkpt lat="43.256762" lon="-3.49212">
        <ele>95.34</ele>
      </trkpt>
      <trkpt lat="43.256622" lon="-3.491394">
        <ele>91.12</ele>
      </trkpt>
      <trkpt lat="43.256581" lon="-3.49125">
        <ele>91</ele>
      </trkpt>
      <trkpt lat="43.256458" lon="-3.490991">
        <ele>90.7</ele>
      </trkpt>
      <trkpt lat="43.256348" lon="-3.490659">
        <ele>90.03</ele>
      </trkpt>
      <trkpt lat="43.256037" lon="-3.48995">
        <ele>89</ele>
      </trkpt>
      <trkpt lat="43.255974" lon="-3.489706">
        <ele>88.3</ele>
      </trkpt>
      <trkpt lat="43.255696" lon="-3.488773">
        <ele>88</ele>
      </trkpt>
      <trkpt lat="43.255478" lon="-3.48819">
        <ele>87.36</ele>
      </trkpt>
      <trkpt lat="43.255432" lon="-3.488021">
        <ele>87</ele>
      </trkpt>
      <trkpt lat="43.255378" lon="-3.487875">
        <ele>87.16</ele>
      </trkpt>
      <trkpt lat="43.255354" lon="-3.487764">
        <ele>87.28</ele>
      </trkpt>
      <trkpt lat="43.255336" lon="-3.487616">
        <ele>87.98</ele>
      </trkpt>
      <trkpt lat="43.255282" lon="-3.487397">
        <ele>88.42</ele>
      </trkpt>
      <trkpt lat="43.255255" lon="-3.487249">
        <ele>87.93</ele>
      </trkpt>
      <trkpt lat="43.255255" lon="-3.487249">
        <ele>87.93</ele>
      </trkpt>
      <trkpt lat="43.255249" lon="-3.487097">
        <ele>87.5</ele>
      </trkpt>
      <trkpt lat="43.255261" lon="-3.487018">
        <ele>87.36</ele>
      </trkpt>
      <trkpt lat="43.255339" lon="-3.486798">
        <ele>87.57</ele>
      </trkpt>
      <trkpt lat="43.255372" lon="-3.486749">
        <ele>87.56</ele>
      </trkpt>
      <trkpt lat="43.255419" lon="-3.486703">
        <ele>86.77</ele>
      </trkpt>
      <trkpt lat="43.255748" lon="-3.486468">
        <ele>85.39</ele>
      </trkpt>
      <trkpt lat="43.255958" lon="-3.486119">
        <ele>85</ele>
      </trkpt>
      <trkpt lat="43.256073" lon="-3.48599">
        <ele>84.73</ele>
      </trkpt>
      <trkpt lat="43.256115" lon="-3.485906">
        <ele>84.85</ele>
      </trkpt>
      <trkpt lat="43.256123" lon="-3.485819">
        <ele>84.83</ele>
      </trkpt>
      <trkpt lat="43.256123" lon="-3.48555">
        <ele>84.83</ele>
      </trkpt>
      <trkpt lat="43.256139" lon="-3.485397">
        <ele>84.75</ele>
      </trkpt>
      <trkpt lat="43.256169" lon="-3.485285">
        <ele>85.05</ele>
      </trkpt>
      <trkpt lat="43.256207" lon="-3.485183">
        <ele>85.19</ele>
      </trkpt>
      <trkpt lat="43.256233" lon="-3.485072">
        <ele>85.41</ele>
      </trkpt>
      <trkpt lat="43.256276" lon="-3.484485">
        <ele>82.2</ele>
      </trkpt>
      <trkpt lat="43.256323" lon="-3.484304">
        <ele>80.73</ele>
      </trkpt>
      <trkpt lat="43.256359" lon="-3.484219">
        <ele>79.82</ele>
      </trkpt>
      <trkpt lat="43.256473" lon="-3.484026">
        <ele>78.84</ele>
      </trkpt>
      <trkpt lat="43.256644" lon="-3.483672">
        <ele>77.13</ele>
      </trkpt>
      <trkpt lat="43.256748" lon="-3.483246">
        <ele>77.3</ele>
      </trkpt>
      <trkpt lat="43.256785" lon="-3.483127">
        <ele>77.04</ele>
      </trkpt>
      <trkpt lat="43.25683" lon="-3.483005">
        <ele>77.06</ele>
      </trkpt>
      <trkpt lat="43.25698" lon="-3.482701">
        <ele>78.42</ele>
      </trkpt>
      <trkpt lat="43.25705" lon="-3.482521">
        <ele>79.2</ele>
      </trkpt>
      <trkpt lat="43.257177" lon="-3.482086">
        <ele>81</ele>
      </trkpt>
      <trkpt lat="43.257269" lon="-3.481729">
        <ele>81.5</ele>
      </trkpt>
      <trkpt lat="43.257347" lon="-3.481471">
        <ele>81.27</ele>
      </trkpt>
      <trkpt lat="43.257382" lon="-3.48138">
        <ele>81.42</ele>
      </trkpt>
      <trkpt lat="43.257403" lon="-3.481296">
        <ele>81.42</ele>
      </trkpt>
      <trkpt lat="43.257414" lon="-3.481166">
        <ele>81.54</ele>
      </trkpt>
      <trkpt lat="43.257417" lon="-3.480973">
        <ele>82.22</ele>
      </trkpt>
      <trkpt lat="43.257456" lon="-3.480728">
        <ele>84.8</ele>
      </trkpt>
      <trkpt lat="43.257504" lon="-3.480526">
        <ele>86.04</ele>
      </trkpt>
      <trkpt lat="43.257667" lon="-3.480238">
        <ele>84.71</ele>
      </trkpt>
      <trkpt lat="43.257855" lon="-3.480043">
        <ele>82.66</ele>
      </trkpt>
      <trkpt lat="43.257922" lon="-3.479959">
        <ele>81.43</ele>
      </trkpt>
      <trkpt lat="43.257938" lon="-3.479929">
        <ele>81.18</ele>
      </trkpt>
      <trkpt lat="43.257956" lon="-3.479866">
        <ele>80.95</ele>
      </trkpt>
      <trkpt lat="43.257974" lon="-3.479652">
        <ele>79.72</ele>
      </trkpt>
      <trkpt lat="43.257974" lon="-3.479652">
        <ele>79.72</ele>
      </trkpt>
      <trkpt lat="43.25797" lon="-3.479552">
        <ele>78.55</ele>
      </trkpt>
      <trkpt lat="43.257949" lon="-3.479487">
        <ele>77.9</ele>
      </trkpt>
      <trkpt lat="43.25778" lon="-3.479211">
        <ele>76.74</ele>
      </trkpt>
      <trkpt lat="43.257586" lon="-3.478946">
        <ele>81.57</ele>
      </trkpt>
      <trkpt lat="43.257402" lon="-3.478711">
        <ele>80.42</ele>
      </trkpt>
      <trkpt lat="43.257287" lon="-3.478544">
        <ele>79.78</ele>
      </trkpt>
      <trkpt lat="43.257108" lon="-3.478263">
        <ele>80.78</ele>
      </trkpt>
      <trkpt lat="43.256961" lon="-3.47802">
        <ele>80.15</ele>
      </trkpt>
      <trkpt lat="43.25668" lon="-3.477518">
        <ele>77.88</ele>
      </trkpt>
      <trkpt lat="43.256626" lon="-3.477392">
        <ele>77.64</ele>
      </trkpt>
      <trkpt lat="43.256523" lon="-3.477072">
        <ele>76.24</ele>
      </trkpt>
      <trkpt lat="43.256384" lon="-3.476526">
        <ele>74.67</ele>
      </trkpt>
      <trkpt lat="43.256347" lon="-3.476472">
        <ele>74.74</ele>
      </trkpt>
      <trkpt lat="43.256289" lon="-3.476432">
        <ele>75</ele>
      </trkpt>
      <trkpt lat="43.256091" lon="-3.47639">
        <ele>74.95</ele>
      </trkpt>
      <trkpt lat="43.255844" lon="-3.47626">
        <ele>75.29</ele>
      </trkpt>
      <trkpt lat="43.255809" lon="-3.476238">
        <ele>75.18</ele>
      </trkpt>
      <trkpt lat="43.255761" lon="-3.476171">
        <ele>76.13</ele>
      </trkpt>
      <trkpt lat="43.255739" lon="-3.476093">
        <ele>76.83</ele>
      </trkpt>
      <trkpt lat="43.255683" lon="-3.47553">
        <ele>75.1</ele>
      </trkpt>
      <trkpt lat="43.255683" lon="-3.475199">
        <ele>75.54</ele>
      </trkpt>
      <trkpt lat="43.255709" lon="-3.474933">
        <ele>76.53</ele>
      </trkpt>
      <trkpt lat="43.255714" lon="-3.474687">
        <ele>75.55</ele>
      </trkpt>
      <trkpt lat="43.255728" lon="-3.474533">
        <ele>76.36</ele>
      </trkpt>
      <trkpt lat="43.255728" lon="-3.474533">
        <ele>76.36</ele>
      </trkpt>
      <trkpt lat="43.255743" lon="-3.474436">
        <ele>76.24</ele>
      </trkpt>
      <trkpt lat="43.255798" lon="-3.474278">
        <ele>75.42</ele>
      </trkpt>
      <trkpt lat="43.255825" lon="-3.474142">
        <ele>76.01</ele>
      </trkpt>
      <trkpt lat="43.255912" lon="-3.473234">
        <ele>74.37</ele>
      </trkpt>
      <trkpt lat="43.255967" lon="-3.47286">
        <ele>75.02</ele>
      </trkpt>
      <trkpt lat="43.255972" lon="-3.472391">
        <ele>75.35</ele>
      </trkpt>
      <trkpt lat="43.256001" lon="-3.472044">
        <ele>74.66</ele>
      </trkpt>
      <trkpt lat="43.256018" lon="-3.471925">
        <ele>74.25</ele>
      </trkpt>
      <trkpt lat="43.256136" lon="-3.471436">
        <ele>72.95</ele>
      </trkpt>
      <trkpt lat="43.256175" lon="-3.471318">
        <ele>72.03</ele>
      </trkpt>
      <trkpt lat="43.256289" lon="-3.471013">
        <ele>73.26</ele>
      </trkpt>
      <trkpt lat="43.256432" lon="-3.470667">
        <ele>74.16</ele>
      </trkpt>
      <trkpt lat="43.256484" lon="-3.470566">
        <ele>74.07</ele>
      </trkpt>
      <trkpt lat="43.256714" lon="-3.470151">
        <ele>73.49</ele>
      </trkpt>
      <trkpt lat="43.25681" lon="-3.469997">
        <ele>73.45</ele>
      </trkpt>
      <trkpt lat="43.256902" lon="-3.469879">
        <ele>73.31</ele>
      </trkpt>
      <trkpt lat="43.257008" lon="-3.46977">
        <ele>73.23</ele>
      </trkpt>
      <trkpt lat="43.257093" lon="-3.469665">
        <ele>73.09</ele>
      </trkpt>
      <trkpt lat="43.25727" lon="-3.469419">
        <ele>73.06</ele>
      </trkpt>
      <trkpt lat="43.257476" lon="-3.46919">
        <ele>71.02</ele>
      </trkpt>
      <trkpt lat="43.257488" lon="-3.469156">
        <ele>70.83</ele>
      </trkpt>
      <trkpt lat="43.257542" lon="-3.468879">
        <ele>70.19</ele>
      </trkpt>
      <trkpt lat="43.257551" lon="-3.468722">
        <ele>72.8</ele>
      </trkpt>
      <trkpt lat="43.257546" lon="-3.468579">
        <ele>74.13</ele>
      </trkpt>
      <trkpt lat="43.257563" lon="-3.468472">
        <ele>74.34</ele>
      </trkpt>
      <trkpt lat="43.257622" lon="-3.468372">
        <ele>74.94</ele>
      </trkpt>
      <trkpt lat="43.257734" lon="-3.468256">
        <ele>76.67</ele>
      </trkpt>
      <trkpt lat="43.257825" lon="-3.46819">
        <ele>78.57</ele>
      </trkpt>
      <trkpt lat="43.258094" lon="-3.467918">
        <ele>80.95</ele>
      </trkpt>
      <trkpt lat="43.258094" lon="-3.467918">
        <ele>80.95</ele>
      </trkpt>
      <trkpt lat="43.258094" lon="-3.467918">
        <ele>80.95</ele>
      </trkpt>
      <trkpt lat="43.258163" lon="-3.46784">
        <ele>81.43</ele>
      </trkpt>
      <trkpt lat="43.258202" lon="-3.467778">
        <ele>81.18</ele>
      </trkpt>
      <trkpt lat="43.258232" lon="-3.467711">
        <ele>81.43</ele>
      </trkpt>
      <trkpt lat="43.25826" lon="-3.467598">
        <ele>81.64</ele>
      </trkpt>
      <trkpt lat="43.258324" lon="-3.467186">
        <ele>81.65</ele>
      </trkpt>
      <trkpt lat="43.258351" lon="-3.466783">
        <ele>82.64</ele>
      </trkpt>
      <trkpt lat="43.25837" lon="-3.466285">
        <ele>83.08</ele>
      </trkpt>
      <trkpt lat="43.258362" lon="-3.466223">
        <ele>83</ele>
      </trkpt>
      <trkpt lat="43.258342" lon="-3.466165">
        <ele>83</ele>
      </trkpt>
      <trkpt lat="43.258273" lon="-3.466072">
        <ele>83.38</ele>
      </trkpt>
      <trkpt lat="43.258214" lon="-3.46604">
        <ele>83.63</ele>
      </trkpt>
      <trkpt lat="43.25814" lon="-3.465688">
        <ele>84.04</ele>
      </trkpt>
      <trkpt lat="43.25814" lon="-3.465688">
        <ele>84.04</ele>
      </trkpt>
      <trkpt lat="43.258013" lon="-3.465364">
        <ele>84.77</ele>
      </trkpt>
      <trkpt lat="43.258008" lon="-3.465333">
        <ele>84.64</ele>
      </trkpt>
      <trkpt lat="43.25792" lon="-3.465283">
        <ele>84.7</ele>
      </trkpt>
      <trkpt lat="43.257836" lon="-3.465222">
        <ele>84.86</ele>
      </trkpt>
      <trkpt lat="43.257823" lon="-3.465222">
        <ele>84.95</ele>
      </trkpt>
      <trkpt lat="43.257668" lon="-3.465068">
        <ele>84.3</ele>
      </trkpt>
      <trkpt lat="43.257413" lon="-3.464936">
        <ele>85</ele>
      </trkpt>
      <trkpt lat="43.257422" lon="-3.464843">
        <ele>84.8</ele>
      </trkpt>
      <trkpt lat="43.257426" lon="-3.464665">
        <ele>84.41</ele>
      </trkpt>
      <trkpt lat="43.257312" lon="-3.464648">
        <ele>85</ele>
      </trkpt>
      <trkpt lat="43.257299" lon="-3.464564">
        <ele>85</ele>
      </trkpt>
      <trkpt lat="43.257286" lon="-3.464568">
        <ele>85.02</ele>
      </trkpt>
      <trkpt lat="43.257286" lon="-3.464568">
        <ele>85.02</ele>
      </trkpt>
      <trkpt lat="43.257286" lon="-3.464568">
        <ele>85.02</ele>
      </trkpt>
      <trkpt lat="43.257147" lon="-3.464602">
        <ele>85.27</ele>
      </trkpt>
      <trkpt lat="43.257068" lon="-3.464623">
        <ele>85.54</ele>
      </trkpt>
      <trkpt lat="43.256987" lon="-3.464632">
        <ele>85.83</ele>
      </trkpt>
      <trkpt lat="43.256735" lon="-3.464599">
        <ele>86.9</ele>
      </trkpt>
      <trkpt lat="43.256688" lon="-3.464586">
        <ele>87</ele>
      </trkpt>
      <trkpt lat="43.256691" lon="-3.464561">
        <ele>87</ele>
      </trkpt>
      <trkpt lat="43.256688" lon="-3.464586">
        <ele>87</ele>
      </trkpt>
      <trkpt lat="43.256735" lon="-3.464599">
        <ele>86.9</ele>
      </trkpt>
      <trkpt lat="43.256975" lon="-3.46463">
        <ele>85.88</ele>
      </trkpt>
      <trkpt lat="43.256975" lon="-3.46463">
        <ele>85.88</ele>
      </trkpt>
      <trkpt lat="43.256735" lon="-3.464599">
        <ele>86.9</ele>
      </trkpt>
      <trkpt lat="43.256538" lon="-3.464546">
        <ele>87</ele>
      </trkpt>
      <trkpt lat="43.256536" lon="-3.46457">
        <ele>87</ele>
      </trkpt>
    </trkseg>
  </trk>
</gpx>
