<?xml version="1.0" encoding="UTF-8"?>
<gpx creator="Wikiloc - https://www.wikiloc.com" version="1.1" xmlns="http://www.topografix.com/GPX/1/1" xmlns:xsi="http://www.w3.org/2001/XMLSchema-instance" xsi:schemaLocation="http://www.topografix.com/GPX/1/1 http://www.topografix.com/GPX/1/1/gpx.xsd">
  <metadata>
    <name>Wikiloc - Ramales de la Victoria, Cucurio Xtrem</name>
    <link href="https://www.wikiloc.com/hiking-trails/ramales-de-la-victoria-cucurio-xtrem-68970210">
      <text>Ramales de la Victoria, Cucurio Xtrem - Wikiloc on Wikiloc</text>
    </link>
    <time>2021-03-28T13:02:31Z</time>
  </metadata>
  <trk>
    <name>Ramales de la Victoria, Cucurio Xtrem - Wikiloc</name>
    <cmt></cmt>
    <desc></desc>
    <trkseg>
      <trkpt lat="43.258060" lon="-3.465353">
        <ele>84.067</ele>
        <time>2021-03-28T11:01:29Z</time>
      </trkpt>
      <trkpt lat="43.258162" lon="-3.465381">
        <ele>84.181</ele>
        <time>2021-03-28T11:02:27Z</time>
      </trkpt>
      <trkpt lat="43.257964" lon="-3.464925">
        <ele>83.919</ele>
        <time>2021-03-28T11:03:14Z</time>
      </trkpt>
      <trkpt lat="43.258021" lon="-3.465559">
        <ele>83.908</ele>
        <time>2021-03-28T11:03:26Z</time>
      </trkpt>
      <trkpt lat="43.257800" lon="-3.465742">
        <ele>84.412</ele>
        <time>2021-03-28T11:03:49Z</time>
      </trkpt>
      <trkpt lat="43.257786" lon="-3.465877">
        <ele>84.344</ele>
        <time>2021-03-28T11:03:56Z</time>
      </trkpt>
      <trkpt lat="43.257858" lon="-3.465963">
        <ele>84.035</ele>
        <time>2021-03-28T11:04:04Z</time>
      </trkpt>
      <trkpt lat="43.258216" lon="-3.466014">
        <ele>83.683</ele>
        <time>2021-03-28T11:04:32Z</time>
      </trkpt>
      <trkpt lat="43.258377" lon="-3.466306">
        <ele>82.866</ele>
        <time>2021-03-28T11:04:48Z</time>
      </trkpt>
      <trkpt lat="43.258278" lon="-3.467591">
        <ele>81.878</ele>
        <time>2021-03-28T11:05:57Z</time>
      </trkpt>
      <trkpt lat="43.258109" lon="-3.467890">
        <ele>81.967</ele>
        <time>2021-03-28T11:06:16Z</time>
      </trkpt>
      <trkpt lat="43.257549" lon="-3.468365">
        <ele>76.626</ele>
        <time>2021-03-28T11:07:12Z</time>
      </trkpt>
      <trkpt lat="43.257515" lon="-3.468849">
        <ele>73.887</ele>
        <time>2021-03-28T11:07:49Z</time>
      </trkpt>
      <trkpt lat="43.257367" lon="-3.469356">
        <ele>72.242</ele>
        <time>2021-03-28T11:08:28Z</time>
      </trkpt>
      <trkpt lat="43.256901" lon="-3.469885">
        <ele>71.726</ele>
        <time>2021-03-28T11:09:18Z</time>
      </trkpt>
      <trkpt lat="43.256899" lon="-3.470015">
        <ele>71.808</ele>
        <time>2021-03-28T11:09:25Z</time>
      </trkpt>
      <trkpt lat="43.256625" lon="-3.470298">
        <ele>71.894</ele>
        <time>2021-03-28T11:10:20Z</time>
      </trkpt>
      <trkpt lat="43.256262" lon="-3.470954">
        <ele>71.066</ele>
        <time>2021-03-28T11:11:09Z</time>
      </trkpt>
      <trkpt lat="43.256067" lon="-3.470908">
        <ele>70.927</ele>
        <time>2021-03-28T11:11:35Z</time>
      </trkpt>
      <trkpt lat="43.255795" lon="-3.470659">
        <ele>72.395</ele>
        <time>2021-03-28T11:12:04Z</time>
      </trkpt>
      <trkpt lat="43.255616" lon="-3.470217">
        <ele>74.678</ele>
        <time>2021-03-28T11:12:35Z</time>
      </trkpt>
      <trkpt lat="43.255069" lon="-3.470634">
        <ele>76.280</ele>
        <time>2021-03-28T11:13:20Z</time>
      </trkpt>
      <trkpt lat="43.254883" lon="-3.470270">
        <ele>76.129</ele>
        <time>2021-03-28T11:13:51Z</time>
      </trkpt>
      <trkpt lat="43.254584" lon="-3.470214">
        <ele>76.138</ele>
        <time>2021-03-28T11:14:18Z</time>
      </trkpt>
      <trkpt lat="43.254495" lon="-3.470275">
        <ele>76.145</ele>
        <time>2021-03-28T11:14:29Z</time>
      </trkpt>
      <trkpt lat="43.254390" lon="-3.470524">
        <ele>76.147</ele>
        <time>2021-03-28T11:14:45Z</time>
      </trkpt>
      <trkpt lat="43.254203" lon="-3.470629">
        <ele>76.111</ele>
        <time>2021-03-28T11:15:00Z</time>
      </trkpt>
      <trkpt lat="43.254087" lon="-3.470867">
        <ele>68.108</ele>
        <time>2021-03-28T11:17:33Z</time>
      </trkpt>
      <trkpt lat="43.253854" lon="-3.471045">
        <ele>52.580</ele>
        <time>2021-03-28T11:17:57Z</time>
      </trkpt>
      <trkpt lat="43.253814" lon="-3.471521">
        <ele>50.762</ele>
        <time>2021-03-28T11:18:34Z</time>
      </trkpt>
      <trkpt lat="43.253527" lon="-3.472269">
        <ele>68.543</ele>
        <time>2021-03-28T11:19:47Z</time>
      </trkpt>
      <trkpt lat="43.253663" lon="-3.473073">
        <ele>75.021</ele>
        <time>2021-03-28T11:20:44Z</time>
      </trkpt>
      <trkpt lat="43.253631" lon="-3.473539">
        <ele>78.154</ele>
        <time>2021-03-28T11:21:21Z</time>
      </trkpt>
      <trkpt lat="43.253534" lon="-3.473681">
        <ele>79.256</ele>
        <time>2021-03-28T11:21:37Z</time>
      </trkpt>
      <trkpt lat="43.253155" lon="-3.473567">
        <ele>93.165</ele>
        <time>2021-03-28T11:22:20Z</time>
      </trkpt>
      <trkpt lat="43.252944" lon="-3.473713">
        <ele>105.564</ele>
        <time>2021-03-28T11:22:45Z</time>
      </trkpt>
      <trkpt lat="43.252840" lon="-3.474083">
        <ele>113.355</ele>
        <time>2021-03-28T11:23:20Z</time>
      </trkpt>
      <trkpt lat="43.252428" lon="-3.474658">
        <ele>118.607</ele>
        <time>2021-03-28T11:24:19Z</time>
      </trkpt>
      <trkpt lat="43.252260" lon="-3.475060">
        <ele>116.917</ele>
        <time>2021-03-28T11:25:09Z</time>
      </trkpt>
      <trkpt lat="43.252059" lon="-3.475096">
        <ele>120.308</ele>
        <time>2021-03-28T11:25:29Z</time>
      </trkpt>
      <trkpt lat="43.251842" lon="-3.474825">
        <ele>128.361</ele>
        <time>2021-03-28T11:26:20Z</time>
      </trkpt>
      <trkpt lat="43.251623" lon="-3.474760">
        <ele>135.933</ele>
        <time>2021-03-28T11:26:56Z</time>
      </trkpt>
      <trkpt lat="43.251717" lon="-3.473896">
        <ele>147.364</ele>
        <time>2021-03-28T11:28:00Z</time>
      </trkpt>
      <trkpt lat="43.251469" lon="-3.471823">
        <ele>161.512</ele>
        <time>2021-03-28T11:30:32Z</time>
      </trkpt>
      <trkpt lat="43.251267" lon="-3.471209">
        <ele>162.845</ele>
        <time>2021-03-28T11:31:24Z</time>
      </trkpt>
      <trkpt lat="43.250829" lon="-3.470838">
        <ele>163.947</ele>
        <time>2021-03-28T11:32:14Z</time>
      </trkpt>
      <trkpt lat="43.250717" lon="-3.470552">
        <ele>160.496</ele>
        <time>2021-03-28T11:32:42Z</time>
      </trkpt>
      <trkpt lat="43.250445" lon="-3.470351">
        <ele>157.365</ele>
        <time>2021-03-28T11:33:09Z</time>
      </trkpt>
      <trkpt lat="43.249837" lon="-3.469554">
        <ele>169.551</ele>
        <time>2021-03-28T11:34:26Z</time>
      </trkpt>
      <trkpt lat="43.249487" lon="-3.469323">
        <ele>175.201</ele>
        <time>2021-03-28T11:35:05Z</time>
      </trkpt>
      <trkpt lat="43.248885" lon="-3.469196">
        <ele>176.711</ele>
        <time>2021-03-28T11:36:08Z</time>
      </trkpt>
      <trkpt lat="43.248511" lon="-3.469191">
        <ele>179.208</ele>
        <time>2021-03-28T11:36:39Z</time>
      </trkpt>
      <trkpt lat="43.248095" lon="-3.469354">
        <ele>188.711</ele>
        <time>2021-03-28T11:37:34Z</time>
      </trkpt>
      <trkpt lat="43.247819" lon="-3.469626">
        <ele>200.473</ele>
        <time>2021-03-28T11:38:51Z</time>
      </trkpt>
      <trkpt lat="43.247411" lon="-3.470533">
        <ele>200.474</ele>
        <time>2021-03-28T11:40:37Z</time>
      </trkpt>
      <trkpt lat="43.247489" lon="-3.470981">
        <ele>220.522</ele>
        <time>2021-03-28T11:41:37Z</time>
      </trkpt>
      <trkpt lat="43.247413" lon="-3.471349">
        <ele>236.825</ele>
        <time>2021-03-28T11:42:15Z</time>
      </trkpt>
      <trkpt lat="43.247165" lon="-3.471665">
        <ele>246.757</ele>
        <time>2021-03-28T11:43:04Z</time>
      </trkpt>
      <trkpt lat="43.247023" lon="-3.471649">
        <ele>249.496</ele>
        <time>2021-03-28T11:43:21Z</time>
      </trkpt>
      <trkpt lat="43.246950" lon="-3.471819">
        <ele>250.475</ele>
        <time>2021-03-28T11:43:47Z</time>
      </trkpt>
      <trkpt lat="43.246651" lon="-3.472040">
        <ele>246.459</ele>
        <time>2021-03-28T11:44:35Z</time>
      </trkpt>
      <trkpt lat="43.246386" lon="-3.472400">
        <ele>265.903</ele>
        <time>2021-03-28T11:46:37Z</time>
      </trkpt>
      <trkpt lat="43.246367" lon="-3.472883">
        <ele>271.823</ele>
        <time>2021-03-28T11:47:48Z</time>
      </trkpt>
      <trkpt lat="43.245995" lon="-3.473561">
        <ele>279.808</ele>
        <time>2021-03-28T11:49:09Z</time>
      </trkpt>
      <trkpt lat="43.246003" lon="-3.473687">
        <ele>281.821</ele>
        <time>2021-03-28T11:50:06Z</time>
      </trkpt>
      <trkpt lat="43.245736" lon="-3.474119">
        <ele>280.463</ele>
        <time>2021-03-28T11:51:04Z</time>
      </trkpt>
      <trkpt lat="43.245452" lon="-3.474833">
        <ele>282.684</ele>
        <time>2021-03-28T11:51:57Z</time>
      </trkpt>
      <trkpt lat="43.245313" lon="-3.475353">
        <ele>287.222</ele>
        <time>2021-03-28T11:52:34Z</time>
      </trkpt>
      <trkpt lat="43.245265" lon="-3.476150">
        <ele>293.465</ele>
        <time>2021-03-28T11:54:24Z</time>
      </trkpt>
      <trkpt lat="43.245028" lon="-3.476861">
        <ele>294.947</ele>
        <time>2021-03-28T11:55:33Z</time>
      </trkpt>
      <trkpt lat="43.245023" lon="-3.477221">
        <ele>299.456</ele>
        <time>2021-03-28T11:58:50Z</time>
      </trkpt>
      <trkpt lat="43.244908" lon="-3.477590">
        <ele>302.485</ele>
        <time>2021-03-28T11:59:17Z</time>
      </trkpt>
      <trkpt lat="43.244778" lon="-3.477392">
        <ele>306.492</ele>
        <time>2021-03-28T12:01:30Z</time>
      </trkpt>
      <trkpt lat="43.244694" lon="-3.476996">
        <ele>309.473</ele>
        <time>2021-03-28T12:01:55Z</time>
      </trkpt>
      <trkpt lat="43.244627" lon="-3.475370">
        <ele>307.120</ele>
        <time>2021-03-28T12:04:06Z</time>
      </trkpt>
      <trkpt lat="43.244395" lon="-3.474933">
        <ele>302.608</ele>
        <time>2021-03-28T12:04:38Z</time>
      </trkpt>
      <trkpt lat="43.244137" lon="-3.475144">
        <ele>301.655</ele>
        <time>2021-03-28T12:05:07Z</time>
      </trkpt>
      <trkpt lat="43.243451" lon="-3.475214">
        <ele>294.937</ele>
        <time>2021-03-28T12:06:15Z</time>
      </trkpt>
      <trkpt lat="43.242878" lon="-3.474703">
        <ele>285.448</ele>
        <time>2021-03-28T12:07:02Z</time>
      </trkpt>
      <trkpt lat="43.242437" lon="-3.474613">
        <ele>279.546</ele>
        <time>2021-03-28T12:07:38Z</time>
      </trkpt>
      <trkpt lat="43.242043" lon="-3.474327">
        <ele>270.029</ele>
        <time>2021-03-28T12:08:20Z</time>
      </trkpt>
      <trkpt lat="43.241920" lon="-3.473626">
        <ele>264.691</ele>
        <time>2021-03-28T12:09:20Z</time>
      </trkpt>
      <trkpt lat="43.241979" lon="-3.473371">
        <ele>260.630</ele>
        <time>2021-03-28T12:09:37Z</time>
      </trkpt>
      <trkpt lat="43.242138" lon="-3.473038">
        <ele>258.399</ele>
        <time>2021-03-28T12:10:00Z</time>
      </trkpt>
      <trkpt lat="43.242407" lon="-3.472893">
        <ele>255.346</ele>
        <time>2021-03-28T12:10:29Z</time>
      </trkpt>
      <trkpt lat="43.242442" lon="-3.472573">
        <ele>250.488</ele>
        <time>2021-03-28T12:11:43Z</time>
      </trkpt>
      <trkpt lat="43.242795" lon="-3.472114">
        <ele>244.716</ele>
        <time>2021-03-28T12:12:40Z</time>
      </trkpt>
      <trkpt lat="43.243382" lon="-3.472385">
        <ele>242.708</ele>
        <time>2021-03-28T12:14:07Z</time>
      </trkpt>
      <trkpt lat="43.243521" lon="-3.472346">
        <ele>236.910</ele>
        <time>2021-03-28T12:15:54Z</time>
      </trkpt>
      <trkpt lat="43.243593" lon="-3.471807">
        <ele>225.562</ele>
        <time>2021-03-28T12:19:44Z</time>
      </trkpt>
      <trkpt lat="43.244066" lon="-3.471214">
        <ele>206.943</ele>
        <time>2021-03-28T12:20:39Z</time>
      </trkpt>
      <trkpt lat="43.244411" lon="-3.470342">
        <ele>200.531</ele>
        <time>2021-03-28T12:22:12Z</time>
      </trkpt>
      <trkpt lat="43.244818" lon="-3.470031">
        <ele>186.884</ele>
        <time>2021-03-28T12:23:06Z</time>
      </trkpt>
      <trkpt lat="43.245058" lon="-3.469803">
        <ele>186.226</ele>
        <time>2021-03-28T12:23:34Z</time>
      </trkpt>
      <trkpt lat="43.245045" lon="-3.469740">
        <ele>187.765</ele>
        <time>2021-03-28T12:23:49Z</time>
      </trkpt>
      <trkpt lat="43.244897" lon="-3.469804">
        <ele>188.464</ele>
        <time>2021-03-28T12:24:07Z</time>
      </trkpt>
      <trkpt lat="43.245320" lon="-3.469651">
        <ele>187.834</ele>
        <time>2021-03-28T12:24:26Z</time>
      </trkpt>
      <trkpt lat="43.245524" lon="-3.469693">
        <ele>183.255</ele>
        <time>2021-03-28T12:24:46Z</time>
      </trkpt>
      <trkpt lat="43.245753" lon="-3.469446">
        <ele>187.610</ele>
        <time>2021-03-28T12:25:32Z</time>
      </trkpt>
      <trkpt lat="43.245976" lon="-3.469373">
        <ele>187.108</ele>
        <time>2021-03-28T12:25:47Z</time>
      </trkpt>
      <trkpt lat="43.246044" lon="-3.469169">
        <ele>181.989</ele>
        <time>2021-03-28T12:26:00Z</time>
      </trkpt>
      <trkpt lat="43.246541" lon="-3.468878">
        <ele>180.651</ele>
        <time>2021-03-28T12:26:32Z</time>
      </trkpt>
      <trkpt lat="43.246852" lon="-3.468425">
        <ele>171.912</ele>
        <time>2021-03-28T12:27:10Z</time>
      </trkpt>
      <trkpt lat="43.247116" lon="-3.468279">
        <ele>165.880</ele>
        <time>2021-03-28T12:27:44Z</time>
      </trkpt>
      <trkpt lat="43.247127" lon="-3.468001">
        <ele>161.073</ele>
        <time>2021-03-28T12:28:21Z</time>
      </trkpt>
      <trkpt lat="43.247257" lon="-3.467789">
        <ele>155.515</ele>
        <time>2021-03-28T12:28:38Z</time>
      </trkpt>
      <trkpt lat="43.247128" lon="-3.467516">
        <ele>153.874</ele>
        <time>2021-03-28T12:28:58Z</time>
      </trkpt>
      <trkpt lat="43.246608" lon="-3.467769">
        <ele>153.783</ele>
        <time>2021-03-28T12:29:34Z</time>
      </trkpt>
      <trkpt lat="43.246137" lon="-3.467893">
        <ele>125.786</ele>
        <time>2021-03-28T12:30:01Z</time>
      </trkpt>
      <trkpt lat="43.246036" lon="-3.467846">
        <ele>122.960</ele>
        <time>2021-03-28T12:30:09Z</time>
      </trkpt>
      <trkpt lat="43.246431" lon="-3.467089">
        <ele>121.126</ele>
        <time>2021-03-28T12:30:47Z</time>
      </trkpt>
      <trkpt lat="43.246885" lon="-3.466558">
        <ele>120.608</ele>
        <time>2021-03-28T12:31:24Z</time>
      </trkpt>
      <trkpt lat="43.247246" lon="-3.465550">
        <ele>115.324</ele>
        <time>2021-03-28T12:32:21Z</time>
      </trkpt>
      <trkpt lat="43.247456" lon="-3.465361">
        <ele>115.396</ele>
        <time>2021-03-28T12:32:37Z</time>
      </trkpt>
      <trkpt lat="43.247480" lon="-3.465248">
        <ele>115.317</ele>
        <time>2021-03-28T12:32:43Z</time>
      </trkpt>
      <trkpt lat="43.247139" lon="-3.464964">
        <ele>115.335</ele>
        <time>2021-03-28T12:33:06Z</time>
      </trkpt>
      <trkpt lat="43.246854" lon="-3.464961">
        <ele>111.338</ele>
        <time>2021-03-28T12:33:27Z</time>
      </trkpt>
      <trkpt lat="43.246643" lon="-3.465137">
        <ele>92.020</ele>
        <time>2021-03-28T12:33:43Z</time>
      </trkpt>
      <trkpt lat="43.245989" lon="-3.466051">
        <ele>68.559</ele>
        <time>2021-03-28T12:34:24Z</time>
      </trkpt>
      <trkpt lat="43.246076" lon="-3.464657">
        <ele>57.948</ele>
        <time>2021-03-28T12:35:47Z</time>
      </trkpt>
      <trkpt lat="43.246176" lon="-3.464324">
        <ele>61.624</ele>
        <time>2021-03-28T12:36:05Z</time>
      </trkpt>
      <trkpt lat="43.246043" lon="-3.463640">
        <ele>53.104</ele>
        <time>2021-03-28T12:36:41Z</time>
      </trkpt>
      <trkpt lat="43.246102" lon="-3.463241">
        <ele>45.114</ele>
        <time>2021-03-28T12:36:54Z</time>
      </trkpt>
      <trkpt lat="43.246454" lon="-3.462857">
        <ele>44.408</ele>
        <time>2021-03-28T12:37:19Z</time>
      </trkpt>
      <trkpt lat="43.247149" lon="-3.462606">
        <ele>34.428</ele>
        <time>2021-03-28T12:38:06Z</time>
      </trkpt>
      <trkpt lat="43.247364" lon="-3.462273">
        <ele>28.770</ele>
        <time>2021-03-28T12:38:27Z</time>
      </trkpt>
      <trkpt lat="43.248046" lon="-3.462456">
        <ele>23.891</ele>
        <time>2021-03-28T12:39:14Z</time>
      </trkpt>
      <trkpt lat="43.248327" lon="-3.462412">
        <ele>28.629</ele>
        <time>2021-03-28T12:39:35Z</time>
      </trkpt>
      <trkpt lat="43.248927" lon="-3.462519">
        <ele>28.152</ele>
        <time>2021-03-28T12:40:28Z</time>
      </trkpt>
      <trkpt lat="43.249113" lon="-3.462308">
        <ele>44.154</ele>
        <time>2021-03-28T12:40:51Z</time>
      </trkpt>
      <trkpt lat="43.249255" lon="-3.462419">
        <ele>56.123</ele>
        <time>2021-03-28T12:41:18Z</time>
      </trkpt>
      <trkpt lat="43.249747" lon="-3.462343">
        <ele>56.172</ele>
        <time>2021-03-28T12:41:57Z</time>
      </trkpt>
      <trkpt lat="43.249812" lon="-3.462247">
        <ele>48.116</ele>
        <time>2021-03-28T12:42:11Z</time>
      </trkpt>
      <trkpt lat="43.249817" lon="-3.461738">
        <ele>24.876</ele>
        <time>2021-03-28T12:43:12Z</time>
      </trkpt>
      <trkpt lat="43.249769" lon="-3.461621">
        <ele>24.213</ele>
        <time>2021-03-28T12:43:19Z</time>
      </trkpt>
      <trkpt lat="43.249506" lon="-3.461463">
        <ele>23.808</ele>
        <time>2021-03-28T12:43:39Z</time>
      </trkpt>
      <trkpt lat="43.249761" lon="-3.461468">
        <ele>27.327</ele>
        <time>2021-03-28T12:43:58Z</time>
      </trkpt>
      <trkpt lat="43.250119" lon="-3.461229">
        <ele>32.729</ele>
        <time>2021-03-28T12:44:30Z</time>
      </trkpt>
      <trkpt lat="43.251469" lon="-3.461631">
        <ele>32.670</ele>
        <time>2021-03-28T12:46:19Z</time>
      </trkpt>
      <trkpt lat="43.251703" lon="-3.461546">
        <ele>32.658</ele>
        <time>2021-03-28T12:46:36Z</time>
      </trkpt>
      <trkpt lat="43.252676" lon="-3.461867">
        <ele>32.651</ele>
        <time>2021-03-28T12:47:50Z</time>
      </trkpt>
      <trkpt lat="43.253169" lon="-3.461921">
        <ele>32.653</ele>
        <time>2021-03-28T12:48:23Z</time>
      </trkpt>
      <trkpt lat="43.253664" lon="-3.462183">
        <ele>33.532</ele>
        <time>2021-03-28T12:48:57Z</time>
      </trkpt>
      <trkpt lat="43.254342" lon="-3.463163">
        <ele>30.081</ele>
        <time>2021-03-28T12:50:10Z</time>
      </trkpt>
      <trkpt lat="43.255003" lon="-3.463672">
        <ele>30.084</ele>
        <time>2021-03-28T12:50:59Z</time>
      </trkpt>
      <trkpt lat="43.255139" lon="-3.463883">
        <ele>29.907</ele>
        <time>2021-03-28T12:51:15Z</time>
      </trkpt>
      <trkpt lat="43.255233" lon="-3.463877">
        <ele>29.917</ele>
        <time>2021-03-28T12:51:32Z</time>
      </trkpt>
      <trkpt lat="43.255338" lon="-3.464058">
        <ele>29.908</ele>
        <time>2021-03-28T12:51:44Z</time>
      </trkpt>
      <trkpt lat="43.255919" lon="-3.464255">
        <ele>29.974</ele>
        <time>2021-03-28T12:52:12Z</time>
      </trkpt>
      <trkpt lat="43.256038" lon="-3.464457">
        <ele>29.926</ele>
        <time>2021-03-28T12:52:29Z</time>
      </trkpt>
      <trkpt lat="43.256220" lon="-3.464559">
        <ele>29.937</ele>
        <time>2021-03-28T12:52:47Z</time>
      </trkpt>
      <trkpt lat="43.257461" lon="-3.464808">
        <ele>29.875</ele>
        <time>2021-03-28T12:54:21Z</time>
      </trkpt>
      <trkpt lat="43.257756" lon="-3.464979">
        <ele>29.848</ele>
        <time>2021-03-28T12:54:39Z</time>
      </trkpt>
      <trkpt lat="43.257956" lon="-3.465220">
        <ele>29.870</ele>
        <time>2021-03-28T12:54:59Z</time>
      </trkpt>
      <trkpt lat="43.258207" lon="-3.465131">
        <ele>29.839</ele>
        <time>2021-03-28T12:55:11Z</time>
      </trkpt>
      <trkpt lat="43.258065" lon="-3.465136">
        <ele>29.748</ele>
        <time>2021-03-28T12:57:07Z</time>
      </trkpt>
      <trkpt lat="43.258157" lon="-3.465214">
        <ele>29.727</ele>
        <time>2021-03-28T13:00:11Z</time>
      </trkpt>
      <trkpt lat="43.258154" lon="-3.465106">
        <ele>29.768</ele>
        <time>2021-03-28T13:02:31Z</time>
      </trkpt>
    </trkseg>
  </trk></gpx>