<?xml version="1.0" encoding="utf-8" standalone="yes"?>
<gpx version="1.1" creator="GPS Visualizer https://www.gpsvisualizer.com/" xmlns="http://www.topografix.com/GPX/1/1" xmlns:xsi="http://www.w3.org/2001/XMLSchema-instance" xsi:schemaLocation="http://www.topografix.com/GPX/1/1 http://www.topografix.com/GPX/1/1/gpx.xsd http://www.garmin.com/xmlschemas/TrackPointExtension/v2 http://www.garmin.com/xmlschemas/TrackPointExtensionv2.xsd http://www.garmin.com/xmlschemas/GpxExtensions/v3 http://www.garmin.com/xmlschemas/GpxExtensionsv3.xsd" xmlns:gpxtpx="http://www.garmin.com/xmlschemas/TrackPointExtension/v2" xmlns:gpxx="http://www.garmin.com/xmlschemas/GpxExtensions/v3">
<trk>
  <name>Guardamino por monte</name>
  <trkseg>
    <trkpt lat="43.256555895" lon="-3.464546127"></trkpt>
    <trkpt lat="43.256451714" lon="-3.464503256"></trkpt>
    <trkpt lat="43.256344262" lon="-3.464467156"></trkpt>
    <trkpt lat="43.256251926" lon="-3.464414215"></trkpt>
    <trkpt lat="43.256169715" lon="-3.464356347"></trkpt>
    <trkpt lat="43.256218849" lon="-3.464184674"></trkpt>
    <trkpt lat="43.25624928" lon="-3.463867167"></trkpt>
    <trkpt lat="43.256294338" lon="-3.463692931"></trkpt>
    <trkpt lat="43.256352843" lon="-3.463366178"></trkpt>
    <trkpt lat="43.25639401" lon="-3.463219698"></trkpt>
    <trkpt lat="43.256483188" lon="-3.463223247"></trkpt>
    <trkpt lat="43.256640954" lon="-3.463311307"></trkpt>
    <trkpt lat="43.25675272" lon="-3.463352293"></trkpt>
    <trkpt lat="43.256866124" lon="-3.463400123"></trkpt>
    <trkpt lat="43.256915652" lon="-3.463361654"></trkpt>
    <trkpt lat="43.256915318" lon="-3.463292623"></trkpt>
    <trkpt lat="43.256900099" lon="-3.463236542"></trkpt>
    <trkpt lat="43.256890091" lon="-3.463224276"></trkpt>
    <trkpt lat="43.256825158" lon="-3.46310748"></trkpt>
    <trkpt lat="43.256721514" lon="-3.462949887"></trkpt>
    <trkpt lat="43.25665758" lon="-3.462761319"></trkpt>
    <trkpt lat="43.256642365" lon="-3.462607924"></trkpt>
    <trkpt lat="43.2566316" lon="-3.462374292"></trkpt>
    <trkpt lat="43.256659804" lon="-3.462223668"></trkpt>
    <trkpt lat="43.256722204" lon="-3.462087644"></trkpt>
    <trkpt lat="43.256824676" lon="-3.461989946"></trkpt>
    <trkpt lat="43.256903433" lon="-3.461868639"></trkpt>
    <trkpt lat="43.256987894" lon="-3.461720277"></trkpt>
    <trkpt lat="43.257037601" lon="-3.461549634"></trkpt>
    <trkpt lat="43.257036711" lon="-3.461366146"></trkpt>
    <trkpt lat="43.257000348" lon="-3.461169191"></trkpt>
    <trkpt lat="43.257000532" lon="-3.461207071"></trkpt>
    <trkpt lat="43.257000655" lon="-3.461232324"></trkpt>
    <trkpt lat="43.257005853" lon="-3.461263133"></trkpt>
    <trkpt lat="43.257005822" lon="-3.461256818"></trkpt>
    <trkpt lat="43.257005638" lon="-3.461218927"></trkpt>
    <trkpt lat="43.257005516" lon="-3.461193666"></trkpt>
    <trkpt lat="43.257005393" lon="-3.461168405"></trkpt>
    <trkpt lat="43.25700524" lon="-3.461136829"></trkpt>
    <trkpt lat="43.257005056" lon="-3.461098938"></trkpt>
    <trkpt lat="43.257004934" lon="-3.461073677"></trkpt>
    <trkpt lat="43.25700475" lon="-3.461035785"></trkpt>
    <trkpt lat="43.256999583" lon="-3.461011361"></trkpt>
    <trkpt lat="43.256999429" lon="-3.460979795"></trkpt>
    <trkpt lat="43.256994235" lon="-3.460949084"></trkpt>
    <trkpt lat="43.256989136" lon="-3.460937321"></trkpt>
    <trkpt lat="43.256983856" lon="-3.460887721"></trkpt>
    <trkpt lat="43.256973643" lon="-3.460857952"></trkpt>
    <trkpt lat="43.25697352" lon="-3.460832739"></trkpt>
    <trkpt lat="43.256985376" lon="-3.460762921"></trkpt>
    <trkpt lat="43.256985276" lon="-3.46074253"></trkpt>
    <trkpt lat="43.256989374" lon="-3.460722236"></trkpt>
    <trkpt lat="43.257001891" lon="-3.460702103"></trkpt>
    <trkpt lat="43.257006003" lon="-3.46068176"></trkpt>
    <trkpt lat="43.257022735" lon="-3.460651387"></trkpt>
    <trkpt lat="43.257031096" lon="-3.460631043"></trkpt>
    <trkpt lat="43.257035231" lon="-3.460610614"></trkpt>
    <trkpt lat="43.257052083" lon="-3.460585171"></trkpt>
    <trkpt lat="43.257060466" lon="-3.460559582"></trkpt>
    <trkpt lat="43.25707313" lon="-3.460533973"></trkpt>
    <trkpt lat="43.257077298" lon="-3.460513422"></trkpt>
    <trkpt lat="43.257090028" lon="-3.460492865"></trkpt>
    <trkpt lat="43.257098472" lon="-3.460467108"></trkpt>
    <trkpt lat="43.257106905" lon="-3.460436152"></trkpt>
    <trkpt lat="43.257115326" lon="-3.460399983"></trkpt>
    <trkpt lat="43.257123836" lon="-3.460379254"></trkpt>
    <trkpt lat="43.257132361" lon="-3.460358491"></trkpt>
    <trkpt lat="43.257136526" lon="-3.460327408"></trkpt>
    <trkpt lat="43.257149324" lon="-3.460290971"></trkpt>
    <trkpt lat="43.257157839" lon="-3.46025972"></trkpt>
    <trkpt lat="43.257162051" lon="-3.460233706"></trkpt>
    <trkpt lat="43.257170561" lon="-3.46019718"></trkpt>
    <trkpt lat="43.257183468" lon="-3.460165661"></trkpt>
    <trkpt lat="43.257192064" lon="-3.460139405"></trkpt>
    <trkpt lat="43.257192013" lon="-3.460129006"></trkpt>
    <trkpt lat="43.257204998" lon="-3.460102544"></trkpt>
    <trkpt lat="43.257209196" lon="-3.460065932"></trkpt>
    <trkpt lat="43.257213501" lon="-3.460050131"></trkpt>
    <trkpt lat="43.257222121" lon="-3.460018491"></trkpt>
    <trkpt lat="43.25722641" lon="-3.459997434"></trkpt>
    <trkpt lat="43.257235103" lon="-3.459976154"></trkpt>
    <trkpt lat="43.257243784" lon="-3.459949613"></trkpt>
    <trkpt lat="43.257261292" lon="-3.459917337"></trkpt>
    <trkpt lat="43.257270016" lon="-3.459890683"></trkpt>
    <trkpt lat="43.257274345" lon="-3.459869478"></trkpt>
    <trkpt lat="43.257278625" lon="-3.459837771"></trkpt>
    <trkpt lat="43.257296249" lon="-3.459805204"></trkpt>
    <trkpt lat="43.257300521" lon="-3.459768152"></trkpt>
    <trkpt lat="43.257309362" lon="-3.459751791"></trkpt>
    <trkpt lat="43.257318165" lon="-3.459724878"></trkpt>
    <trkpt lat="43.257326983" lon="-3.459697921"></trkpt>
    <trkpt lat="43.257340224" lon="-3.459654765"></trkpt>
    <trkpt lat="43.257344611" lon="-3.459633323"></trkpt>
    <trkpt lat="43.257349001" lon="-3.459611862"></trkpt>
    <trkpt lat="43.257362323" lon="-3.459573794"></trkpt>
    <trkpt lat="43.25737124" lon="-3.459551888"></trkpt>
    <trkpt lat="43.257375678" lon="-3.45953563"></trkpt>
    <trkpt lat="43.25738912" lon="-3.459507966"></trkpt>
    <trkpt lat="43.257402594" lon="-3.459480232"></trkpt>
    <trkpt lat="43.257416155" lon="-3.459463049"></trkpt>
    <trkpt lat="43.257425136" lon="-3.459435626"></trkpt>
    <trkpt lat="43.257443274" lon="-3.459407261"></trkpt>
    <trkpt lat="43.257456937" lon="-3.459389922"></trkpt>
    <trkpt lat="43.257470634" lon="-3.459372539"></trkpt>
    <trkpt lat="43.257479759" lon="-3.459355585"></trkpt>
    <trkpt lat="43.257502756" lon="-3.459337162"></trkpt>
    <trkpt lat="43.257516569" lon="-3.45931964"></trkpt>
    <trkpt lat="43.257530417" lon="-3.459302073"></trkpt>
    <trkpt lat="43.257553655" lon="-3.459288829"></trkpt>
    <trkpt lat="43.257581653" lon="-3.459269628"></trkpt>
    <trkpt lat="43.25758632" lon="-3.459263721"></trkpt>
    <trkpt lat="43.257614459" lon="-3.459238991"></trkpt>
    <trkpt lat="43.257628609" lon="-3.459231993"></trkpt>
    <trkpt lat="43.257647514" lon="-3.459219019"></trkpt>
    <trkpt lat="43.257671223" lon="-3.459200022"></trkpt>
    <trkpt lat="43.257690246" lon="-3.459181499"></trkpt>
    <trkpt lat="43.257704537" lon="-3.459163476"></trkpt>
    <trkpt lat="43.257723702" lon="-3.459150296"></trkpt>
    <trkpt lat="43.257738105" lon="-3.459137646"></trkpt>
    <trkpt lat="43.257762176" lon="-3.459112839"></trkpt>
    <trkpt lat="43.257771795" lon="-3.459095208"></trkpt>
    <trkpt lat="43.25779111" lon="-3.459065349"></trkpt>
    <trkpt lat="43.257805634" lon="-3.459041512"></trkpt>
    <trkpt lat="43.25782014" lon="-3.459006597"></trkpt>
    <trkpt lat="43.257834685" lon="-3.458971591"></trkpt>
    <trkpt lat="43.257839514" lon="-3.458954385"></trkpt>
    <trkpt lat="43.257844293" lon="-3.458926124"></trkpt>
    <trkpt lat="43.257849103" lon="-3.458903361"></trkpt>
    <trkpt lat="43.257849049" lon="-3.458892317"></trkpt>
    <trkpt lat="43.257853781" lon="-3.458852955"></trkpt>
    <trkpt lat="43.257863532" lon="-3.458829424"></trkpt>
    <trkpt lat="43.257863313" lon="-3.458785188"></trkpt>
    <trkpt lat="43.257863176" lon="-3.458757541"></trkpt>
    <trkpt lat="43.257862985" lon="-3.458718835"></trkpt>
    <trkpt lat="43.257867812" lon="-3.458695943"></trkpt>
    <trkpt lat="43.257872615" lon="-3.458667496"></trkpt>
    <trkpt lat="43.257872369" lon="-3.458617688"></trkpt>
    <trkpt lat="43.257872314" lon="-3.458606619"></trkpt>
    <trkpt lat="43.257877067" lon="-3.458567048"></trkpt>
    <trkpt lat="43.257881852" lon="-3.458532981"></trkpt>
    <trkpt lat="43.257891652" lon="-3.45850911"></trkpt>
    <trkpt lat="43.257891515" lon="-3.458481391"></trkpt>
    <trkpt lat="43.257891433" lon="-3.458464759"></trkpt>
    <trkpt lat="43.257896175" lon="-3.458419511"></trkpt>
    <trkpt lat="43.257901004" lon="-3.458390869"></trkpt>
    <trkpt lat="43.257905809" lon="-3.458356651"></trkpt>
    <trkpt lat="43.257910701" lon="-3.458339064"></trkpt>
    <trkpt lat="43.257920525" lon="-3.458309402"></trkpt>
    <trkpt lat="43.257920415" lon="-3.458287169"></trkpt>
    <trkpt lat="43.257920277" lon="-3.458259377"></trkpt>
    <trkpt lat="43.257930118" lon="-3.458229619"></trkpt>
    <trkpt lat="43.257929926" lon="-3.458190677"></trkpt>
    <trkpt lat="43.257939756" lon="-3.458155265"></trkpt>
    <trkpt lat="43.257939674" lon="-3.458138561"></trkpt>
    <trkpt lat="43.257939563" lon="-3.458116288"></trkpt>
    <trkpt lat="43.257939426" lon="-3.458088448"></trkpt>
    <trkpt lat="43.257949301" lon="-3.458058489"></trkpt>
    <trkpt lat="43.257954121" lon="-3.4580184"></trkpt>
    <trkpt lat="43.257958972" lon="-3.457983854"></trkpt>
    <trkpt lat="43.257963856" lon="-3.457954858"></trkpt>
    <trkpt lat="43.257963801" lon="-3.457943697"></trkpt>
    <trkpt lat="43.257968716" lon="-3.457920254"></trkpt>
    <trkpt lat="43.257973636" lon="-3.45789679"></trkpt>
    <trkpt lat="43.257983516" lon="-3.45785539"></trkpt>
    <trkpt lat="43.257983433" lon="-3.45783862"></trkpt>
    <trkpt lat="43.257983322" lon="-3.457816259"></trkpt>
    <trkpt lat="43.257993302" lon="-3.457791537"></trkpt>
    <trkpt lat="43.257998161" lon="-3.457751173"></trkpt>
    <trkpt lat="43.25799805" lon="-3.457728783"></trkpt>
    <trkpt lat="43.258008028" lon="-3.457698349"></trkpt>
    <trkpt lat="43.258012955" lon="-3.4576691"></trkpt>
    <trkpt lat="43.258017969" lon="-3.457656646"></trkpt>
    <trkpt lat="43.258022877" lon="-3.457621743"></trkpt>
    <trkpt lat="43.258027872" lon="-3.457603646"></trkpt>
    <trkpt lat="43.258027816" lon="-3.457592421"></trkpt>
    <trkpt lat="43.258042912" lon="-3.457554878"></trkpt>
    <trkpt lat="43.258042773" lon="-3.45752678"></trkpt>
    <trkpt lat="43.258057908" lon="-3.4574891"></trkpt>
    <trkpt lat="43.258062962" lon="-3.457476518"></trkpt>
    <trkpt lat="43.258073055" lon="-3.457445685"></trkpt>
    <trkpt lat="43.258083139" lon="-3.457409158"></trkpt>
    <trkpt lat="43.258088215" lon="-3.457396513"></trkpt>
    <trkpt lat="43.258098326" lon="-3.457359894"></trkpt>
    <trkpt lat="43.25810851" lon="-3.457334514"></trkpt>
    <trkpt lat="43.258113553" lon="-3.457310498"></trkpt>
    <trkpt lat="43.258128905" lon="-3.457277957"></trkpt>
    <trkpt lat="43.258139143" lon="-3.457252437"></trkpt>
    <trkpt lat="43.258149372" lon="-3.457221198"></trkpt>
    <trkpt lat="43.258164848" lon="-3.457194116"></trkpt>
    <trkpt lat="43.258175123" lon="-3.457162756"></trkpt>
    <trkpt lat="43.258195896" lon="-3.457134039"></trkpt>
    <trkpt lat="43.258206311" lon="-3.457119641"></trkpt>
    <trkpt lat="43.258221883" lon="-3.457080873"></trkpt>
    <trkpt lat="43.258237582" lon="-3.457059147"></trkpt>
    <trkpt lat="43.258248015" lon="-3.457033189"></trkpt>
    <trkpt lat="43.258263785" lon="-3.45701135"></trkpt>
    <trkpt lat="43.258279597" lon="-3.456989452"></trkpt>
    <trkpt lat="43.25829002" lon="-3.456946113"></trkpt>
    <trkpt lat="43.258305847" lon="-3.456912579"></trkpt>
    <trkpt lat="43.258316403" lon="-3.456886336"></trkpt>
    <trkpt lat="43.258333186" lon="-3.456842282"></trkpt>
    <trkpt lat="43.258336855" lon="-3.456808494"></trkpt>
    <trkpt lat="43.258340576" lon="-3.456784435"></trkpt>
    <trkpt lat="43.258340528" lon="-3.45677468"></trkpt>
    <trkpt lat="43.258351924" lon="-3.456746327"></trkpt>
    <trkpt lat="43.258371099" lon="-3.456723388"></trkpt>
    <trkpt lat="43.258378717" lon="-3.4566995"></trkpt>
    <trkpt lat="43.258397971" lon="-3.456671504"></trkpt>
    <trkpt lat="43.258401738" lon="-3.456647243"></trkpt>
    <trkpt lat="43.258413349" lon="-3.456633307"></trkpt>
    <trkpt lat="43.258421056" lon="-3.456614164"></trkpt>
    <trkpt lat="43.258440449" lon="-3.456580957"></trkpt>
    <trkpt lat="43.258452101" lon="-3.456557026"></trkpt>
    <trkpt lat="43.258463805" lon="-3.456537976"></trkpt>
    <trkpt lat="43.25847159" lon="-3.456518663"></trkpt>
    <trkpt lat="43.258471517" lon="-3.456503838"></trkpt>
    <trkpt lat="43.258479289" lon="-3.456479538"></trkpt>
    <trkpt lat="43.258487074" lon="-3.456455201"></trkpt>
    <trkpt lat="43.258486975" lon="-3.456435403"></trkpt>
    <trkpt lat="43.258498638" lon="-3.45639137"></trkpt>
    <trkpt lat="43.258502507" lon="-3.456371712"></trkpt>
    <trkpt lat="43.258502408" lon="-3.456351884"></trkpt>
    <trkpt lat="43.258514131" lon="-3.456312647"></trkpt>
    <trkpt lat="43.258521921" lon="-3.456278161"></trkpt>
    <trkpt lat="43.258529747" lon="-3.456248591"></trkpt>
    <trkpt lat="43.25854156" lon="-3.456214102"></trkpt>
    <trkpt lat="43.258545338" lon="-3.456169399"></trkpt>
    <trkpt lat="43.258545289" lon="-3.456159442"></trkpt>
    <trkpt lat="43.258557113" lon="-3.45611981"></trkpt>
    <trkpt lat="43.258561027" lon="-3.456099931"></trkpt>
    <trkpt lat="43.258568965" lon="-3.456080085"></trkpt>
    <trkpt lat="43.258576865" lon="-3.456050221"></trkpt>
    <trkpt lat="43.258588763" lon="-3.456010336"></trkpt>
    <trkpt lat="43.258592677" lon="-3.455985349"></trkpt>
    <trkpt lat="43.258604613" lon="-3.455945325"></trkpt>
    <trkpt lat="43.258604538" lon="-3.455930302"></trkpt>
    <trkpt lat="43.258616602" lon="-3.45591022"></trkpt>
    <trkpt lat="43.258632665" lon="-3.455869979"></trkpt>
    <trkpt lat="43.25864472" lon="-3.455834687"></trkpt>
    <trkpt lat="43.258652714" lon="-3.455799373"></trkpt>
    <trkpt lat="43.258664817" lon="-3.455763928"></trkpt>
    <trkpt lat="43.258672868" lon="-3.45573353"></trkpt>
    <trkpt lat="43.258680982" lon="-3.455713174"></trkpt>
    <trkpt lat="43.258689034" lon="-3.455677637"></trkpt>
    <trkpt lat="43.258693052" lon="-3.455657322"></trkpt>
    <trkpt lat="43.258701173" lon="-3.45563181"></trkpt>
    <trkpt lat="43.258701097" lon="-3.455616644"></trkpt>
    <trkpt lat="43.258709256" lon="-3.455596138"></trkpt>
    <trkpt lat="43.258717353" lon="-3.45556041"></trkpt>
    <trkpt lat="43.258729559" lon="-3.455514315"></trkpt>
    <trkpt lat="43.258729509" lon="-3.455504176"></trkpt>
    <trkpt lat="43.258745956" lon="-3.455467916"></trkpt>
    <trkpt lat="43.258750019" lon="-3.455447403"></trkpt>
    <trkpt lat="43.258754035" lon="-3.455416712"></trkpt>
    <trkpt lat="43.258753934" lon="-3.455396386"></trkpt>
    <trkpt lat="43.258762076" lon="-3.455355255"></trkpt>
    <trkpt lat="43.258770383" lon="-3.455344597"></trkpt>
    <trkpt lat="43.258778526" lon="-3.455298265"></trkpt>
    <trkpt lat="43.258782641" lon="-3.455282716"></trkpt>
    <trkpt lat="43.258790854" lon="-3.455246479"></trkpt>
    <trkpt lat="43.258803365" lon="-3.455225203"></trkpt>
    <trkpt lat="43.258811637" lon="-3.455193957"></trkpt>
    <trkpt lat="43.258815803" lon="-3.455183428"></trkpt>
    <trkpt lat="43.25882412" lon="-3.455157227"></trkpt>
    <trkpt lat="43.258832426" lon="-3.455125864"></trkpt>
    <trkpt lat="43.258840796" lon="-3.455104699"></trkpt>
    <trkpt lat="43.258857601" lon="-3.4550674"></trkpt>
    <trkpt lat="43.258861804" lon="-3.455056773"></trkpt>
    <trkpt lat="43.258870196" lon="-3.455030354"></trkpt>
    <trkpt lat="43.258878627" lon="-3.455009035"></trkpt>
    <trkpt lat="43.258886994" lon="-3.45497224"></trkpt>
    <trkpt lat="43.258895452" lon="-3.454950839"></trkpt>
    <trkpt lat="43.258903872" lon="-3.454919093"></trkpt>
    <trkpt lat="43.25891228" lon="-3.454882136"></trkpt>
    <trkpt lat="43.258925008" lon="-3.454844668"></trkpt>
    <trkpt lat="43.258946359" lon="-3.454795824"></trkpt>
    <trkpt lat="43.258950634" lon="-3.454784995"></trkpt>
    <trkpt lat="43.258963456" lon="-3.454747272"></trkpt>
    <trkpt lat="43.258976334" lon="-3.454714647"></trkpt>
    <trkpt lat="43.25898927" lon="-3.454687141"></trkpt>
    <trkpt lat="43.258993477" lon="-3.454655424"></trkpt>
    <trkpt lat="43.258997765" lon="-3.454639288"></trkpt>
    <trkpt lat="43.259006326" lon="-3.454601769"></trkpt>
    <trkpt lat="43.259014978" lon="-3.45457982"></trkpt>
    <trkpt lat="43.259027983" lon="-3.45454683"></trkpt>
    <trkpt lat="43.2590323" lon="-3.454530596"></trkpt>
    <trkpt lat="43.259036515" lon="-3.454493464"></trkpt>
    <trkpt lat="43.259045217" lon="-3.454471363"></trkpt>
    <trkpt lat="43.259058271" lon="-3.454432912"></trkpt>
    <trkpt lat="43.259071409" lon="-3.454404843"></trkpt>
    <trkpt lat="43.259071357" lon="-3.454394366"></trkpt>
    <trkpt lat="43.259080012" lon="-3.45435114"></trkpt>
    <trkpt lat="43.259084371" lon="-3.454334745"></trkpt>
    <trkpt lat="43.259088629" lon="-3.454297349"></trkpt>
    <trkpt lat="43.259101816" lon="-3.454263777"></trkpt>
    <trkpt lat="43.259101659" lon="-3.454232256"></trkpt>
    <trkpt lat="43.259110469" lon="-3.454209803"></trkpt>
    <trkpt lat="43.259110417" lon="-3.454199287"></trkpt>
    <trkpt lat="43.259114643" lon="-3.454151223"></trkpt>
    <trkpt lat="43.259119031" lon="-3.454134691"></trkpt>
    <trkpt lat="43.259118848" lon="-3.454097856"></trkpt>
    <trkpt lat="43.259127634" lon="-3.454064721"></trkpt>
    <trkpt lat="43.259132006" lon="-3.454042864"></trkpt>
    <trkpt lat="43.259131874" lon="-3.454016521"></trkpt>
    <trkpt lat="43.259131769" lon="-3.453995446"></trkpt>
    <trkpt lat="43.259131533" lon="-3.453948028"></trkpt>
    <trkpt lat="43.259131402" lon="-3.453921684"></trkpt>
    <trkpt lat="43.259131297" lon="-3.45390061"></trkpt>
    <trkpt lat="43.259135594" lon="-3.453862863"></trkpt>
    <trkpt lat="43.259135462" lon="-3.453836509"></trkpt>
    <trkpt lat="43.259135278" lon="-3.453799613"></trkpt>
    <trkpt lat="43.259139684" lon="-3.453782901"></trkpt>
    <trkpt lat="43.259139552" lon="-3.453756536"></trkpt>
    <trkpt lat="43.259139394" lon="-3.453724898"></trkpt>
    <trkpt lat="43.259139237" lon="-3.453693259"></trkpt>
    <trkpt lat="43.259139105" lon="-3.453666894"></trkpt>
    <trkpt lat="43.259139" lon="-3.453645802"></trkpt>
    <trkpt lat="43.259138816" lon="-3.45360889"></trkpt>
    <trkpt lat="43.259138685" lon="-3.453582525"></trkpt>
    <trkpt lat="43.25913858" lon="-3.453561433"></trkpt>
    <trkpt lat="43.259138422" lon="-3.453529794"></trkpt>
    <trkpt lat="43.259138264" lon="-3.453498156"></trkpt>
    <trkpt lat="43.259138054" lon="-3.453455972"></trkpt>
    <trkpt lat="43.259137844" lon="-3.453413787"></trkpt>
    <trkpt lat="43.259133255" lon="-3.453393755"></trkpt>
    <trkpt lat="43.25913315" lon="-3.453372672"></trkpt>
    <trkpt lat="43.25912409" lon="-3.453353741"></trkpt>
    <trkpt lat="43.259119487" lon="-3.453328495"></trkpt>
    <trkpt lat="43.259114835" lon="-3.453292745"></trkpt>
    <trkpt lat="43.259105726" lon="-3.453258138"></trkpt>
    <trkpt lat="43.259105674" lon="-3.453247622"></trkpt>
    <trkpt lat="43.259092156" lon="-3.453219463"></trkpt>
    <trkpt lat="43.25908758" lon="-3.453194345"></trkpt>
    <trkpt lat="43.259074081" lon="-3.453161056"></trkpt>
    <trkpt lat="43.259069571" lon="-3.453146484"></trkpt>
    <trkpt lat="43.259056143" lon="-3.453118542"></trkpt>
    <trkpt lat="43.259047209" lon="-3.453099953"></trkpt>
    <trkpt lat="43.259047105" lon="-3.453079034"></trkpt>
    <trkpt lat="43.259038134" lon="-3.453050041"></trkpt>
    <trkpt lat="43.259029203" lon="-3.453026317"></trkpt>
    <trkpt lat="43.2590159" lon="-3.453003841"></trkpt>
    <trkpt lat="43.259007006" lon="-3.452980203"></trkpt>
    <trkpt lat="43.259002474" lon="-3.45295017"></trkpt>
    <trkpt lat="43.258993576" lon="-3.452921401"></trkpt>
    <trkpt lat="43.258993446" lon="-3.45289538"></trkpt>
    <trkpt lat="43.25897585" lon="-3.4528692"></trkpt>
    <trkpt lat="43.258967073" lon="-3.452856141"></trkpt>
    <trkpt lat="43.258949484" lon="-3.45281454"></trkpt>
    <trkpt lat="43.258940673" lon="-3.452786021"></trkpt>
    <trkpt lat="43.25894057" lon="-3.452765307"></trkpt>
    <trkpt lat="43.258927457" lon="-3.452738159"></trkpt>
    <trkpt lat="43.258923041" lon="-3.452718784"></trkpt>
    <trkpt lat="43.258914324" lon="-3.452700745"></trkpt>
    <trkpt lat="43.258901224" lon="-3.452663422"></trkpt>
    <trkpt lat="43.25889249" lon="-3.452635153"></trkpt>
    <trkpt lat="43.258888104" lon="-3.452615882"></trkpt>
    <trkpt lat="43.258879417" lon="-3.452592836"></trkpt>
    <trkpt lat="43.258875015" lon="-3.452568458"></trkpt>
    <trkpt lat="43.25886201" lon="-3.452531431"></trkpt>
    <trkpt lat="43.258857596" lon="-3.452501978"></trkpt>
    <trkpt lat="43.258844735" lon="-3.452485622"></trkpt>
    <trkpt lat="43.258836119" lon="-3.452462774"></trkpt>
    <trkpt lat="43.258831778" lon="-3.452443673"></trkpt>
    <trkpt lat="43.258818953" lon="-3.452422307"></trkpt>
    <trkpt lat="43.258814703" lon="-3.452418608"></trkpt>
    <trkpt lat="43.258810379" lon="-3.452399564"></trkpt>
    <trkpt lat="43.258793423" lon="-3.452384836"></trkpt>
    <trkpt lat="43.258784813" lon="-3.452346866"></trkpt>
    <trkpt lat="43.258780589" lon="-3.45234321"></trkpt>
    <trkpt lat="43.258772" lon="-3.452305318"></trkpt>
    <trkpt lat="43.258759268" lon="-3.452274054"></trkpt>
    <trkpt lat="43.258759192" lon="-3.452258779"></trkpt>
    <trkpt lat="43.258750662" lon="-3.452226118"></trkpt>
    <trkpt lat="43.25874644" lon="-3.452217436"></trkpt>
    <trkpt lat="43.258737931" lon="-3.452184848"></trkpt>
    <trkpt lat="43.258733694" lon="-3.452171113"></trkpt>
    <trkpt lat="43.258725204" lon="-3.452138601"></trkpt>
    <trkpt lat="43.258716754" lon="-3.452111212"></trkpt>
    <trkpt lat="43.258712483" lon="-3.452087395"></trkpt>
    <trkpt lat="43.258708241" lon="-3.452068664"></trkpt>
    <trkpt lat="43.25870814" lon="-3.452048394"></trkpt>
    <trkpt lat="43.258707963" lon="-3.452012922"></trkpt>
    <trkpt lat="43.258707862" lon="-3.451992653"></trkpt>
    <trkpt lat="43.258707837" lon="-3.451987585"></trkpt>
    <trkpt lat="43.258684914" lon="-3.45192846"></trkpt>
    <trkpt lat="43.258684793" lon="-3.451904314"></trkpt>
    <trkpt lat="43.258684721" lon="-3.451889826"></trkpt>
    <trkpt lat="43.258680833" lon="-3.451865302"></trkpt>
    <trkpt lat="43.258680688" lon="-3.451836338"></trkpt>
    <trkpt lat="43.258680591" lon="-3.451817029"></trkpt>
    <trkpt lat="43.25868047" lon="-3.451792892"></trkpt>
    <trkpt lat="43.258680373" lon="-3.451773582"></trkpt>
    <trkpt lat="43.258680325" lon="-3.451763927"></trkpt>
    <trkpt lat="43.258680083" lon="-3.451715654"></trkpt>
    <trkpt lat="43.258679962" lon="-3.451691517"></trkpt>
    <trkpt lat="43.258679769" lon="-3.451652898"></trkpt>
    <trkpt lat="43.258679648" lon="-3.451628761"></trkpt>
    <trkpt lat="43.258679478" lon="-3.451594969"></trkpt>
    <trkpt lat="43.258679309" lon="-3.451561178"></trkpt>
    <trkpt lat="43.258679188" lon="-3.451537041"></trkpt>
    <trkpt lat="43.258679067" lon="-3.451512904"></trkpt>
    <trkpt lat="43.258678922" lon="-3.45148394"></trkpt>
    <trkpt lat="43.258675014" lon="-3.451454754"></trkpt>
    <trkpt lat="43.258674893" lon="-3.451430627"></trkpt>
    <trkpt lat="43.258674796" lon="-3.451411325"></trkpt>
    <trkpt lat="43.258674675" lon="-3.451387197"></trkpt>
    <trkpt lat="43.258674506" lon="-3.451353418"></trkpt>
    <trkpt lat="43.258674433" lon="-3.451338942"></trkpt>
    <trkpt lat="43.258674312" lon="-3.451314814"></trkpt>
    <trkpt lat="43.258674216" lon="-3.451295512"></trkpt>
    <trkpt lat="43.258670383" lon="-3.45128088"></trkpt>
    <trkpt lat="43.258666457" lon="-3.451246972"></trkpt>
    <trkpt lat="43.258662558" lon="-3.451217909"></trkpt>
    <trkpt lat="43.258662365" lon="-3.451179349"></trkpt>
    <trkpt lat="43.258654745" lon="-3.451155033"></trkpt>
    <trkpt lat="43.258647112" lon="-3.451125942"></trkpt>
    <trkpt lat="43.258643276" lon="-3.451106601"></trkpt>
    <trkpt lat="43.258631978" lon="-3.451087112"></trkpt>
    <trkpt lat="43.258624404" lon="-3.451062939"></trkpt>
    <trkpt lat="43.258613124" lon="-3.45103874"></trkpt>
    <trkpt lat="43.258605627" lon="-3.451024235"></trkpt>
    <trkpt lat="43.25860175" lon="-3.45099064"></trkpt>
    <trkpt lat="43.258601654" lon="-3.450971476"></trkpt>
    <trkpt lat="43.258594149" lon="-3.45095225"></trkpt>
    <trkpt lat="43.258586608" lon="-3.450923486"></trkpt>
    <trkpt lat="43.258579126" lon="-3.450904325"></trkpt>
    <trkpt lat="43.258579006" lon="-3.450880424"></trkpt>
    <trkpt lat="43.258578886" lon="-3.450856524"></trkpt>
    <trkpt lat="43.258578814" lon="-3.450842183"></trkpt>
    <trkpt lat="43.25859718" lon="-3.450818184"></trkpt>
    <trkpt lat="43.258608208" lon="-3.450798947"></trkpt>
    <trkpt lat="43.258619237" lon="-3.450774866"></trkpt>
    <trkpt lat="43.258626611" lon="-3.450760383"></trkpt>
    <trkpt lat="43.25863773" lon="-3.450745831"></trkpt>
    <trkpt lat="43.258648826" lon="-3.450721617"></trkpt>
    <trkpt lat="43.258663725" lon="-3.450702105"></trkpt>
    <trkpt lat="43.25867488" lon="-3.450677777"></trkpt>
    <trkpt lat="43.25868229" lon="-3.450653476"></trkpt>
    <trkpt lat="43.258685963" lon="-3.450634062"></trkpt>
    <trkpt lat="43.25869712" lon="-3.450599925"></trkpt>
    <trkpt lat="43.258697071" lon="-3.450590248"></trkpt>
    <trkpt lat="43.258696974" lon="-3.450570895"></trkpt>
    <trkpt lat="43.25869678" lon="-3.450532188"></trkpt>
    <trkpt lat="43.258696659" lon="-3.450507997"></trkpt>
    <trkpt lat="43.258696489" lon="-3.450474129"></trkpt>
    <trkpt lat="43.258696367" lon="-3.450449937"></trkpt>
    <trkpt lat="43.25869627" lon="-3.450430584"></trkpt>
    <trkpt lat="43.258696076" lon="-3.450391878"></trkpt>
    <trkpt lat="43.258696003" lon="-3.450377363"></trkpt>
    <trkpt lat="43.258695858" lon="-3.450348333"></trkpt>
    <trkpt lat="43.258695663" lon="-3.450309627"></trkpt>
    <trkpt lat="43.258695591" lon="-3.450295112"></trkpt>
    <trkpt lat="43.258695421" lon="-3.450261244"></trkpt>
    <trkpt lat="43.258695299" lon="-3.450237053"></trkpt>
    <trkpt lat="43.258695178" lon="-3.450212861"></trkpt>
    <trkpt lat="43.258695008" lon="-3.450178993"></trkpt>
    <trkpt lat="43.258694813" lon="-3.450140287"></trkpt>
    <trkpt lat="43.258690745" lon="-3.450082527"></trkpt>
    <trkpt lat="43.258690623" lon="-3.450058345"></trkpt>
    <trkpt lat="43.258686776" lon="-3.45004415"></trkpt>
    <trkpt lat="43.258682859" lon="-3.450015467"></trkpt>
    <trkpt lat="43.258678993" lon="-3.449996467"></trkpt>
    <trkpt lat="43.258671367" lon="-3.449977821"></trkpt>
    <trkpt lat="43.25867127" lon="-3.449958512"></trkpt>
    <trkpt lat="43.258671149" lon="-3.449934376"></trkpt>
    <trkpt lat="43.258670979" lon="-3.449900585"></trkpt>
    <trkpt lat="43.258670882" lon="-3.449881276"></trkpt>
    <trkpt lat="43.258670858" lon="-3.449876448"></trkpt>
    <trkpt lat="43.258670761" lon="-3.449857139"></trkpt>
    <trkpt lat="43.258670616" lon="-3.449828176"></trkpt>
    <trkpt lat="43.258666735" lon="-3.449804444"></trkpt>
    <trkpt lat="43.258666589" lon="-3.449775491"></trkpt>
    <trkpt lat="43.258662687" lon="-3.449746964"></trkpt>
    <trkpt lat="43.258662445" lon="-3.449698728"></trkpt>
    <trkpt lat="43.258662251" lon="-3.449660139"></trkpt>
    <trkpt lat="43.25866213" lon="-3.449636022"></trkpt>
    <trkpt lat="43.258662082" lon="-3.449626374"></trkpt>
    <trkpt lat="43.258665669" lon="-3.449592125"></trkpt>
    <trkpt lat="43.258669307" lon="-3.449567504"></trkpt>
    <trkpt lat="43.258676592" lon="-3.449518206"></trkpt>
    <trkpt lat="43.258680311" lon="-3.449508027"></trkpt>
    <trkpt lat="43.25869151" lon="-3.449482283"></trkpt>
    <trkpt lat="43.258702759" lon="-3.449461323"></trkpt>
    <trkpt lat="43.258714033" lon="-3.449440316"></trkpt>
    <trkpt lat="43.258721556" lon="-3.449424667"></trkpt>
    <trkpt lat="43.25873666" lon="-3.449398157"></trkpt>
    <trkpt lat="43.258748012" lon="-3.449377005"></trkpt>
    <trkpt lat="43.258759415" lon="-3.449360676"></trkpt>
    <trkpt lat="43.258774684" lon="-3.449343725"></trkpt>
    <trkpt lat="43.258786148" lon="-3.449327314"></trkpt>
    <trkpt lat="43.258801475" lon="-3.449305373"></trkpt>
    <trkpt lat="43.258820724" lon="-3.449282754"></trkpt>
    <trkpt lat="43.258828385" lon="-3.449261909"></trkpt>
    <trkpt lat="43.258843866" lon="-3.449244688"></trkpt>
    <trkpt lat="43.258855466" lon="-3.449223129"></trkpt>
    <trkpt lat="43.258867117" lon="-3.449206445"></trkpt>
    <trkpt lat="43.258882693" lon="-3.449184139"></trkpt>
    <trkpt lat="43.258894358" lon="-3.449157488"></trkpt>
    <trkpt lat="43.258906074" lon="-3.449135719"></trkpt>
    <trkpt lat="43.258913867" lon="-3.449114582"></trkpt>
    <trkpt lat="43.258921697" lon="-3.449098363"></trkpt>
    <trkpt lat="43.258933453" lon="-3.449071508"></trkpt>
    <trkpt lat="43.258933403" lon="-3.449061595"></trkpt>
    <trkpt lat="43.258941214" lon="-3.449035381"></trkpt>
    <trkpt lat="43.258953015" lon="-3.449008401"></trkpt>
    <trkpt lat="43.258956897" lon="-3.4489878"></trkpt>
    <trkpt lat="43.258968785" lon="-3.44897067"></trkpt>
    <trkpt lat="43.258976676" lon="-3.448949271"></trkpt>
    <trkpt lat="43.258980551" lon="-3.448923619"></trkpt>
    <trkpt lat="43.258980425" lon="-3.448898718"></trkpt>
    <trkpt lat="43.258984378" lon="-3.448887982"></trkpt>
    <trkpt lat="43.258988184" lon="-3.448847333"></trkpt>
    <trkpt lat="43.258988034" lon="-3.448817429"></trkpt>
    <trkpt lat="43.258991943" lon="-3.448796681"></trkpt>
    <trkpt lat="43.25899583" lon="-3.448770928"></trkpt>
    <trkpt lat="43.25899573" lon="-3.448750976"></trkpt>
    <trkpt lat="43.259003638" lon="-3.448724355"></trkpt>
    <trkpt lat="43.259003538" lon="-3.448704387"></trkpt>
    <trkpt lat="43.259015512" lon="-3.448681845"></trkpt>
    <trkpt lat="43.259015411" lon="-3.448661854"></trkpt>
    <trkpt lat="43.259019291" lon="-3.448630988"></trkpt>
    <trkpt lat="43.2590232" lon="-3.4486051"></trkpt>
    <trkpt lat="43.259031152" lon="-3.44857829"></trkpt>
    <trkpt lat="43.259039141" lon="-3.448556448"></trkpt>
    <trkpt lat="43.259047118" lon="-3.448529558"></trkpt>
    <trkpt lat="43.259059195" lon="-3.448506712"></trkpt>
    <trkpt lat="43.25906316" lon="-3.448485694"></trkpt>
    <trkpt lat="43.259071251" lon="-3.44847376"></trkpt>
    <trkpt lat="43.25908336" lon="-3.448445762"></trkpt>
    <trkpt lat="43.259091406" lon="-3.448418667"></trkpt>
    <trkpt lat="43.259095422" lon="-3.448402585"></trkpt>
    <trkpt lat="43.259111642" lon="-3.448363356"></trkpt>
    <trkpt lat="43.259123822" lon="-3.448330064"></trkpt>
    <trkpt lat="43.259136082" lon="-3.448306808"></trkpt>
    <trkpt lat="43.259144237" lon="-3.448284524"></trkpt>
    <trkpt lat="43.259156546" lon="-3.448261166"></trkpt>
    <trkpt lat="43.259164708" lon="-3.448233731"></trkpt>
    <trkpt lat="43.259177091" lon="-3.448215343"></trkpt>
    <trkpt lat="43.259185312" lon="-3.448192898"></trkpt>
    <trkpt lat="43.259189376" lon="-3.448171494"></trkpt>
    <trkpt lat="43.259201742" lon="-3.448137719"></trkpt>
    <trkpt lat="43.259209951" lon="-3.44810497"></trkpt>
    <trkpt lat="43.259218224" lon="-3.448082364"></trkpt>
    <trkpt lat="43.259226537" lon="-3.448064823"></trkpt>
    <trkpt lat="43.259238992" lon="-3.448030798"></trkpt>
    <trkpt lat="43.259251502" lon="-3.448001805"></trkpt>
    <trkpt lat="43.259255671" lon="-3.447990419"></trkpt>
    <trkpt lat="43.259268196" lon="-3.447956208"></trkpt>
    <trkpt lat="43.259280829" lon="-3.4479373"></trkpt>
    <trkpt lat="43.259289242" lon="-3.447919537"></trkpt>
    <trkpt lat="43.25931045" lon="-3.447898147"></trkpt>
    <trkpt lat="43.259327463" lon="-3.447877882"></trkpt>
    <trkpt lat="43.2593488" lon="-3.447851168"></trkpt>
    <trkpt lat="43.259366016" lon="-3.447846263"></trkpt>
    <trkpt lat="43.259391918" lon="-3.447833694"></trkpt>
    <trkpt lat="43.259409274" lon="-3.447828741"></trkpt>
    <trkpt lat="43.259435415" lon="-3.447821281"></trkpt>
    <trkpt lat="43.259457296" lon="-3.447815036"></trkpt>
    <trkpt lat="43.259479268" lon="-3.447808766"></trkpt>
    <trkpt lat="43.25950578" lon="-3.447806446"></trkpt>
    <trkpt lat="43.259532475" lon="-3.447814617"></trkpt>
    <trkpt lat="43.25954586" lon="-3.447816089"></trkpt>
    <trkpt lat="43.259563722" lon="-3.447811035"></trkpt>
    <trkpt lat="43.259586185" lon="-3.447815249"></trkpt>
    <trkpt lat="43.259608716" lon="-3.447814192"></trkpt>
    <trkpt lat="43.259635871" lon="-3.447811857"></trkpt>
    <trkpt lat="43.259654032" lon="-3.447806754"></trkpt>
    <trkpt lat="43.259676819" lon="-3.447800351"></trkpt>
    <trkpt lat="43.259704289" lon="-3.447792632"></trkpt>
    <trkpt lat="43.25972268" lon="-3.447787465"></trkpt>
    <trkpt lat="43.259741024" lon="-3.447760868"></trkpt>
    <trkpt lat="43.259764096" lon="-3.447738225"></trkpt>
    <trkpt lat="43.259778007" lon="-3.447728889"></trkpt>
    <trkpt lat="43.259801234" lon="-3.447706102"></trkpt>
    <trkpt lat="43.259819871" lon="-3.447684567"></trkpt>
    <trkpt lat="43.259843249" lon="-3.447656195"></trkpt>
    <trkpt lat="43.25986211" lon="-3.44765073"></trkpt>
    <trkpt lat="43.259890495" lon="-3.447637071"></trkpt>
    <trkpt lat="43.259914256" lon="-3.447624728"></trkpt>
    <trkpt lat="43.259933359" lon="-3.447619174"></trkpt>
    <trkpt lat="43.259957331" lon="-3.447612204"></trkpt>
    <trkpt lat="43.259971791" lon="-3.447613473"></trkpt>
    <trkpt lat="43.259991175" lon="-3.447624295"></trkpt>
    <trkpt lat="43.260010625" lon="-3.447635155"></trkpt>
    <trkpt lat="43.260030115" lon="-3.447640558"></trkpt>
    <trkpt lat="43.260049645" lon="-3.447640477"></trkpt>
    <trkpt lat="43.260074146" lon="-3.447638996"></trkpt>
    <trkpt lat="43.260098725" lon="-3.447631981"></trkpt>
    <trkpt lat="43.260123411" lon="-3.447624936"></trkpt>
    <trkpt lat="43.260143209" lon="-3.447613729"></trkpt>
    <trkpt lat="43.260153148" lon="-3.447610888"></trkpt>
    <trkpt lat="43.260183041" lon="-3.447596765"></trkpt>
    <trkpt lat="43.260218121" lon="-3.447581126"></trkpt>
    <trkpt lat="43.260238279" lon="-3.447575344"></trkpt>
    <trkpt lat="43.26026865" lon="-3.447566631"></trkpt>
    <trkpt lat="43.260294081" lon="-3.447559336"></trkpt>
    <trkpt lat="43.260314508" lon="-3.447553477"></trkpt>
    <trkpt lat="43.260355635" lon="-3.447553"></trkpt>
    <trkpt lat="43.260381481" lon="-3.447551284"></trkpt>
    <trkpt lat="43.260386687" lon="-3.447555474"></trkpt>
    <trkpt lat="43.260417905" lon="-3.447557961"></trkpt>
    <trkpt lat="43.26044932" lon="-3.44756616"></trkpt>
    <trkpt lat="43.260480875" lon="-3.447568689"></trkpt>
    <trkpt lat="43.260501997" lon="-3.447568475"></trkpt>
    <trkpt lat="43.260523195" lon="-3.44756826"></trkpt>
    <trkpt lat="43.260549821" lon="-3.447572301"></trkpt>
    <trkpt lat="43.260571192" lon="-3.447572092"></trkpt>
    <trkpt lat="43.26059264" lon="-3.447571882"></trkpt>
    <trkpt lat="43.260624914" lon="-3.447562891"></trkpt>
    <trkpt lat="43.260651944" lon="-3.447555362"></trkpt>
    <trkpt lat="43.260679098" lon="-3.447547797"></trkpt>
    <trkpt lat="43.260706404" lon="-3.447546022"></trkpt>
    <trkpt lat="43.260728346" lon="-3.447545762"></trkpt>
    <trkpt lat="43.260750339" lon="-3.447539657"></trkpt>
    <trkpt lat="43.260777943" lon="-3.447531994"></trkpt>
    <trkpt lat="43.260800148" lon="-3.447531707"></trkpt>
    <trkpt lat="43.260827983" lon="-3.447523993"></trkpt>
    <trkpt lat="43.260850373" lon="-3.44752369"></trkpt>
    <trkpt lat="43.26087847" lon="-3.447521833"></trkpt>
    <trkpt lat="43.260901047" lon="-3.447521524"></trkpt>
    <trkpt lat="43.260923768" lon="-3.447533072"></trkpt>
    <trkpt lat="43.260940887" lon="-3.447546214"></trkpt>
    <trkpt lat="43.260963728" lon="-3.447551898"></trkpt>
    <trkpt lat="43.260969466" lon="-3.447556297"></trkpt>
    <trkpt lat="43.260998592" lon="-3.447604972"></trkpt>
    <trkpt lat="43.261009913" lon="-3.447618787"></trkpt>
    <trkpt lat="43.261021259" lon="-3.447632633"></trkpt>
    <trkpt lat="43.261028862" lon="-3.447646712"></trkpt>
    <trkpt lat="43.26104403" lon="-3.44766042"></trkpt>
    <trkpt lat="43.261059244" lon="-3.447674169"></trkpt>
    <trkpt lat="43.261074505" lon="-3.447687961"></trkpt>
    <trkpt lat="43.261085999" lon="-3.447701976"></trkpt>
    <trkpt lat="43.26111678" lon="-3.447739507"></trkpt>
    <trkpt lat="43.261132191" lon="-3.447748597"></trkpt>
    <trkpt lat="43.261151535" lon="-3.447762444"></trkpt>
    <trkpt lat="43.261174806" lon="-3.447771287"></trkpt>
    <trkpt lat="43.261178712" lon="-3.447776034"></trkpt>
    <trkpt lat="43.261198235" lon="-3.447789998"></trkpt>
    <trkpt lat="43.261221747" lon="-3.447803871"></trkpt>
    <trkpt lat="43.261241436" lon="-3.447817948"></trkpt>
    <trkpt lat="43.261261178" lon="-3.447827136"></trkpt>
    <trkpt lat="43.261277061" lon="-3.447841445"></trkpt>
    <trkpt lat="43.261292993" lon="-3.447855797"></trkpt>
    <trkpt lat="43.26131296" lon="-3.447870075"></trkpt>
    <trkpt lat="43.261337084" lon="-3.447899235"></trkpt>
    <trkpt lat="43.261353229" lon="-3.447918751"></trkpt>
    <trkpt lat="43.261365371" lon="-3.447933428"></trkpt>
    <trkpt lat="43.26138158" lon="-3.447948049"></trkpt>
    <trkpt lat="43.26139784" lon="-3.447962717"></trkpt>
    <trkpt lat="43.261410088" lon="-3.447977509"></trkpt>
    <trkpt lat="43.26143054" lon="-3.447997216"></trkpt>
    <trkpt lat="43.261446954" lon="-3.448012031"></trkpt>
    <trkpt lat="43.261455194" lon="-3.448021975"></trkpt>
    <trkpt lat="43.261480016" lon="-3.44805695"></trkpt>
    <trkpt lat="43.261492434" lon="-3.448066917"></trkpt>
    <trkpt lat="43.261496588" lon="-3.44807193"></trkpt>
    <trkpt lat="43.261513314" lon="-3.448107221"></trkpt>
    <trkpt lat="43.261525887" lon="-3.448132495"></trkpt>
    <trkpt lat="43.26153844" lon="-3.448147674"></trkpt>
    <trkpt lat="43.26154685" lon="-3.448162895"></trkpt>
    <trkpt lat="43.261555377" lon="-3.448198484"></trkpt>
    <trkpt lat="43.261572291" lon="-3.448234175"></trkpt>
    <trkpt lat="43.261580832" lon="-3.448264809"></trkpt>
    <trkpt lat="43.261593568" lon="-3.448290434"></trkpt>
    <trkpt lat="43.261597905" lon="-3.448316011"></trkpt>
    <trkpt lat="43.261597983" lon="-3.44833133"></trkpt>
    <trkpt lat="43.261606488" lon="-3.448346784"></trkpt>
    <trkpt lat="43.26161081" lon="-3.448367301"></trkpt>
    <trkpt lat="43.261619414" lon="-3.448398153"></trkpt>
    <trkpt lat="43.261628109" lon="-3.448444416"></trkpt>
    <trkpt lat="43.261628212" lon="-3.448464899"></trkpt>
    <trkpt lat="43.261636869" lon="-3.448501003"></trkpt>
    <trkpt lat="43.261636998" lon="-3.448526627"></trkpt>
    <trkpt lat="43.261645592" lon="-3.448547424"></trkpt>
    <trkpt lat="43.261649972" lon="-3.448573228"></trkpt>
    <trkpt lat="43.261650023" lon="-3.44858349"></trkpt>
    <trkpt lat="43.261650127" lon="-3.448604014"></trkpt>
    <trkpt lat="43.261650282" lon="-3.4486348"></trkpt>
    <trkpt lat="43.261650463" lon="-3.448670717"></trkpt>
    <trkpt lat="43.261650722" lon="-3.448722028"></trkpt>
    <trkpt lat="43.261650799" lon="-3.448737421"></trkpt>
    <trkpt lat="43.261650903" lon="-3.448757945"></trkpt>
    <trkpt lat="43.261651032" lon="-3.4487836"></trkpt>
    <trkpt lat="43.261646885" lon="-3.448803872"></trkpt>
    <trkpt lat="43.26164287" lon="-3.448849762"></trkpt>
    <trkpt lat="43.261642921" lon="-3.448860016"></trkpt>
    <trkpt lat="43.261634669" lon="-3.448905572"></trkpt>
    <trkpt lat="43.261630535" lon="-3.448925763"></trkpt>
    <trkpt lat="43.26163069" lon="-3.448956487"></trkpt>
    <trkpt lat="43.261626559" lon="-3.448976649"></trkpt>
    <trkpt lat="43.261622483" lon="-3.449007028"></trkpt>
    <trkpt lat="43.261618384" lon="-3.449032267"></trkpt>
    <trkpt lat="43.261610069" lon="-3.449057134"></trkpt>
    <trkpt lat="43.261605954" lon="-3.449077215"></trkpt>
    <trkpt lat="43.261601817" lon="-3.449092173"></trkpt>
    <trkpt lat="43.261597735" lon="-3.449117329"></trkpt>
    <trkpt lat="43.261593682" lon="-3.449147566"></trkpt>
    <trkpt lat="43.261589658" lon="-3.449182879"></trkpt>
    <trkpt lat="43.261585535" lon="-3.449197772"></trkpt>
    <trkpt lat="43.261581414" lon="-3.449212652"></trkpt>
    <trkpt lat="43.261581517" lon="-3.449233037"></trkpt>
    <trkpt lat="43.261581697" lon="-3.44926871"></trkpt>
    <trkpt lat="43.261573466" lon="-3.44929839"></trkpt>
    <trkpt lat="43.261569381" lon="-3.449318302"></trkpt>
    <trkpt lat="43.261565376" lon="-3.449353463"></trkpt>
    <trkpt lat="43.261561298" lon="-3.449373337"></trkpt>
    <trkpt lat="43.261561349" lon="-3.449383509"></trkpt>
    <trkpt lat="43.26155735" lon="-3.449418616"></trkpt>
    <trkpt lat="43.261553278" lon="-3.449438448"></trkpt>
    <trkpt lat="43.261545144" lon="-3.449478066"></trkpt>
    <trkpt lat="43.261545247" lon="-3.449498378"></trkpt>
    <trkpt lat="43.261541261" lon="-3.449533382"></trkpt>
    <trkpt lat="43.261541389" lon="-3.449558762"></trkpt>
    <trkpt lat="43.261541491" lon="-3.449579065"></trkpt>
    <trkpt lat="43.261541619" lon="-3.449604445"></trkpt>
    <trkpt lat="43.261541747" lon="-3.449629824"></trkpt>
    <trkpt lat="43.261541874" lon="-3.449655204"></trkpt>
    <trkpt lat="43.261542053" lon="-3.449690735"></trkpt>
    <trkpt lat="43.26154213" lon="-3.449705963"></trkpt>
    <trkpt lat="43.261542335" lon="-3.44974657"></trkpt>
    <trkpt lat="43.26154236" lon="-3.449751646"></trkpt>
    <trkpt lat="43.261542513" lon="-3.449782101"></trkpt>
    <trkpt lat="43.261542667" lon="-3.449812557"></trkpt>
    <trkpt lat="43.261546985" lon="-3.449843676"></trkpt>
    <trkpt lat="43.261547062" lon="-3.44985891"></trkpt>
    <trkpt lat="43.261559809" lon="-3.44990668"></trkpt>
    <trkpt lat="43.261560013" lon="-3.449947352"></trkpt>
    <trkpt lat="43.261560167" lon="-3.449977856"></trkpt>
    <trkpt lat="43.26156032" lon="-3.45000836"></trkpt>
    <trkpt lat="43.261568887" lon="-3.450050528"></trkpt>
    <trkpt lat="43.261568989" lon="-3.45007088"></trkpt>
    <trkpt lat="43.261573226" lon="-3.450081818"></trkpt>
    <trkpt lat="43.261577569" lon="-3.450113132"></trkpt>
    <trkpt lat="43.261581839" lon="-3.450129189"></trkpt>
    <trkpt lat="43.26159049" lon="-3.450181735"></trkpt>
    <trkpt lat="43.261599002" lon="-3.45020375"></trkpt>
    <trkpt lat="43.261607579" lon="-3.450236014"></trkpt>
    <trkpt lat="43.261607707" lon="-3.450261546"></trkpt>
    <trkpt lat="43.261612026" lon="-3.450282816"></trkpt>
    <trkpt lat="43.261624876" lon="-3.450321156"></trkpt>
    <trkpt lat="43.261629235" lon="-3.450347601"></trkpt>
    <trkpt lat="43.261633546" lon="-3.45036383"></trkpt>
    <trkpt lat="43.26164223" lon="-3.450406572"></trkpt>
    <trkpt lat="43.261650824" lon="-3.450428876"></trkpt>
    <trkpt lat="43.261655152" lon="-3.45044517"></trkpt>
    <trkpt lat="43.261663819" lon="-3.450477798"></trkpt>
    <trkpt lat="43.261663949" lon="-3.450503464"></trkpt>
    <trkpt lat="43.261668365" lon="-3.450535214"></trkpt>
    <trkpt lat="43.261677053" lon="-3.450567954"></trkpt>
    <trkpt lat="43.261681428" lon="-3.450589486"></trkpt>
    <trkpt lat="43.261678321" lon="-3.450757248"></trkpt>
    <trkpt lat="43.26168231" lon="-3.450776877"></trkpt>
    <trkpt lat="43.261682408" lon="-3.450796515"></trkpt>
    <trkpt lat="43.261686376" lon="-3.450811255"></trkpt>
    <trkpt lat="43.261690395" lon="-3.450835832"></trkpt>
    <trkpt lat="43.26169837" lon="-3.450870294"></trkpt>
    <trkpt lat="43.261706284" lon="-3.450890046"></trkpt>
    <trkpt lat="43.261714283" lon="-3.450924602"></trkpt>
    <trkpt lat="43.261722221" lon="-3.450944427"></trkpt>
    <trkpt lat="43.261726244" lon="-3.450964212"></trkpt>
    <trkpt lat="43.261738183" lon="-3.450994041"></trkpt>
    <trkpt lat="43.261746307" lon="-3.451043605"></trkpt>
    <trkpt lat="43.261758317" lon="-3.451078531"></trkpt>
    <trkpt lat="43.261770306" lon="-3.451103635"></trkpt>
    <trkpt lat="43.26177843" lon="-3.451143528"></trkpt>
    <trkpt lat="43.261790515" lon="-3.45117868"></trkpt>
    <trkpt lat="43.261798646" lon="-3.451213744"></trkpt>
    <trkpt lat="43.26180679" lon="-3.451248864"></trkpt>
    <trkpt lat="43.261814896" lon="-3.451274093"></trkpt>
    <trkpt lat="43.261826992" lon="-3.451294585"></trkpt>
    <trkpt lat="43.261847123" lon="-3.451310556"></trkpt>
    <trkpt lat="43.261859395" lon="-3.451351132"></trkpt>
    <trkpt lat="43.261871595" lon="-3.451371804"></trkpt>
    <trkpt lat="43.261879778" lon="-3.451392284"></trkpt>
    <trkpt lat="43.261891977" lon="-3.451403025"></trkpt>
    <trkpt lat="43.261904304" lon="-3.451433855"></trkpt>
    <trkpt lat="43.261924815" lon="-3.451465298"></trkpt>
    <trkpt lat="43.261928921" lon="-3.451470596"></trkpt>
    <trkpt lat="43.261949529" lon="-3.451502185"></trkpt>
    <trkpt lat="43.261966028" lon="-3.451518465"></trkpt>
    <trkpt lat="43.261974336" lon="-3.451534199"></trkpt>
    <trkpt lat="43.261995098" lon="-3.451560994"></trkpt>
    <trkpt lat="43.262020123" lon="-3.451593288"></trkpt>
    <trkpt lat="43.262032654" lon="-3.451604415"></trkpt>
    <trkpt lat="43.262045292" lon="-3.451630821"></trkpt>
    <trkpt lat="43.262070506" lon="-3.451653246"></trkpt>
    <trkpt lat="43.262083184" lon="-3.451669601"></trkpt>
    <trkpt lat="43.262091653" lon="-3.451680527"></trkpt>
    <trkpt lat="43.26212135" lon="-3.451708662"></trkpt>
    <trkpt lat="43.262138373" lon="-3.451720415"></trkpt>
    <trkpt lat="43.262159768" lon="-3.451742867"></trkpt>
    <trkpt lat="43.262172636" lon="-3.451754325"></trkpt>
    <trkpt lat="43.262143134" lon="-3.451822784"></trkpt>
    <trkpt lat="43.262134769" lon="-3.451848827"></trkpt>
    <trkpt lat="43.26213482" lon="-3.451859081"></trkpt>
    <trkpt lat="43.262126545" lon="-3.451900442"></trkpt>
    <trkpt lat="43.262118284" lon="-3.451941736"></trkpt>
    <trkpt lat="43.262118489" lon="-3.451982685"></trkpt>
    <trkpt lat="43.26211444" lon="-3.452018641"></trkpt>
    <trkpt lat="43.262110369" lon="-3.452049453"></trkpt>
    <trkpt lat="43.262110446" lon="-3.452064796"></trkpt>
    <trkpt lat="43.262106377" lon="-3.452095578"></trkpt>
    <trkpt lat="43.262106531" lon="-3.452126253"></trkpt>
    <trkpt lat="43.262102671" lon="-3.45219788"></trkpt>
    <trkpt lat="43.262098558" lon="-3.452218367"></trkpt>
    <trkpt lat="43.26209455" lon="-3.452259262"></trkpt>
    <trkpt lat="43.262090393" lon="-3.452269499"></trkpt>
    <trkpt lat="43.262086392" lon="-3.452310341"></trkpt>
    <trkpt lat="43.262086469" lon="-3.452325648"></trkpt>
    <trkpt lat="43.262078196" lon="-3.452351142"></trkpt>
    <trkpt lat="43.262078349" lon="-3.452381731"></trkpt>
    <trkpt lat="43.262074332" lon="-3.452417383"></trkpt>
    <trkpt lat="43.262070369" lon="-3.452463195"></trkpt>
    <trkpt lat="43.262062173" lon="-3.452498719"></trkpt>
    <trkpt lat="43.26205822" lon="-3.452544443"></trkpt>
    <trkpt lat="43.262058271" lon="-3.452554619"></trkpt>
    <trkpt lat="43.262054271" lon="-3.452590131"></trkpt>
    <trkpt lat="43.262054372" lon="-3.452610475"></trkpt>
    <trkpt lat="43.262054551" lon="-3.452646077"></trkpt>
    <trkpt lat="43.262054652" lon="-3.452666421"></trkpt>
    <trkpt lat="43.26205068" lon="-3.452706958"></trkpt>
    <trkpt lat="43.262050807" lon="-3.452732377"></trkpt>
    <trkpt lat="43.262046762" lon="-3.452757626"></trkpt>
    <trkpt lat="43.262046838" lon="-3.452772872"></trkpt>
    <trkpt lat="43.26204277" lon="-3.452793015"></trkpt>
    <trkpt lat="43.262034645" lon="-3.452833252"></trkpt>
    <trkpt lat="43.262030637" lon="-3.452863495"></trkpt>
    <trkpt lat="43.262026608" lon="-3.452888641"></trkpt>
    <trkpt lat="43.262022556" lon="-3.452908698"></trkpt>
    <trkpt lat="43.262018533" lon="-3.452933806"></trkpt>
    <trkpt lat="43.262006281" lon="-3.452968518"></trkpt>
    <trkpt lat="43.262002195" lon="-3.452978384"></trkpt>
    <trkpt lat="43.261994083" lon="-3.453008203"></trkpt>
    <trkpt lat="43.261985958" lon="-3.453032924"></trkpt>
    <trkpt lat="43.261981888" lon="-3.453042744"></trkpt>
    <trkpt lat="43.261977897" lon="-3.4530677"></trkpt>
    <trkpt lat="43.261969773" lon="-3.45308729"></trkpt>
    <trkpt lat="43.261965817" lon="-3.453117241"></trkpt>
    <trkpt lat="43.261957713" lon="-3.453136768"></trkpt>
    <trkpt lat="43.261949671" lon="-3.453166333"></trkpt>
    <trkpt lat="43.261941642" lon="-3.453195851"></trkpt>
    <trkpt lat="43.261925497" lon="-3.453229637"></trkpt>
    <trkpt lat="43.261917506" lon="-3.453259035"></trkpt>
    <trkpt lat="43.261905418" lon="-3.453277986"></trkpt>
    <trkpt lat="43.261905544" lon="-3.453303046"></trkpt>
    <trkpt lat="43.261897534" lon="-3.453322312"></trkpt>
    <trkpt lat="43.261893584" lon="-3.453341946"></trkpt>
    <trkpt lat="43.261877615" lon="-3.453380343"></trkpt>
    <trkpt lat="43.261865671" lon="-3.453409061"></trkpt>
    <trkpt lat="43.261861721" lon="-3.453423609"></trkpt>
    <trkpt lat="43.261853806" lon="-3.453447685"></trkpt>
    <trkpt lat="43.261841918" lon="-3.453476257"></trkpt>
    <trkpt lat="43.261822092" lon="-3.453508815"></trkpt>
    <trkpt lat="43.261822142" lon="-3.453518757"></trkpt>
    <trkpt lat="43.261806372" lon="-3.453551645"></trkpt>
    <trkpt lat="43.261794545" lon="-3.453570047"></trkpt>
    <trkpt lat="43.26179065" lon="-3.453584431"></trkpt>
    <trkpt lat="43.261786833" lon="-3.453613664"></trkpt>
    <trkpt lat="43.261775126" lon="-3.453646801"></trkpt>
    <trkpt lat="43.261767419" lon="-3.45368533"></trkpt>
    <trkpt lat="43.261763768" lon="-3.453744107"></trkpt>
    <trkpt lat="43.261752116" lon="-3.453777016"></trkpt>
    <trkpt lat="43.261748278" lon="-3.453796192"></trkpt>
    <trkpt lat="43.261744494" lon="-3.453825219"></trkpt>
    <trkpt lat="43.261736736" lon="-3.453843775"></trkpt>
    <trkpt lat="43.261732886" lon="-3.45385797"></trkpt>
    <trkpt lat="43.261721256" lon="-3.453880803"></trkpt>
    <trkpt lat="43.261709825" lon="-3.45393799"></trkpt>
    <trkpt lat="43.261702194" lon="-3.45397113"></trkpt>
    <trkpt lat="43.26169066" lon="-3.453998668"></trkpt>
    <trkpt lat="43.261679128" lon="-3.454021242"></trkpt>
    <trkpt lat="43.261667647" lon="-3.454048658"></trkpt>
    <trkpt lat="43.261656242" lon="-3.454085789"></trkpt>
    <trkpt lat="43.261652576" lon="-3.454124212"></trkpt>
    <trkpt lat="43.261648839" lon="-3.454147949"></trkpt>
    <trkpt lat="43.261641229" lon="-3.45416608"></trkpt>
    <trkpt lat="43.261637477" lon="-3.454184895"></trkpt>
    <trkpt lat="43.261629957" lon="-3.454217605"></trkpt>
    <trkpt lat="43.261626238" lon="-3.454241252"></trkpt>
    <trkpt lat="43.261618687" lon="-3.45426414"></trkpt>
    <trkpt lat="43.26161505" lon="-3.454302347"></trkpt>
    <trkpt lat="43.261611318" lon="-3.454321059"></trkpt>
    <trkpt lat="43.261603887" lon="-3.454363303"></trkpt>
    <trkpt lat="43.261603959" lon="-3.454377892"></trkpt>
    <trkpt lat="43.261592628" lon="-3.454399834"></trkpt>
    <trkpt lat="43.261588985" lon="-3.454433032"></trkpt>
    <trkpt lat="43.261585322" lon="-3.454461351"></trkpt>
    <trkpt lat="43.261574372" lon="-3.454551028"></trkpt>
    <trkpt lat="43.261563084" lon="-3.454567864"></trkpt>
    <trkpt lat="43.261555702" lon="-3.454604873"></trkpt>
    <trkpt lat="43.26155575" lon="-3.454614551"></trkpt>
    <trkpt lat="43.261552063" lon="-3.454633031"></trkpt>
    <trkpt lat="43.261548403" lon="-3.454656331"></trkpt>
    <trkpt lat="43.2615485" lon="-3.454675672"></trkpt>
    <trkpt lat="43.261544819" lon="-3.454694115"></trkpt>
    <trkpt lat="43.261537392" lon="-3.454716469"></trkpt>
    <trkpt lat="43.261533695" lon="-3.454730048"></trkpt>
    <trkpt lat="43.261533864" lon="-3.454763842"></trkpt>
    <trkpt lat="43.26152643" lon="-3.454781294"></trkpt>
    <trkpt lat="43.261515372" lon="-3.454821879"></trkpt>
    <trkpt lat="43.261504244" lon="-3.454843119"></trkpt>
    <trkpt lat="43.26150434" lon="-3.454862372"></trkpt>
    <trkpt lat="43.261489573" lon="-3.454896996"></trkpt>
    <trkpt lat="43.261482278" lon="-3.454928676"></trkpt>
    <trkpt lat="43.261463861" lon="-3.454962131"></trkpt>
    <trkpt lat="43.261456604" lon="-3.454993678"></trkpt>
    <trkpt lat="43.261445609" lon="-3.455014597"></trkpt>
    <trkpt lat="43.261438356" lon="-3.455041265"></trkpt>
    <trkpt lat="43.261431066" lon="-3.455058339"></trkpt>
    <trkpt lat="43.261420104" lon="-3.455074359"></trkpt>
    <trkpt lat="43.261409167" lon="-3.455090342"></trkpt>
    <trkpt lat="43.261390977" lon="-3.45511373"></trkpt>
    <trkpt lat="43.261376479" lon="-3.455133328"></trkpt>
    <trkpt lat="43.261365615" lon="-3.455144429"></trkpt>
    <trkpt lat="43.261362047" lon="-3.45515761"></trkpt>
    <trkpt lat="43.261344056" lon="-3.455185495"></trkpt>
    <trkpt lat="43.26133686" lon="-3.455192835"></trkpt>
    <trkpt lat="43.261326155" lon="-3.455218001"></trkpt>
    <trkpt lat="43.261319009" lon="-3.455230026"></trkpt>
    <trkpt lat="43.261301131" lon="-3.455248226"></trkpt>
    <trkpt lat="43.261290529" lon="-3.455277946"></trkpt>
    <trkpt lat="43.261272733" lon="-3.455291304"></trkpt>
    <trkpt lat="43.261255095" lon="-3.455323376"></trkpt>
    <trkpt lat="43.261237429" lon="-3.455336602"></trkpt>
    <trkpt lat="43.26123039" lon="-3.45534375"></trkpt>
    <trkpt lat="43.261226898" lon="-3.455351997"></trkpt>
    <trkpt lat="43.261205789" lon="-3.455359352"></trkpt>
    <trkpt lat="43.261195281" lon="-3.455365348"></trkpt>
    <trkpt lat="43.261181337" lon="-3.455379529"></trkpt>
    <trkpt lat="43.26116394" lon="-3.455392551"></trkpt>
    <trkpt lat="43.261157032" lon="-3.455404246"></trkpt>
    <trkpt lat="43.26114313" lon="-3.455404405"></trkpt>
    <trkpt lat="43.261118951" lon="-3.455415087"></trkpt>
    <trkpt lat="43.261105183" lon="-3.455419847"></trkpt>
    <trkpt lat="43.261101781" lon="-3.455427959"></trkpt>
    <trkpt lat="43.261077788" lon="-3.45543393"></trkpt>
    <trkpt lat="43.261057352" lon="-3.455445588"></trkpt>
    <trkpt lat="43.261043785" lon="-3.455454861"></trkpt>
    <trkpt lat="43.261040405" lon="-3.455458322"></trkpt>
    <trkpt lat="43.260995612" lon="-3.455491767"></trkpt>
    <trkpt lat="43.260973307" lon="-3.455511942"></trkpt>
    <trkpt lat="43.26096001" lon="-3.455532417"></trkpt>
    <trkpt lat="43.260946746" lon="-3.455552841"></trkpt>
    <trkpt lat="43.26092905" lon="-3.455567766"></trkpt>
    <trkpt lat="43.260911413" lon="-3.455582642"></trkpt>
    <trkpt lat="43.260893833" lon="-3.455597469"></trkpt>
    <trkpt lat="43.260885078" lon="-3.455607474"></trkpt>
    <trkpt lat="43.260863279" lon="-3.455637624"></trkpt>
    <trkpt lat="43.2608502" lon="-3.455647331"></trkpt>
    <trkpt lat="43.260832873" lon="-3.455672355"></trkpt>
    <trkpt lat="43.260815576" lon="-3.455692113"></trkpt>
    <trkpt lat="43.260794008" lon="-3.455711545"></trkpt>
    <trkpt lat="43.260776812" lon="-3.455726"></trkpt>
    <trkpt lat="43.260759748" lon="-3.455755883"></trkpt>
    <trkpt lat="43.260742663" lon="-3.45577022"></trkpt>
    <trkpt lat="43.260729904" lon="-3.4557848"></trkpt>
    <trkpt lat="43.260712941" lon="-3.455804185"></trkpt>
    <trkpt lat="43.260691839" lon="-3.455833453"></trkpt>
    <trkpt lat="43.260687623" lon="-3.455838268"></trkpt>
    <trkpt lat="43.260675049" lon="-3.455862923"></trkpt>
    <trkpt lat="43.260658262" lon="-3.455882081"></trkpt>
    <trkpt lat="43.260645732" lon="-3.455901512"></trkpt>
    <trkpt lat="43.260629064" lon="-3.455925649"></trkpt>
    <trkpt lat="43.26061663" lon="-3.455950062"></trkpt>
    <trkpt lat="43.260608349" lon="-3.455964609"></trkpt>
    <trkpt lat="43.260587691" lon="-3.45599834"></trkpt>
    <trkpt lat="43.260567064" lon="-3.456021809"></trkpt>
    <trkpt lat="43.260554778" lon="-3.456045962"></trkpt>
    <trkpt lat="43.260521998" lon="-3.456078157"></trkpt>
    <trkpt lat="43.260509794" lon="-3.456097101"></trkpt>
    <trkpt lat="43.260497593" lon="-3.456110972"></trkpt>
    <trkpt lat="43.260477373" lon="-3.456144055"></trkpt>
    <trkpt lat="43.260457183" lon="-3.456166988"></trkpt>
    <trkpt lat="43.260429074" lon="-3.45620394"></trkpt>
    <trkpt lat="43.260413092" lon="-3.456227102"></trkpt>
    <trkpt lat="43.260393203" lon="-3.456259687"></trkpt>
    <trkpt lat="43.260381277" lon="-3.45627321"></trkpt>
    <trkpt lat="43.260357534" lon="-3.456305121"></trkpt>
    <trkpt lat="43.26034175" lon="-3.45632301"></trkpt>
    <trkpt lat="43.26032604" lon="-3.45634579"></trkpt>
    <trkpt lat="43.26030644" lon="-3.456367994"></trkpt>
    <trkpt lat="43.260294717" lon="-3.456381276"></trkpt>
    <trkpt lat="43.26028302" lon="-3.456394527"></trkpt>
    <trkpt lat="43.260263636" lon="-3.456426373"></trkpt>
    <trkpt lat="43.260244301" lon="-3.456453191"></trkpt>
    <trkpt lat="43.260228868" lon="-3.456470653"></trkpt>
    <trkpt lat="43.260217397" lon="-3.456498392"></trkpt>
    <trkpt lat="43.260209837" lon="-3.456531515"></trkpt>
    <trkpt lat="43.260194582" lon="-3.45656344"></trkpt>
    <trkpt lat="43.260186985" lon="-3.456581805"></trkpt>
    <trkpt lat="43.260175634" lon="-3.456614171"></trkpt>
    <trkpt lat="43.260156613" lon="-3.456635533"></trkpt>
    <trkpt lat="43.260152818" lon="-3.456639795"></trkpt>
    <trkpt lat="43.260133932" lon="-3.456670762"></trkpt>
    <trkpt lat="43.260126403" lon="-3.456684086"></trkpt>
    <trkpt lat="43.260115118" lon="-3.456701611"></trkpt>
    <trkpt lat="43.260107666" lon="-3.456724563"></trkpt>
    <trkpt lat="43.260100248" lon="-3.456752315"></trkpt>
    <trkpt lat="43.260085375" lon="-3.456793209"></trkpt>
    <trkpt lat="43.260081658" lon="-3.456802207"></trkpt>
    <trkpt lat="43.260074256" lon="-3.456825005"></trkpt>
    <trkpt lat="43.260059438" lon="-3.456860866"></trkpt>
    <trkpt lat="43.260052046" lon="-3.456878757"></trkpt>
    <trkpt lat="43.260037319" lon="-3.45691926"></trkpt>
    <trkpt lat="43.260026285" lon="-3.456945958"></trkpt>
    <trkpt lat="43.260026332" lon="-3.456955555"></trkpt>
    <trkpt lat="43.260011611" lon="-3.456981463"></trkpt>
    <trkpt lat="43.260000635" lon="-3.457008021"></trkpt>
    <trkpt lat="43.259982372" lon="-3.457047375"></trkpt>
    <trkpt lat="43.259978733" lon="-3.457056183"></trkpt>
    <trkpt lat="43.259971462" lon="-3.45707378"></trkpt>
    <trkpt lat="43.259953238" lon="-3.457098605"></trkpt>
    <trkpt lat="43.259938712" lon="-3.45711935"></trkpt>
    <trkpt lat="43.259924253" lon="-3.457144781"></trkpt>
    <trkpt lat="43.259902575" lon="-3.457168573"></trkpt>
    <trkpt lat="43.259891748" lon="-3.457175696"></trkpt>
    <trkpt lat="43.259881017" lon="-3.457196985"></trkpt>
    <trkpt lat="43.259873914" lon="-3.457219025"></trkpt>
    <trkpt lat="43.25985246" lon="-3.457242528"></trkpt>
    <trkpt lat="43.259845307" lon="-3.45724563"></trkpt>
    <trkpt lat="43.259838234" lon="-3.457262846"></trkpt>
    <trkpt lat="43.259816961" lon="-3.457290861"></trkpt>
    <trkpt lat="43.259809953" lon="-3.457312685"></trkpt>
    <trkpt lat="43.259788782" lon="-3.457335826"></trkpt>
    <trkpt lat="43.259778208" lon="-3.457342682"></trkpt>
    <trkpt lat="43.259771327" lon="-3.457378401"></trkpt>
    <trkpt lat="43.259753843" lon="-3.457402159"></trkpt>
    <trkpt lat="43.259750372" lon="-3.457410631"></trkpt>
    <trkpt lat="43.259732988" lon="-3.457438933"></trkpt>
    <trkpt lat="43.259719112" lon="-3.457458711"></trkpt>
    <trkpt lat="43.259701819" lon="-3.457482193"></trkpt>
    <trkpt lat="43.259691505" lon="-3.45750273"></trkpt>
    <trkpt lat="43.259674358" lon="-3.457535316"></trkpt>
    <trkpt lat="43.259664058" lon="-3.457546493"></trkpt>
    <trkpt lat="43.259653781" lon="-3.457557646"></trkpt>
    <trkpt lat="43.25962991" lon="-3.457588179"></trkpt>
    <trkpt lat="43.259626529" lon="-3.457596474"></trkpt>
    <trkpt lat="43.25960616" lon="-3.457618559"></trkpt>
    <trkpt lat="43.259585878" lon="-3.457640548"></trkpt>
    <trkpt lat="43.259565661" lon="-3.45765787"></trkpt>
    <trkpt lat="43.259552201" lon="-3.457663289"></trkpt>
    <trkpt lat="43.259535464" lon="-3.457676877"></trkpt>
    <trkpt lat="43.259512165" lon="-3.457702184"></trkpt>
    <trkpt lat="43.259498903" lon="-3.457716588"></trkpt>
    <trkpt lat="43.259485657" lon="-3.457726418"></trkpt>
    <trkpt lat="43.25946918" lon="-3.457744323"></trkpt>
    <trkpt lat="43.259456062" lon="-3.457763121"></trkpt>
    <trkpt lat="43.259436423" lon="-3.457784453"></trkpt>
    <trkpt lat="43.25943318" lon="-3.457792508"></trkpt>
    <trkpt lat="43.25941357" lon="-3.457800229"></trkpt>
    <trkpt lat="43.259397348" lon="-3.457817865"></trkpt>
    <trkpt lat="43.259371467" lon="-3.457836998"></trkpt>
    <trkpt lat="43.259368247" lon="-3.457840501"></trkpt>
    <trkpt lat="43.259355393" lon="-3.457854489"></trkpt>
    <trkpt lat="43.259342574" lon="-3.457868438"></trkpt>
    <trkpt lat="43.259329791" lon="-3.457882347"></trkpt>
    <trkpt lat="43.259310683" lon="-3.457903139"></trkpt>
    <trkpt lat="43.259294843" lon="-3.457924839"></trkpt>
    <trkpt lat="43.259282171" lon="-3.457934163"></trkpt>
    <trkpt lat="43.259266431" lon="-3.457955742"></trkpt>
    <trkpt lat="43.259253925" lon="-3.457982676"></trkpt>
    <trkpt lat="43.259244542" lon="-3.457997308"></trkpt>
    <trkpt lat="43.259232054" lon="-3.458015299"></trkpt>
    <trkpt lat="43.259222759" lon="-3.458038672"></trkpt>
    <trkpt lat="43.259216596" lon="-3.458058629"></trkpt>
    <trkpt lat="43.259213528" lon="-3.458070798"></trkpt>
    <trkpt lat="43.259204228" lon="-3.458085272"></trkpt>
    <trkpt lat="43.259201147" lon="-3.45809302"></trkpt>
    <trkpt lat="43.259192429" lon="-3.45818997"></trkpt>
    <trkpt lat="43.259187952" lon="-3.458216703"></trkpt>
    <trkpt lat="43.259174278" lon="-3.458243415"></trkpt>
    <trkpt lat="43.259169842" lon="-3.458275414"></trkpt>
    <trkpt lat="43.259160823" lon="-3.458307359"></trkpt>
    <trkpt lat="43.25914727" lon="-3.458344535"></trkpt>
    <trkpt lat="43.259138341" lon="-3.458386991"></trkpt>
    <trkpt lat="43.259129322" lon="-3.458408125"></trkpt>
    <trkpt lat="43.259120344" lon="-3.458434532"></trkpt>
    <trkpt lat="43.259115926" lon="-3.458460984"></trkpt>
    <trkpt lat="43.25910246" lon="-3.458492514"></trkpt>
    <trkpt lat="43.259088948" lon="-3.458508086"></trkpt>
    <trkpt lat="43.259089" lon="-3.458518672"></trkpt>
    <trkpt lat="43.259080115" lon="-3.458550177"></trkpt>
    <trkpt lat="43.259053236" lon="-3.458581075"></trkpt>
    <trkpt lat="43.259035391" lon="-3.458601589"></trkpt>
    <trkpt lat="43.259017657" lon="-3.45863255"></trkpt>
    <trkpt lat="43.258999903" lon="-3.458647662"></trkpt>
    <trkpt lat="43.258977826" lon="-3.458673029"></trkpt>
    <trkpt lat="43.258955865" lon="-3.458703521"></trkpt>
    <trkpt lat="43.258934045" lon="-3.458744321"></trkpt>
    <trkpt lat="43.258916618" lon="-3.458769549"></trkpt>
    <trkpt lat="43.258903591" lon="-3.458789717"></trkpt>
    <trkpt lat="43.258881934" lon="-3.458819759"></trkpt>
    <trkpt lat="43.258869043" lon="-3.45885017"></trkpt>
    <trkpt lat="43.258851828" lon="-3.458875072"></trkpt>
    <trkpt lat="43.258834643" lon="-3.458894725"></trkpt>
    <trkpt lat="43.258817539" lon="-3.458919474"></trkpt>
    <trkpt lat="43.258809072" lon="-3.458944708"></trkpt>
    <trkpt lat="43.258791974" lon="-3.458953874"></trkpt>
    <trkpt lat="43.25877511" lon="-3.458998985"></trkpt>
    <trkpt lat="43.258753973" lon="-3.459028242"></trkpt>
    <trkpt lat="43.258728715" lon="-3.459062173"></trkpt>
    <trkpt lat="43.258711978" lon="-3.459091514"></trkpt>
    <trkpt lat="43.258695244" lon="-3.45911056"></trkpt>
    <trkpt lat="43.258686948" lon="-3.459130252"></trkpt>
    <trkpt lat="43.258661937" lon="-3.459148471"></trkpt>
    <trkpt lat="43.258653718" lon="-3.45917315"></trkpt>
    <trkpt lat="43.25862065" lon="-3.459205647"></trkpt>
    <trkpt lat="43.25861656" lon="-3.459215389"></trkpt>
    <trkpt lat="43.25860013" lon="-3.459234065"></trkpt>
    <trkpt lat="43.258579641" lon="-3.459252283"></trkpt>
    <trkpt lat="43.258559208" lon="-3.459265396"></trkpt>
    <trkpt lat="43.25853478" lon="-3.459278051"></trkpt>
    <trkpt lat="43.258522671" lon="-3.459296894"></trkpt>
    <trkpt lat="43.258498391" lon="-3.459304426"></trkpt>
    <trkpt lat="43.258486318" lon="-3.459313176"></trkpt>
    <trkpt lat="43.258458218" lon="-3.459325207"></trkpt>
    <trkpt lat="43.258454255" lon="-3.459334749"></trkpt>
    <trkpt lat="43.258426306" lon="-3.459341715"></trkpt>
    <trkpt lat="43.258402477" lon="-3.459349071"></trkpt>
    <trkpt lat="43.258366894" lon="-3.459350162"></trkpt>
    <trkpt lat="43.258351196" lon="-3.459358317"></trkpt>
    <trkpt lat="43.258331631" lon="-3.459366013"></trkpt>
    <trkpt lat="43.258308218" lon="-3.459368334"></trkpt>
    <trkpt lat="43.258300478" lon="-3.459377285"></trkpt>
    <trkpt lat="43.258281108" lon="-3.459384906"></trkpt>
    <trkpt lat="43.258254095" lon="-3.459391619"></trkpt>
    <trkpt lat="43.258231064" lon="-3.459398737"></trkpt>
    <trkpt lat="43.258211911" lon="-3.459396537"></trkpt>
    <trkpt lat="43.258196666" lon="-3.45939964"></trkpt>
    <trkpt lat="43.258173897" lon="-3.459406699"></trkpt>
    <trkpt lat="43.258166338" lon="-3.459410658"></trkpt>
    <trkpt lat="43.258143683" lon="-3.45941284"></trkpt>
    <trkpt lat="43.258113676" lon="-3.459423761"></trkpt>
    <trkpt lat="43.258095017" lon="-3.459431153"></trkpt>
    <trkpt lat="43.258061593" lon="-3.459441516"></trkpt>
    <trkpt lat="43.258039412" lon="-3.459443605"></trkpt>
    <trkpt lat="43.258021032" lon="-3.459450905"></trkpt>
    <trkpt lat="43.257988107" lon="-3.459461124"></trkpt>
    <trkpt lat="43.257962619" lon="-3.4594627"></trkpt>
    <trkpt lat="43.257944502" lon="-3.459465174"></trkpt>
    <trkpt lat="43.257930037" lon="-3.459463365"></trkpt>
    <trkpt lat="43.257904851" lon="-3.459464926"></trkpt>
    <trkpt lat="43.257876247" lon="-3.45947073"></trkpt>
    <trkpt lat="43.257854892" lon="-3.459472715"></trkpt>
    <trkpt lat="43.257833632" lon="-3.459474692"></trkpt>
    <trkpt lat="43.257819495" lon="-3.459472889"></trkpt>
    <trkpt lat="43.257798367" lon="-3.459470195"></trkpt>
    <trkpt lat="43.257780878" lon="-3.459477268"></trkpt>
    <trkpt lat="43.257766895" lon="-3.459475471"></trkpt>
    <trkpt lat="43.257752977" lon="-3.459478321"></trkpt>
    <trkpt lat="43.257721801" lon="-3.459483546"></trkpt>
    <trkpt lat="43.257690807" lon="-3.459484126"></trkpt>
    <trkpt lat="43.257680512" lon="-3.459482783"></trkpt>
    <trkpt lat="43.257659991" lon="-3.459480107"></trkpt>
    <trkpt lat="43.257642957" lon="-3.459477885"></trkpt>
    <trkpt lat="43.257629374" lon="-3.459476113"></trkpt>
    <trkpt lat="43.257605698" lon="-3.459473025"></trkpt>
    <trkpt lat="43.257578785" lon="-3.459469515"></trkpt>
    <trkpt lat="43.257565386" lon="-3.459467768"></trkpt>
    <trkpt lat="43.2575354" lon="-3.459468389"></trkpt>
    <trkpt lat="43.257518834" lon="-3.459470744"></trkpt>
    <trkpt lat="43.257502305" lon="-3.459468573"></trkpt>
    <trkpt lat="43.257485879" lon="-3.45947543"></trkpt>
    <trkpt lat="43.257472766" lon="-3.459478196"></trkpt>
    <trkpt lat="43.257459669" lon="-3.459476456"></trkpt>
    <trkpt lat="43.257443371" lon="-3.459478778"></trkpt>
    <trkpt lat="43.257423907" lon="-3.459485139"></trkpt>
    <trkpt lat="43.257411013" lon="-3.459496822"></trkpt>
    <trkpt lat="43.257398112" lon="-3.459499535"></trkpt>
    <trkpt lat="43.257382074" lon="-3.459510722"></trkpt>
    <trkpt lat="43.257372527" lon="-3.459527218"></trkpt>
    <trkpt lat="43.257359777" lon="-3.459538777"></trkpt>
    <trkpt lat="43.25735347" lon="-3.45955566"></trkpt>
    <trkpt lat="43.257343983" lon="-3.459572057"></trkpt>
    <trkpt lat="43.257337742" lon="-3.459597765"></trkpt>
    <trkpt lat="43.257331488" lon="-3.459619002"></trkpt>
    <trkpt lat="43.257325265" lon="-3.459644641"></trkpt>
    <trkpt lat="43.257319094" lon="-3.459679104"></trkpt>
    <trkpt lat="43.257316099" lon="-3.459714028"></trkpt>
    <trkpt lat="43.257312997" lon="-3.459726797"></trkpt>
    <trkpt lat="43.257303682" lon="-3.459760629"></trkpt>
    <trkpt lat="43.257300632" lon="-3.459782204"></trkpt>
    <trkpt lat="43.257291342" lon="-3.459815931"></trkpt>
    <trkpt lat="43.257275765" lon="-3.459844071"></trkpt>
    <trkpt lat="43.257272669" lon="-3.459852331"></trkpt>
    <trkpt lat="43.257263329" lon="-3.459863871"></trkpt>
    <trkpt lat="43.257251014" lon="-3.4599012"></trkpt>
    <trkpt lat="43.257241719" lon="-3.459912662"></trkpt>
    <trkpt lat="43.257238712" lon="-3.459934036"></trkpt>
    <trkpt lat="43.257220235" lon="-3.459965598"></trkpt>
    <trkpt lat="43.257220257" lon="-3.459969979"></trkpt>
    <trkpt lat="43.257214186" lon="-3.45999506"></trkpt>
    <trkpt lat="43.257201899" lon="-3.460010145"></trkpt>
    <trkpt lat="43.257195832" lon="-3.460030779"></trkpt>
    <trkpt lat="43.257189753" lon="-3.460047018"></trkpt>
    <trkpt lat="43.257180627" lon="-3.460066974"></trkpt>
    <trkpt lat="43.257171499" lon="-3.460082532"></trkpt>
    <trkpt lat="43.257165452" lon="-3.460098691"></trkpt>
    <trkpt lat="43.257159457" lon="-3.46012353"></trkpt>
    <trkpt lat="43.257153384" lon="-3.460130944"></trkpt>
    <trkpt lat="43.257108323" lon="-3.460321398"></trkpt>
    <trkpt lat="43.257096947" lon="-3.460350658"></trkpt>
    <trkpt lat="43.257093209" lon="-3.460370139"></trkpt>
    <trkpt lat="43.257085694" lon="-3.460399322"></trkpt>
    <trkpt lat="43.25708194" lon="-3.460413897"></trkpt>
    <trkpt lat="43.257070625" lon="-3.460442973"></trkpt>
    <trkpt lat="43.257059288" lon="-3.460462273"></trkpt>
    <trkpt lat="43.257051752" lon="-3.460476733"></trkpt>
    <trkpt lat="43.257044228" lon="-3.46049117"></trkpt>
    <trkpt lat="43.25704053" lon="-3.460510494"></trkpt>
    <trkpt lat="43.257036834" lon="-3.460529804"></trkpt>
    <trkpt lat="43.257018114" lon="-3.460568117"></trkpt>
    <trkpt lat="43.257006897" lon="-3.460587173"></trkpt>
    <trkpt lat="43.257007016" lon="-3.460611318"></trkpt>
    <trkpt lat="43.256999679" lon="-3.460649714"></trkpt>
    <trkpt lat="43.256996038" lon="-3.460673714"></trkpt>
    <trkpt lat="43.25698867" lon="-3.46070238"></trkpt>
    <trkpt lat="43.256977662" lon="-3.460750112"></trkpt>
    <trkpt lat="43.256974062" lon="-3.460778832"></trkpt>
    <trkpt lat="43.256970559" lon="-3.460826774"></trkpt>
    <trkpt lat="43.256970773" lon="-3.460870071"></trkpt>
    <trkpt lat="43.256970891" lon="-3.460894125"></trkpt>
    <trkpt lat="43.256970986" lon="-3.460913368"></trkpt>
    <trkpt lat="43.256971152" lon="-3.460947044"></trkpt>
    <trkpt lat="43.256971318" lon="-3.46098072"></trkpt>
    <trkpt lat="43.256971389" lon="-3.460995152"></trkpt>
    <trkpt lat="43.256982738" lon="-3.461019978"></trkpt>
    <trkpt lat="43.256990357" lon="-3.461044594"></trkpt>
    <trkpt lat="43.256990405" lon="-3.461054233"></trkpt>
    <trkpt lat="43.256998036" lon="-3.461078893"></trkpt>
    <trkpt lat="43.257005702" lon="-3.461108418"></trkpt>
    <trkpt lat="43.257009635" lon="-3.461142513"></trkpt>
    <trkpt lat="43.257013547" lon="-3.461171804"></trkpt>
    <trkpt lat="43.257017462" lon="-3.461201117"></trkpt>
    <trkpt lat="43.257017557" lon="-3.461220447"></trkpt>
    <trkpt lat="43.25702138" lon="-3.461230451"></trkpt>
    <trkpt lat="43.257021546" lon="-3.461264294"></trkpt>
    <trkpt lat="43.25702542" lon="-3.461283991"></trkpt>
    <trkpt lat="43.257025563" lon="-3.461313009"></trkpt>
    <trkpt lat="43.257025729" lon="-3.461346864"></trkpt>
    <trkpt lat="43.257025801" lon="-3.461361374"></trkpt>
    <trkpt lat="43.257026111" lon="-3.461424247"></trkpt>
    <trkpt lat="43.257026301" lon="-3.461462939"></trkpt>
    <trkpt lat="43.257022666" lon="-3.461491519"></trkpt>
    <trkpt lat="43.257018986" lon="-3.461510413"></trkpt>
    <trkpt lat="43.257015261" lon="-3.46151963"></trkpt>
    <trkpt lat="43.257004079" lon="-3.461542415"></trkpt>
    <trkpt lat="43.25700046" lon="-3.461570901"></trkpt>
    <trkpt lat="43.256993089" lon="-3.461598888"></trkpt>
    <trkpt lat="43.256981957" lon="-3.461621531"></trkpt>
    <trkpt lat="43.256974566" lon="-3.461639805"></trkpt>
    <trkpt lat="43.256974637" lon="-3.461654238"></trkpt>
    <trkpt lat="43.256956137" lon="-3.46168537"></trkpt>
    <trkpt lat="43.256941444" lon="-3.461721698"></trkpt>
    <trkpt lat="43.256930429" lon="-3.461744083"></trkpt>
    <trkpt lat="43.256923139" lon="-3.461766955"></trkpt>
    <trkpt lat="43.256912119" lon="-3.461779687"></trkpt>
    <trkpt lat="43.256908522" lon="-3.46179826"></trkpt>
    <trkpt lat="43.256886642" lon="-3.46183789"></trkpt>
    <trkpt lat="43.256872087" lon="-3.46185945"></trkpt>
    <trkpt lat="43.256853971" lon="-3.461889874"></trkpt>
    <trkpt lat="43.256850347" lon="-3.461894045"></trkpt>
    <trkpt lat="43.2568359" lon="-3.461915442"></trkpt>
    <trkpt lat="43.256828727" lon="-3.461933225"></trkpt>
    <trkpt lat="43.256814368" lon="-3.461959248"></trkpt>
    <trkpt lat="43.256810796" lon="-3.461968107"></trkpt>
    <trkpt lat="43.256792839" lon="-3.461983973"></trkpt>
    <trkpt lat="43.256782156" lon="-3.462005727"></trkpt>
    <trkpt lat="43.256767865" lon="-3.462017389"></trkpt>
    <trkpt lat="43.256760793" lon="-3.462034972"></trkpt>
    <trkpt lat="43.256746589" lon="-3.462051265"></trkpt>
    <trkpt lat="43.256736032" lon="-3.462077534"></trkpt>
    <trkpt lat="43.256718397" lon="-3.462102446"></trkpt>
    <trkpt lat="43.256711421" lon="-3.462124558"></trkpt>
    <trkpt lat="43.256693876" lon="-3.46214932"></trkpt>
    <trkpt lat="43.256693922" lon="-3.462158666"></trkpt>
    <trkpt lat="43.256679983" lon="-3.462188663"></trkpt>
    <trkpt lat="43.25667304" lon="-3.46220596"></trkpt>
    <trkpt lat="43.256666199" lon="-3.462241869"></trkpt>
    <trkpt lat="43.256659299" lon="-3.462263758"></trkpt>
    <trkpt lat="43.256652456" lon="-3.46229492"></trkpt>
    <trkpt lat="43.256652524" lon="-3.462308878"></trkpt>
    <trkpt lat="43.256652753" lon="-3.462355405"></trkpt>
    <trkpt lat="43.256645919" lon="-3.462386478"></trkpt>
    <trkpt lat="43.256645965" lon="-3.462395777"></trkpt>
    <trkpt lat="43.256646079" lon="-3.462419023"></trkpt>
    <trkpt lat="43.256646239" lon="-3.462451569"></trkpt>
    <trkpt lat="43.256646354" lon="-3.462474815"></trkpt>
    <trkpt lat="43.256646491" lon="-3.462502711"></trkpt>
    <trkpt lat="43.256646628" lon="-3.462530608"></trkpt>
    <trkpt lat="43.256646811" lon="-3.462567802"></trkpt>
    <trkpt lat="43.25664688" lon="-3.462581751"></trkpt>
    <trkpt lat="43.256646994" lon="-3.462604997"></trkpt>
    <trkpt lat="43.256647086" lon="-3.462623595"></trkpt>
    <trkpt lat="43.256647223" lon="-3.462651491"></trkpt>
    <trkpt lat="43.256654332" lon="-3.462676445"></trkpt>
    <trkpt lat="43.256654401" lon="-3.462690403"></trkpt>
    <trkpt lat="43.256665073" lon="-3.462725589"></trkpt>
    <trkpt lat="43.256672301" lon="-3.462769288"></trkpt>
    <trkpt lat="43.256686535" lon="-3.46280553"></trkpt>
    <trkpt lat="43.256693656" lon="-3.462821355"></trkpt>
    <trkpt lat="43.256704369" lon="-3.462847474"></trkpt>
    <trkpt lat="43.256711539" lon="-3.462868039"></trkpt>
    <trkpt lat="43.25671872" lon="-3.462888634"></trkpt>
    <trkpt lat="43.256729465" lon="-3.462910206"></trkpt>
    <trkpt lat="43.256736696" lon="-3.462935563"></trkpt>
    <trkpt lat="43.256743891" lon="-3.462951565"></trkpt>
    <trkpt lat="43.256758266" lon="-3.462974236"></trkpt>
    <trkpt lat="43.256769145" lon="-3.463005406"></trkpt>
    <trkpt lat="43.256780025" lon="-3.463031933"></trkpt>
    <trkpt lat="43.25679093" lon="-3.463058519"></trkpt>
    <trkpt lat="43.256798205" lon="-3.463074702"></trkpt>
    <trkpt lat="43.256812718" lon="-3.463092953"></trkpt>
    <trkpt lat="43.256830972" lon="-3.463126503"></trkpt>
    <trkpt lat="43.256841944" lon="-3.463143847"></trkpt>
    <trkpt lat="43.256849248" lon="-3.463150685"></trkpt>
    <trkpt lat="43.256922984" lon="-3.463243995"></trkpt>
    <trkpt lat="43.256923126" lon="-3.463272838"></trkpt>
    <trkpt lat="43.25692693" lon="-3.463287298"></trkpt>
    <trkpt lat="43.256934595" lon="-3.463325877"></trkpt>
    <trkpt lat="43.256942224" lon="-3.463354882"></trkpt>
    <trkpt lat="43.256949794" lon="-3.463369471"></trkpt>
    <trkpt lat="43.256965015" lon="-3.463408371"></trkpt>
    <trkpt lat="43.256980235" lon="-3.463437719"></trkpt>
    <trkpt lat="43.256984083" lon="-3.463452324"></trkpt>
    <trkpt lat="43.256995572" lon="-3.463481682"></trkpt>
    <trkpt lat="43.257007136" lon="-3.463520802"></trkpt>
    <trkpt lat="43.257011028" lon="-3.463540327"></trkpt>
    <trkpt lat="43.257022555" lon="-3.463565009"></trkpt>
    <trkpt lat="43.257034228" lon="-3.463614049"></trkpt>
    <trkpt lat="43.257034419" lon="-3.463652932"></trkpt>
    <trkpt lat="43.257042248" lon="-3.463692203"></trkpt>
    <trkpt lat="43.257046215" lon="-3.463721594"></trkpt>
    <trkpt lat="43.257054038" lon="-3.463756093"></trkpt>
    <trkpt lat="43.257058037" lon="-3.463790413"></trkpt>
    <trkpt lat="43.257058085" lon="-3.463800156"></trkpt>
    <trkpt lat="43.257062016" lon="-3.463819885"></trkpt>
    <trkpt lat="43.257062183" lon="-3.463853999"></trkpt>
    <trkpt lat="43.257066117" lon="-3.463873757"></trkpt>
    <trkpt lat="43.257066356" lon="-3.46392251"></trkpt>
    <trkpt lat="43.2570665" lon="-3.463951762"></trkpt>
    <trkpt lat="43.257066643" lon="-3.463981014"></trkpt>
    <trkpt lat="43.257066811" lon="-3.464015141"></trkpt>
    <trkpt lat="43.257066906" lon="-3.464034642"></trkpt>
    <trkpt lat="43.257067002" lon="-3.464054143"></trkpt>
    <trkpt lat="43.257067146" lon="-3.464083395"></trkpt>
    <trkpt lat="43.257067241" lon="-3.464102896"></trkpt>
    <trkpt lat="43.257067409" lon="-3.464137023"></trkpt>
    <trkpt lat="43.257067624" lon="-3.464180901"></trkpt>
    <trkpt lat="43.257067767" lon="-3.464210153"></trkpt>
    <trkpt lat="43.257067815" lon="-3.464219904"></trkpt>
    <trkpt lat="43.257075646" lon="-3.464249972"></trkpt>
    <trkpt lat="43.257075789" lon="-3.464279247"></trkpt>
    <trkpt lat="43.257075933" lon="-3.464308521"></trkpt>
    <trkpt lat="43.2570799" lon="-3.464333357"></trkpt>
    <trkpt lat="43.257083823" lon="-3.464348446"></trkpt>
    <trkpt lat="43.257087869" lon="-3.464387971"></trkpt>
    <trkpt lat="43.257087941" lon="-3.464402625"></trkpt>
    <trkpt lat="43.257091918" lon="-3.464427525"></trkpt>
    <trkpt lat="43.257092109" lon="-3.464466618"></trkpt>
    <trkpt lat="43.257092229" lon="-3.464491051"></trkpt>
    <trkpt lat="43.257092373" lon="-3.46452037"></trkpt>
    <trkpt lat="43.257092493" lon="-3.464544803"></trkpt>
    <trkpt lat="43.257092541" lon="-3.464554576"></trkpt>
    <trkpt lat="43.257092732" lon="-3.464593669"></trkpt>
    <trkpt lat="43.257092852" lon="-3.464618102"></trkpt>
    <trkpt lat="43.257092972" lon="-3.464642535"></trkpt>
    <trkpt lat="43.257089234" lon="-3.464666399"></trkpt>
    <trkpt lat="43.257070014" lon="-3.464668436"></trkpt>
    <trkpt lat="43.257047043" lon="-3.464669897"></trkpt>
    <trkpt lat="43.257020347" lon="-3.464665933"></trkpt>
    <trkpt lat="43.25700139" lon="-3.464667957"></trkpt>
    <trkpt lat="43.256986281" lon="-3.464670537"></trkpt>
    <trkpt lat="43.256967429" lon="-3.464667719"></trkpt>
    <trkpt lat="43.256944901" lon="-3.464664353"></trkpt>
    <trkpt lat="43.256918771" lon="-3.464665246"></trkpt>
    <trkpt lat="43.256892754" lon="-3.464661345"></trkpt>
    <trkpt lat="43.256874255" lon="-3.464658571"></trkpt>
    <trkpt lat="43.256837464" lon="-3.464653055"></trkpt>
    <trkpt lat="43.256815522" lon="-3.464649765"></trkpt>
    <trkpt lat="43.256793677" lon="-3.46464649"></trkpt>
    <trkpt lat="43.256775547" lon="-3.464643771"></trkpt>
    <trkpt lat="43.256753881" lon="-3.464640523"></trkpt>
    <trkpt lat="43.25673949" lon="-3.464638365"></trkpt>
    <trkpt lat="43.256714385" lon="-3.464629902"></trkpt>
    <trkpt lat="43.256703652" lon="-3.464623604"></trkpt>
    <trkpt lat="43.256675162" lon="-3.46461"></trkpt>
    <trkpt lat="43.256664516" lon="-3.46460375"></trkpt>
    <trkpt lat="43.256646817" lon="-3.464591806"></trkpt>
    <trkpt lat="43.256629183" lon="-3.464579906"></trkpt>
    <trkpt lat="43.256615136" lon="-3.464573211"></trkpt>
    <trkpt lat="43.256597617" lon="-3.464561384"></trkpt>
    <trkpt lat="43.256583684" lon="-3.464559376"></trkpt>
    <trkpt lat="43.25656977" lon="-3.464552742"></trkpt>
    <trkpt lat="43.256555895" lon="-3.464546127"></trkpt>
  </trkseg>
</trk>
</gpx>
