<?xml version="1.0" encoding="UTF-8"?>
<gpx creator="Wikiloc - https://www.wikiloc.com" version="1.1" xmlns="http://www.topografix.com/GPX/1/1" xmlns:xsi="http://www.w3.org/2001/XMLSchema-instance" xsi:schemaLocation="http://www.topografix.com/GPX/1/1 http://www.topografix.com/GPX/1/1/gpx.xsd">
  <metadata>
    <name>Wikiloc - Iglesia de Nuestra Señora de Guardamino desde Ramales de la ...</name>
    <link href="https://www.wikiloc.com/hiking-trails/iglesia-de-nuestra-senora-de-guardamino-desde-ramales-de-la-victoria-278249128">
      <text>Iglesia de Nuestra Señora de Guardamino desde Ramales de la ... on Wikiloc</text>
    </link>
    <time>2026-08-07T08:57:47.970Z</time>
  </metadata>
  <trk>
    <name>Iglesia de Nuestra Señora de Guardamino desde Ramales de la ... - Wikiloc</name>
    <cmt></cmt>
    <desc></desc>
    <trkseg>
      <trkpt lat="43.256506" lon="-3.464531">
        <ele>89.143</ele>
        <time>2026-08-07T07:55:27.920Z</time>
      </trkpt>
      <trkpt lat="43.256246" lon="-3.464366">
        <ele>94.664</ele>
        <time>2026-08-07T07:55:46.997Z</time>
      </trkpt>
      <trkpt lat="43.256181" lon="-3.464251">
        <ele>94.610</ele>
        <time>2026-08-07T07:55:54.997Z</time>
      </trkpt>
      <trkpt lat="43.256438" lon="-3.463247">
        <ele>95.409</ele>
        <time>2026-08-07T07:56:45.998Z</time>
      </trkpt>
      <trkpt lat="43.256542" lon="-3.463203">
        <ele>95.896</ele>
        <time>2026-08-07T07:56:53.998Z</time>
      </trkpt>
      <trkpt lat="43.256923" lon="-3.463373">
        <ele>95.221</ele>
        <time>2026-08-07T07:57:39.997Z</time>
      </trkpt>
      <trkpt lat="43.256912" lon="-3.463165">
        <ele>94.062</ele>
        <time>2026-08-07T07:57:46.997Z</time>
      </trkpt>
      <trkpt lat="43.256685" lon="-3.462913">
        <ele>91.376</ele>
        <time>2026-08-07T07:58:17.997Z</time>
      </trkpt>
      <trkpt lat="43.256676" lon="-3.462703">
        <ele>90.568</ele>
        <time>2026-08-07T07:58:29.997Z</time>
      </trkpt>
      <trkpt lat="43.256722" lon="-3.462261">
        <ele>90.863</ele>
        <time>2026-08-07T07:58:51.997Z</time>
      </trkpt>
      <trkpt lat="43.256921" lon="-3.461965">
        <ele>91.875</ele>
        <time>2026-08-07T07:59:22.997Z</time>
      </trkpt>
      <trkpt lat="43.257086" lon="-3.461529">
        <ele>95.636</ele>
        <time>2026-08-07T07:59:47.996Z</time>
      </trkpt>
      <trkpt lat="43.257007" lon="-3.461040">
        <ele>98.022</ele>
        <time>2026-08-07T08:00:22.996Z</time>
      </trkpt>
      <trkpt lat="43.257036" lon="-3.460668">
        <ele>98.887</ele>
        <time>2026-08-07T08:00:45.996Z</time>
      </trkpt>
      <trkpt lat="43.257439" lon="-3.459463">
        <ele>106.642</ele>
        <time>2026-08-07T08:01:51.995Z</time>
      </trkpt>
      <trkpt lat="43.257518" lon="-3.459350">
        <ele>106.826</ele>
        <time>2026-08-07T08:01:59.995Z</time>
      </trkpt>
      <trkpt lat="43.257723" lon="-3.459255">
        <ele>107.109</ele>
        <time>2026-08-07T08:02:23.995Z</time>
      </trkpt>
      <trkpt lat="43.257849" lon="-3.459041">
        <ele>107.760</ele>
        <time>2026-08-07T08:02:37.995Z</time>
      </trkpt>
      <trkpt lat="43.257888" lon="-3.458447">
        <ele>109.295</ele>
        <time>2026-08-07T08:03:07.995Z</time>
      </trkpt>
      <trkpt lat="43.258087" lon="-3.457392">
        <ele>113.166</ele>
        <time>2026-08-07T08:04:05.994Z</time>
      </trkpt>
      <trkpt lat="43.258343" lon="-3.456930">
        <ele>114.320</ele>
        <time>2026-08-07T08:04:37.994Z</time>
      </trkpt>
      <trkpt lat="43.258870" lon="-3.455146">
        <ele>117.142</ele>
        <time>2026-08-07T08:06:14.993Z</time>
      </trkpt>
      <trkpt lat="43.259196" lon="-3.454277">
        <ele>122.317</ele>
        <time>2026-08-07T08:07:01.993Z</time>
      </trkpt>
      <trkpt lat="43.259245" lon="-3.453961">
        <ele>123.989</ele>
        <time>2026-08-07T08:07:17.993Z</time>
      </trkpt>
      <trkpt lat="43.259187" lon="-3.453466">
        <ele>126.290</ele>
        <time>2026-08-07T08:07:40.993Z</time>
      </trkpt>
      <trkpt lat="43.258733" lon="-3.452162">
        <ele>133.256</ele>
        <time>2026-08-07T08:08:52.993Z</time>
      </trkpt>
      <trkpt lat="43.258681" lon="-3.451119">
        <ele>135.398</ele>
        <time>2026-08-07T08:09:45.993Z</time>
      </trkpt>
      <trkpt lat="43.258145" lon="-3.449912">
        <ele>138.915</ele>
        <time>2026-08-07T08:11:03.993Z</time>
      </trkpt>
      <trkpt lat="43.258011" lon="-3.449206">
        <ele>141.526</ele>
        <time>2026-08-07T08:11:42.993Z</time>
      </trkpt>
      <trkpt lat="43.258198" lon="-3.447958">
        <ele>146.809</ele>
        <time>2026-08-07T08:12:45.992Z</time>
      </trkpt>
      <trkpt lat="43.258521" lon="-3.446831">
        <ele>153.221</ele>
        <time>2026-08-07T08:13:47.992Z</time>
      </trkpt>
      <trkpt lat="43.258316" lon="-3.444612">
        <ele>163.936</ele>
        <time>2026-08-07T08:15:50.991Z</time>
      </trkpt>
      <trkpt lat="43.258418" lon="-3.443219">
        <ele>172.337</ele>
        <time>2026-08-07T08:17:02.990Z</time>
      </trkpt>
      <trkpt lat="43.258407" lon="-3.441991">
        <ele>174.541</ele>
        <time>2026-08-07T08:18:09.990Z</time>
      </trkpt>
      <trkpt lat="43.258453" lon="-3.441717">
        <ele>174.683</ele>
        <time>2026-08-07T08:18:23.990Z</time>
      </trkpt>
      <trkpt lat="43.258597" lon="-3.441623">
        <ele>174.558</ele>
        <time>2026-08-07T08:18:34.990Z</time>
      </trkpt>
      <trkpt lat="43.258945" lon="-3.441927">
        <ele>175.440</ele>
        <time>2026-08-07T08:19:03.989Z</time>
      </trkpt>
      <trkpt lat="43.259873" lon="-3.443457">
        <ele>188.811</ele>
        <time>2026-08-07T08:20:47.989Z</time>
      </trkpt>
      <trkpt lat="43.260311" lon="-3.443830">
        <ele>195.457</ele>
        <time>2026-08-07T08:21:26.989Z</time>
      </trkpt>
      <trkpt lat="43.260477" lon="-3.443731">
        <ele>197.941</ele>
        <time>2026-08-07T08:21:41.989Z</time>
      </trkpt>
      <trkpt lat="43.260278" lon="-3.443301">
        <ele>202.281</ele>
        <time>2026-08-07T08:22:09.989Z</time>
      </trkpt>
      <trkpt lat="43.260296" lon="-3.443155">
        <ele>203.809</ele>
        <time>2026-08-07T08:22:17.989Z</time>
      </trkpt>
      <trkpt lat="43.260661" lon="-3.442722">
        <ele>209.009</ele>
        <time>2026-08-07T08:23:00.988Z</time>
      </trkpt>
      <trkpt lat="43.260910" lon="-3.442638">
        <ele>212.186</ele>
        <time>2026-08-07T08:23:21.988Z</time>
      </trkpt>
      <trkpt lat="43.261120" lon="-3.442705">
        <ele>213.731</ele>
        <time>2026-08-07T08:23:36.988Z</time>
      </trkpt>
      <trkpt lat="43.261297" lon="-3.442874">
        <ele>214.542</ele>
        <time>2026-08-07T08:23:52.988Z</time>
      </trkpt>
      <trkpt lat="43.261445" lon="-3.443178">
        <ele>215.956</ele>
        <time>2026-08-07T08:24:12.988Z</time>
      </trkpt>
      <trkpt lat="43.261504" lon="-3.443618">
        <ele>218.978</ele>
        <time>2026-08-07T08:24:36.988Z</time>
      </trkpt>
      <trkpt lat="43.261384" lon="-3.444292">
        <ele>224.373</ele>
        <time>2026-08-07T08:25:15.987Z</time>
      </trkpt>
      <trkpt lat="43.261411" lon="-3.444559">
        <ele>226.585</ele>
        <time>2026-08-07T08:25:31.987Z</time>
      </trkpt>
      <trkpt lat="43.261974" lon="-3.445241">
        <ele>228.466</ele>
        <time>2026-08-07T08:26:35.987Z</time>
      </trkpt>
      <trkpt lat="43.262303" lon="-3.445777">
        <ele>231.392</ele>
        <time>2026-08-07T08:27:13.986Z</time>
      </trkpt>
      <trkpt lat="43.263345" lon="-3.446658">
        <ele>236.489</ele>
        <time>2026-08-07T08:29:06.985Z</time>
      </trkpt>
      <trkpt lat="43.263391" lon="-3.446863">
        <ele>236.606</ele>
        <time>2026-08-07T08:29:18.985Z</time>
      </trkpt>
      <trkpt lat="43.263354" lon="-3.447795">
        <ele>231.826</ele>
        <time>2026-08-07T08:30:10.985Z</time>
      </trkpt>
      <trkpt lat="43.263169" lon="-3.448585">
        <ele>227.309</ele>
        <time>2026-08-07T08:31:28.984Z</time>
      </trkpt>
      <trkpt lat="43.262583" lon="-3.449117">
        <ele>224.490</ele>
        <time>2026-08-07T08:32:28.984Z</time>
      </trkpt>
      <trkpt lat="43.262401" lon="-3.449443">
        <ele>221.995</ele>
        <time>2026-08-07T08:32:50.984Z</time>
      </trkpt>
      <trkpt lat="43.261994" lon="-3.452952">
        <ele>197.246</ele>
        <time>2026-08-07T08:36:14.982Z</time>
      </trkpt>
      <trkpt lat="43.261304" lon="-3.455233">
        <ele>178.620</ele>
        <time>2026-08-07T08:39:46.979Z</time>
      </trkpt>
      <trkpt lat="43.261294" lon="-3.455294">
        <ele>178.312</ele>
        <time>2026-08-07T08:43:17.980Z</time>
      </trkpt>
      <trkpt lat="43.261375" lon="-3.455312">
        <ele>177.477</ele>
        <time>2026-08-07T08:43:31.980Z</time>
      </trkpt>
      <trkpt lat="43.261183" lon="-3.455310">
        <ele>177.069</ele>
        <time>2026-08-07T08:44:34.978Z</time>
      </trkpt>
      <trkpt lat="43.260620" lon="-3.455902">
        <ele>171.770</ele>
        <time>2026-08-07T08:45:30.978Z</time>
      </trkpt>
      <trkpt lat="43.259671" lon="-3.457519">
        <ele>157.996</ele>
        <time>2026-08-07T08:48:12.975Z</time>
      </trkpt>
      <trkpt lat="43.259256" lon="-3.457955">
        <ele>147.693</ele>
        <time>2026-08-07T08:48:52.975Z</time>
      </trkpt>
      <trkpt lat="43.259007" lon="-3.458698">
        <ele>136.165</ele>
        <time>2026-08-07T08:49:42.975Z</time>
      </trkpt>
      <trkpt lat="43.258642" lon="-3.459173">
        <ele>125.021</ele>
        <time>2026-08-07T08:50:25.973Z</time>
      </trkpt>
      <trkpt lat="43.257922" lon="-3.459425">
        <ele>114.209</ele>
        <time>2026-08-07T08:51:20.973Z</time>
      </trkpt>
      <trkpt lat="43.257453" lon="-3.459453">
        <ele>111.721</ele>
        <time>2026-08-07T08:51:55.973Z</time>
      </trkpt>
      <trkpt lat="43.257416" lon="-3.459505">
        <ele>111.456</ele>
        <time>2026-08-07T08:51:59.973Z</time>
      </trkpt>
      <trkpt lat="43.257043" lon="-3.460709">
        <ele>104.617</ele>
        <time>2026-08-07T08:53:16.972Z</time>
      </trkpt>
      <trkpt lat="43.257084" lon="-3.461584">
        <ele>101.031</ele>
        <time>2026-08-07T08:54:03.972Z</time>
      </trkpt>
      <trkpt lat="43.256771" lon="-3.462167">
        <ele>96.423</ele>
        <time>2026-08-07T08:54:42.971Z</time>
      </trkpt>
      <trkpt lat="43.256689" lon="-3.462665">
        <ele>94.068</ele>
        <time>2026-08-07T08:55:11.971Z</time>
      </trkpt>
      <trkpt lat="43.256792" lon="-3.462977">
        <ele>93.470</ele>
        <time>2026-08-07T08:55:31.971Z</time>
      </trkpt>
      <trkpt lat="43.257013" lon="-3.463290">
        <ele>94.851</ele>
        <time>2026-08-07T08:55:54.971Z</time>
      </trkpt>
      <trkpt lat="43.256962" lon="-3.463494">
        <ele>96.757</ele>
        <time>2026-08-07T08:56:05.971Z</time>
      </trkpt>
      <trkpt lat="43.257154" lon="-3.464574">
        <ele>96.132</ele>
        <time>2026-08-07T08:57:09.970Z</time>
      </trkpt>
      <trkpt lat="43.257051" lon="-3.464642">
        <ele>95.992</ele>
        <time>2026-08-07T08:57:16.970Z</time>
      </trkpt>
      <trkpt lat="43.256568" lon="-3.464576">
        <ele>97.211</ele>
        <time>2026-08-07T08:57:47.970Z</time>
      </trkpt>
    </trkseg>
  </trk></gpx>