<?xml version="1.0" encoding="UTF-8"?>
<gpx creator="Garmin Desktop App" version="1.1" schemaLocation="http://www.topografix.com/GPX/1/1 http://www.topografix.com/GPX/1/1/gpx.xsd http://www.garmin.com/xmlschemas/WaypointExtension/v1 http://www8.garmin.com/xmlschemas/WaypointExtensionv1.xsd http://www.garmin.com/xmlschemas/TrackPointExtension/v1 http://www.garmin.com/xmlschemas/TrackPointExtensionv1.xsd http://www.garmin.com/xmlschemas/GpxExtensions/v3 http://www8.garmin.com/xmlschemas/GpxExtensionsv3.xsd http://www.garmin.com/xmlschemas/ActivityExtension/v1 http://www8.garmin.com/xmlschemas/ActivityExtensionv1.xsd http://www.garmin.com/xmlschemas/AdventuresExtensions/v1 http://www8.garmin.com/xmlschemas/AdventuresExtensionv1.xsd http://www.garmin.com/xmlschemas/PressureExtension/v1 http://www.garmin.com/xmlschemas/PressureExtensionv1.xsd http://www.garmin.com/xmlschemas/TripExtensions/v1 http://www.garmin.com/xmlschemas/TripExtensionsv1.xsd http://www.garmin.com/xmlschemas/TripMetaDataExtensions/v1 http://www.garmin.com/xmlschemas/TripMetaDataExtensionsv1.xsd http://www.garmin.com/xmlschemas/ViaPointTransportationModeExtensions/v1 http://www.garmin.com/xmlschemas/ViaPointTransportationModeExtensionsv1.xsd http://www.garmin.com/xmlschemas/CreationTimeExtension/v1 http://www.garmin.com/xmlschemas/CreationTimeExtensionsv1.xsd http://www.garmin.com/xmlschemas/AccelerationExtension/v1 http://www.garmin.com/xmlschemas/AccelerationExtensionv1.xsd http://www.garmin.com/xmlschemas/PowerExtension/v1 http://www.garmin.com/xmlschemas/PowerExtensionv1.xsd http://www.garmin.com/xmlschemas/VideoExtension/v1 http://www.garmin.com/xmlschemas/VideoExtensionv1.xsd" xmlns="http://www.topografix.com/GPX/1/1" xmlns:xsi="http://www.w3.org/2001/XMLSchema-instance" xsi:schemaLocation="http://www.topografix.com/GPX/1/1 http://www.topografix.com/GPX/1/1/gpx.xsd http://www.garmin.com/xmlschemas/GpxExtensions/v3 http://www.garmin.com/xmlschemas/GpxExtensionsv3.xsd http://www.garmin.com/xmlschemas/TrackPointExtension/v1 http://www.garmin.com/xmlschemas/TrackPointExtensionv1.xsd http://www.garmin.com/xmlschemas/PowerExtension/v1 http://www.garmin.com/xmlschemas/PowerExtensionv1.xsd http://www.topografix.com/GPX/gpx_style/0/2 http://www.topografix.com/GPX/gpx_style/0/2/gpx_style.xsd" xmlns:gpxtpx="http://www.garmin.com/xmlschemas/TrackPointExtension/v1" xmlns:gpxx="http://www.garmin.com/xmlschemas/GpxExtensions/v3" xmlns:gpxpx="http://www.garmin.com/xmlschemas/PowerExtension/v1" xmlns:gpx_style="http://www.topografix.com/GPX/gpx_style/0/2">
  <metadata>
    <name>TRC017 R2 01022021 OK</name>
    <author>
      <name>gpx.studio</name>
      <link href="https://gpx.studio"/>
    </author>
    <link href="http://www.garmin.com">
      <text>Garmin International</text>
    </link>
  </metadata>
  <trk>
    <name>TRC017 R2 01022021 OK</name>
    <trkseg>
      <trkpt lat="43.256508" lon="-3.464538">
        <ele>87.09</ele>
      </trkpt>
      <trkpt lat="43.256418" lon="-3.464514">
        <ele>87.35</ele>
      </trkpt>
      <trkpt lat="43.255342" lon="-3.463821">
        <ele>90.85</ele>
      </trkpt>
      <trkpt lat="43.254934" lon="-3.463569">
        <ele>92</ele>
      </trkpt>
      <trkpt lat="43.254668" lon="-3.463348">
        <ele>92</ele>
      </trkpt>
      <trkpt lat="43.254662" lon="-3.463335">
        <ele>91.98</ele>
      </trkpt>
      <trkpt lat="43.25464" lon="-3.463319">
        <ele>91.89</ele>
      </trkpt>
      <trkpt lat="43.25464" lon="-3.463319">
        <ele>91.89</ele>
      </trkpt>
      <trkpt lat="43.254552" lon="-3.463254">
        <ele>91.57</ele>
      </trkpt>
      <trkpt lat="43.254042" lon="-3.462797">
        <ele>92.12</ele>
      </trkpt>
      <trkpt lat="43.254006" lon="-3.462799">
        <ele>92.07</ele>
      </trkpt>
      <trkpt lat="43.25391" lon="-3.462678">
        <ele>92</ele>
      </trkpt>
      <trkpt lat="43.253935" lon="-3.462628">
        <ele>92.12</ele>
      </trkpt>
      <trkpt lat="43.253936" lon="-3.462574">
        <ele>92.44</ele>
      </trkpt>
      <trkpt lat="43.253848" lon="-3.462361">
        <ele>93</ele>
      </trkpt>
      <trkpt lat="43.253838" lon="-3.462308">
        <ele>93</ele>
      </trkpt>
      <trkpt lat="43.25389" lon="-3.462048">
        <ele>94</ele>
      </trkpt>
      <trkpt lat="43.253889" lon="-3.462048">
        <ele>94</ele>
      </trkpt>
      <trkpt lat="43.253897" lon="-3.461843">
        <ele>94</ele>
      </trkpt>
      <trkpt lat="43.253888" lon="-3.461732">
        <ele>94.34</ele>
      </trkpt>
      <trkpt lat="43.253871" lon="-3.461656">
        <ele>94.78</ele>
      </trkpt>
      <trkpt lat="43.253837" lon="-3.461584">
        <ele>95</ele>
      </trkpt>
      <trkpt lat="43.25378" lon="-3.461505">
        <ele>94.8</ele>
      </trkpt>
      <trkpt lat="43.253712" lon="-3.461446">
        <ele>95</ele>
      </trkpt>
      <trkpt lat="43.253482" lon="-3.461322">
        <ele>95.96</ele>
      </trkpt>
      <trkpt lat="43.253356" lon="-3.461264">
        <ele>94.86</ele>
      </trkpt>
      <trkpt lat="43.253356" lon="-3.461264">
        <ele>94.86</ele>
      </trkpt>
      <trkpt lat="43.253316" lon="-3.461245">
        <ele>94.51</ele>
      </trkpt>
      <trkpt lat="43.253113" lon="-3.461079">
        <ele>94.79</ele>
      </trkpt>
      <trkpt lat="43.252975" lon="-3.460987">
        <ele>94.81</ele>
      </trkpt>
      <trkpt lat="43.252887" lon="-3.460908">
        <ele>95.61</ele>
      </trkpt>
      <trkpt lat="43.252346" lon="-3.4606">
        <ele>98.92</ele>
      </trkpt>
      <trkpt lat="43.252132" lon="-3.46051">
        <ele>100.32</ele>
      </trkpt>
      <trkpt lat="43.251872" lon="-3.460439">
        <ele>102.72</ele>
      </trkpt>
      <trkpt lat="43.251872" lon="-3.460439">
        <ele>102.72</ele>
      </trkpt>
      <trkpt lat="43.25168" lon="-3.460386">
        <ele>104.48</ele>
      </trkpt>
      <trkpt lat="43.251256" lon="-3.460293">
        <ele>107.11</ele>
      </trkpt>
      <trkpt lat="43.251012" lon="-3.460249">
        <ele>110.12</ele>
      </trkpt>
      <trkpt lat="43.250309" lon="-3.460026">
        <ele>117.77</ele>
      </trkpt>
      <trkpt lat="43.250059" lon="-3.459896">
        <ele>120.39</ele>
      </trkpt>
      <trkpt lat="43.250059" lon="-3.459896">
        <ele>120.39</ele>
      </trkpt>
      <trkpt lat="43.249865" lon="-3.459794">
        <ele>122.42</ele>
      </trkpt>
      <trkpt lat="43.249389" lon="-3.459385">
        <ele>128.84</ele>
      </trkpt>
      <trkpt lat="43.248772" lon="-3.458888">
        <ele>136.42</ele>
      </trkpt>
      <trkpt lat="43.248365" lon="-3.458485">
        <ele>141.49</ele>
      </trkpt>
      <trkpt lat="43.248225" lon="-3.458276">
        <ele>144.62</ele>
      </trkpt>
      <trkpt lat="43.248105" lon="-3.458045">
        <ele>148.06</ele>
      </trkpt>
      <trkpt lat="43.247975" lon="-3.457771">
        <ele>150.99</ele>
      </trkpt>
      <trkpt lat="43.247975" lon="-3.457771">
        <ele>150.99</ele>
      </trkpt>
      <trkpt lat="43.247811" lon="-3.457427">
        <ele>154.67</ele>
      </trkpt>
      <trkpt lat="43.247693" lon="-3.457256">
        <ele>154.1</ele>
      </trkpt>
      <trkpt lat="43.24767" lon="-3.457207">
        <ele>154.4</ele>
      </trkpt>
      <trkpt lat="43.247668" lon="-3.457098">
        <ele>156.61</ele>
      </trkpt>
      <trkpt lat="43.247683" lon="-3.456865">
        <ele>158.45</ele>
      </trkpt>
      <trkpt lat="43.247713" lon="-3.456659">
        <ele>160.41</ele>
      </trkpt>
      <trkpt lat="43.247689" lon="-3.456447">
        <ele>162.3</ele>
      </trkpt>
      <trkpt lat="43.247625" lon="-3.456176">
        <ele>166.07</ele>
      </trkpt>
      <trkpt lat="43.247511" lon="-3.455857">
        <ele>169.35</ele>
      </trkpt>
      <trkpt lat="43.247352" lon="-3.455552">
        <ele>172.85</ele>
      </trkpt>
      <trkpt lat="43.247101" lon="-3.455257">
        <ele>175.47</ele>
      </trkpt>
      <trkpt lat="43.246926" lon="-3.454961">
        <ele>180.25</ele>
      </trkpt>
      <trkpt lat="43.246926" lon="-3.454961">
        <ele>180.25</ele>
      </trkpt>
      <trkpt lat="43.246727" lon="-3.454632">
        <ele>186.02</ele>
      </trkpt>
      <trkpt lat="43.246605" lon="-3.454501">
        <ele>192.07</ele>
      </trkpt>
      <trkpt lat="43.246434" lon="-3.454391">
        <ele>190.17</ele>
      </trkpt>
      <trkpt lat="43.246343" lon="-3.454342">
        <ele>190.2</ele>
      </trkpt>
      <trkpt lat="43.246252" lon="-3.454241">
        <ele>189.66</ele>
      </trkpt>
      <trkpt lat="43.246099" lon="-3.453964">
        <ele>197.36</ele>
      </trkpt>
      <trkpt lat="43.246035" lon="-3.453889">
        <ele>197.28</ele>
      </trkpt>
      <trkpt lat="43.245925" lon="-3.453785">
        <ele>199.3</ele>
      </trkpt>
      <trkpt lat="43.245598" lon="-3.453552">
        <ele>205.63</ele>
      </trkpt>
      <trkpt lat="43.245598" lon="-3.453552">
        <ele>205.63</ele>
      </trkpt>
      <trkpt lat="43.245472" lon="-3.453489">
        <ele>207.83</ele>
      </trkpt>
      <trkpt lat="43.245372" lon="-3.45346">
        <ele>209.57</ele>
      </trkpt>
      <trkpt lat="43.24522" lon="-3.453453">
        <ele>212.91</ele>
      </trkpt>
      <trkpt lat="43.245134" lon="-3.453486">
        <ele>214.82</ele>
      </trkpt>
      <trkpt lat="43.245055" lon="-3.453561">
        <ele>215.44</ele>
      </trkpt>
      <trkpt lat="43.244999" lon="-3.453657">
        <ele>215.78</ele>
      </trkpt>
      <trkpt lat="43.244941" lon="-3.453735">
        <ele>212.16</ele>
      </trkpt>
      <trkpt lat="43.24487" lon="-3.453815">
        <ele>205.81</ele>
      </trkpt>
      <trkpt lat="43.244753" lon="-3.453901">
        <ele>209.13</ele>
      </trkpt>
      <trkpt lat="43.244626" lon="-3.453914">
        <ele>213.93</ele>
      </trkpt>
      <trkpt lat="43.24451" lon="-3.453904">
        <ele>215.4</ele>
      </trkpt>
      <trkpt lat="43.244376" lon="-3.453873">
        <ele>219.14</ele>
      </trkpt>
      <trkpt lat="43.244036" lon="-3.453677">
        <ele>221.62</ele>
      </trkpt>
      <trkpt lat="43.243582" lon="-3.453442">
        <ele>224.7</ele>
      </trkpt>
      <trkpt lat="43.243355" lon="-3.453325">
        <ele>223.78</ele>
      </trkpt>
      <trkpt lat="43.24333" lon="-3.453141">
        <ele>226.96</ele>
      </trkpt>
      <trkpt lat="43.24328" lon="-3.453068">
        <ele>226.78</ele>
      </trkpt>
      <trkpt lat="43.243252" lon="-3.452992">
        <ele>226.11</ele>
      </trkpt>
      <trkpt lat="43.243203" lon="-3.45277">
        <ele>229.89</ele>
      </trkpt>
      <trkpt lat="43.243146" lon="-3.452605">
        <ele>230.6</ele>
      </trkpt>
      <trkpt lat="43.243146" lon="-3.452605">
        <ele>230.6</ele>
      </trkpt>
      <trkpt lat="43.24308" lon="-3.452417">
        <ele>231.42</ele>
      </trkpt>
      <trkpt lat="43.242965" lon="-3.452266">
        <ele>228.16</ele>
      </trkpt>
      <trkpt lat="43.242932" lon="-3.45212">
        <ele>227.74</ele>
      </trkpt>
      <trkpt lat="43.242915" lon="-3.451964">
        <ele>224.59</ele>
      </trkpt>
      <trkpt lat="43.243063" lon="-3.451593">
        <ele>224.18</ele>
      </trkpt>
      <trkpt lat="43.243096" lon="-3.451429">
        <ele>222.44</ele>
      </trkpt>
      <trkpt lat="43.24309" lon="-3.451246">
        <ele>221.38</ele>
      </trkpt>
      <trkpt lat="43.243031" lon="-3.450878">
        <ele>220.92</ele>
      </trkpt>
      <trkpt lat="43.242862" lon="-3.45038">
        <ele>221.48</ele>
      </trkpt>
      <trkpt lat="43.242689" lon="-3.450124">
        <ele>222.12</ele>
      </trkpt>
      <trkpt lat="43.242668" lon="-3.450118">
        <ele>222.16</ele>
      </trkpt>
      <trkpt lat="43.242668" lon="-3.450118">
        <ele>222.16</ele>
      </trkpt>
      <trkpt lat="43.242239" lon="-3.44998">
        <ele>223</ele>
      </trkpt>
      <trkpt lat="43.241899" lon="-3.449994">
        <ele>223.53</ele>
      </trkpt>
      <trkpt lat="43.240793" lon="-3.4503">
        <ele>224.77</ele>
      </trkpt>
      <trkpt lat="43.240221" lon="-3.450391">
        <ele>225.42</ele>
      </trkpt>
      <trkpt lat="43.240012" lon="-3.450384">
        <ele>225.63</ele>
      </trkpt>
      <trkpt lat="43.239545" lon="-3.450337">
        <ele>226.59</ele>
      </trkpt>
      <trkpt lat="43.239331" lon="-3.450191">
        <ele>228.71</ele>
      </trkpt>
      <trkpt lat="43.239128" lon="-3.450223">
        <ele>228.8</ele>
      </trkpt>
      <trkpt lat="43.238672" lon="-3.450157">
        <ele>231.81</ele>
      </trkpt>
      <trkpt lat="43.238672" lon="-3.450157">
        <ele>231.81</ele>
      </trkpt>
      <trkpt lat="43.238569" lon="-3.450142">
        <ele>232.5</ele>
      </trkpt>
      <trkpt lat="43.238245" lon="-3.450096">
        <ele>239.19</ele>
      </trkpt>
      <trkpt lat="43.238212" lon="-3.449992">
        <ele>243.16</ele>
      </trkpt>
      <trkpt lat="43.238262" lon="-3.449865">
        <ele>246.17</ele>
      </trkpt>
      <trkpt lat="43.238475" lon="-3.449765">
        <ele>243</ele>
      </trkpt>
      <trkpt lat="43.2389" lon="-3.449563">
        <ele>246</ele>
      </trkpt>
      <trkpt lat="43.239063" lon="-3.449253">
        <ele>245.61</ele>
      </trkpt>
      <trkpt lat="43.23939" lon="-3.448632">
        <ele>249.07</ele>
      </trkpt>
      <trkpt lat="43.239397" lon="-3.448402">
        <ele>254.27</ele>
      </trkpt>
      <trkpt lat="43.23922" lon="-3.448361">
        <ele>256.57</ele>
      </trkpt>
      <trkpt lat="43.23898" lon="-3.44835">
        <ele>257.53</ele>
      </trkpt>
      <trkpt lat="43.238861" lon="-3.448399">
        <ele>258.76</ele>
      </trkpt>
      <trkpt lat="43.238861" lon="-3.448399">
        <ele>258.76</ele>
      </trkpt>
      <trkpt lat="43.238103" lon="-3.448699">
        <ele>268.87</ele>
      </trkpt>
      <trkpt lat="43.237369" lon="-3.448553">
        <ele>275.54</ele>
      </trkpt>
      <trkpt lat="43.236864" lon="-3.448424">
        <ele>282.95</ele>
      </trkpt>
      <trkpt lat="43.236612" lon="-3.448359">
        <ele>290.36</ele>
      </trkpt>
      <trkpt lat="43.236562" lon="-3.448293">
        <ele>293.16</ele>
      </trkpt>
      <trkpt lat="43.236607" lon="-3.44787">
        <ele>301.26</ele>
      </trkpt>
      <trkpt lat="43.236634" lon="-3.447613">
        <ele>303.77</ele>
      </trkpt>
      <trkpt lat="43.236634" lon="-3.447613">
        <ele>303.77</ele>
      </trkpt>
      <trkpt lat="43.236655" lon="-3.447361">
        <ele>305.89</ele>
      </trkpt>
      <trkpt lat="43.236702" lon="-3.447056">
        <ele>307.93</ele>
      </trkpt>
      <trkpt lat="43.236795" lon="-3.446445">
        <ele>315.69</ele>
      </trkpt>
      <trkpt lat="43.237038" lon="-3.446237">
        <ele>317.03</ele>
      </trkpt>
      <trkpt lat="43.237169" lon="-3.445913">
        <ele>318.41</ele>
      </trkpt>
      <trkpt lat="43.23727" lon="-3.445733">
        <ele>319</ele>
      </trkpt>
      <trkpt lat="43.237459" lon="-3.445557">
        <ele>319.16</ele>
      </trkpt>
      <trkpt lat="43.237773" lon="-3.445389">
        <ele>317.79</ele>
      </trkpt>
      <trkpt lat="43.238014" lon="-3.445298">
        <ele>318.94</ele>
      </trkpt>
      <trkpt lat="43.238251" lon="-3.445162">
        <ele>322.43</ele>
      </trkpt>
      <trkpt lat="43.238695" lon="-3.444876">
        <ele>320.93</ele>
      </trkpt>
      <trkpt lat="43.23877" lon="-3.4449">
        <ele>319.7</ele>
      </trkpt>
      <trkpt lat="43.238866" lon="-3.444981">
        <ele>318.18</ele>
      </trkpt>
      <trkpt lat="43.238949" lon="-3.445007">
        <ele>318.26</ele>
      </trkpt>
      <trkpt lat="43.239092" lon="-3.445107">
        <ele>318.66</ele>
      </trkpt>
      <trkpt lat="43.239203" lon="-3.445186">
        <ele>318.96</ele>
      </trkpt>
      <trkpt lat="43.239292" lon="-3.445234">
        <ele>319.91</ele>
      </trkpt>
      <trkpt lat="43.239559" lon="-3.445359">
        <ele>325.63</ele>
      </trkpt>
      <trkpt lat="43.240249" lon="-3.445908">
        <ele>338.79</ele>
      </trkpt>
      <trkpt lat="43.240634" lon="-3.446053">
        <ele>343.1</ele>
      </trkpt>
      <trkpt lat="43.241244" lon="-3.446278">
        <ele>360.86</ele>
      </trkpt>
      <trkpt lat="43.241755" lon="-3.446462">
        <ele>368.76</ele>
      </trkpt>
      <trkpt lat="43.241818" lon="-3.446471">
        <ele>370.81</ele>
      </trkpt>
      <trkpt lat="43.241756" lon="-3.446321">
        <ele>374.52</ele>
      </trkpt>
      <trkpt lat="43.241975" lon="-3.446246">
        <ele>385.29</ele>
      </trkpt>
      <trkpt lat="43.241997" lon="-3.446225">
        <ele>386.77</ele>
      </trkpt>
      <trkpt lat="43.242005" lon="-3.446203">
        <ele>387.63</ele>
      </trkpt>
      <trkpt lat="43.241998" lon="-3.446167">
        <ele>388.27</ele>
      </trkpt>
      <trkpt lat="43.241871" lon="-3.446097">
        <ele>387.49</ele>
      </trkpt>
      <trkpt lat="43.241865" lon="-3.44607">
        <ele>388.54</ele>
      </trkpt>
      <trkpt lat="43.241886" lon="-3.446037">
        <ele>390.48</ele>
      </trkpt>
      <trkpt lat="43.241993" lon="-3.446037">
        <ele>392.63</ele>
      </trkpt>
      <trkpt lat="43.242142" lon="-3.446076">
        <ele>394.5</ele>
      </trkpt>
      <trkpt lat="43.242148105055094" lon="-3.446019915863872">
        <ele>399.16796875</ele>
      </trkpt>
      <trkpt lat="43.24214802123606" lon="-3.446014970541">
        <ele>398.6299999999999</ele>
      </trkpt>
      <trkpt lat="43.24213896878064" lon="-3.445945987477899">
        <ele>400.69</ele>
      </trkpt>
      <trkpt lat="43.242111979052424" lon="-3.445854038000107">
        <ele>403.24</ele>
      </trkpt>
      <trkpt lat="43.24207602068782" lon="-3.445751024410129">
        <ele>406.74</ele>
      </trkpt>
      <trkpt lat="43.242088006809354" lon="-3.445708025246859">
        <ele>408.51</ele>
      </trkpt>
      <trkpt lat="43.24212798848748" lon="-3.445680029690266">
        <ele>409.7499999999999</ele>
      </trkpt>
      <trkpt lat="43.2421269826591" lon="-3.445595037192106">
        <ele>412.91</ele>
      </trkpt>
      <trkpt lat="43.242049030959606" lon="-3.445485988631845">
        <ele>417.54</ele>
      </trkpt>
      <trkpt lat="43.24199102818966" lon="-3.445391021668911">
        <ele>422.14</ele>
      </trkpt>
      <trkpt lat="43.24192497879267" lon="-3.4453259781003">
        <ele>425.73</ele>
      </trkpt>
      <trkpt lat="43.24180000461638" lon="-3.445319021120668">
        <ele>425.5599999999999</ele>
      </trkpt>
      <trkpt lat="43.24175901710987" lon="-3.445288008078933">
        <ele>426.83</ele>
      </trkpt>
      <trkpt lat="43.24171300046146" lon="-3.445280967280269">
        <ele>427</ele>
      </trkpt>
      <trkpt lat="43.241664972156286" lon="-3.445292031392455">
        <ele>426.21</ele>
      </trkpt>
      <trkpt lat="43.241619039326906" lon="-3.445275016129017">
        <ele>425.63</ele>
      </trkpt>
      <trkpt lat="43.241573022678494" lon="-3.445256995037198">
        <ele>425.18</ele>
      </trkpt>
      <trkpt lat="43.24150303378701" lon="-3.445277027785778">
        <ele>421.7500000000001</ele>
      </trkpt>
      <trkpt lat="43.24147797189653" lon="-3.445271998643875">
        <ele>421.2499999999999</ele>
      </trkpt>
      <trkpt lat="43.24136598967016" lon="-3.445320026949048">
        <ele>414.23</ele>
      </trkpt>
      <trkpt lat="43.24132600799203" lon="-3.445339975878596">
        <ele>410.9700000000001</ele>
      </trkpt>
      <trkpt lat="43.2412619702518" lon="-3.445305023342371">
        <ele>409.62</ele>
      </trkpt>
      <trkpt lat="43.24120396748185" lon="-3.445225981995463">
        <ele>410.96</ele>
      </trkpt>
      <trkpt lat="43.24117002077401" lon="-3.445190023630858">
        <ele>411.01</ele>
      </trkpt>
      <trkpt lat="43.24108703993261" lon="-3.44513202086091">
        <ele>409.58</ele>
      </trkpt>
      <trkpt lat="43.24106901884079" lon="-3.44506798312068">
        <ele>411.88</ele>
      </trkpt>
      <trkpt lat="43.24105401523411" lon="-3.444971004500985">
        <ele>416.14</ele>
      </trkpt>
      <trkpt lat="43.24105502106249" lon="-3.444885006174445">
        <ele>420.91</ele>
      </trkpt>
      <trkpt lat="43.241061978042126" lon="-3.44483102671802">
        <ele>424.45</ele>
      </trkpt>
      <trkpt lat="43.24106901884079" lon="-3.444742010906339">
        <ele>429.94</ele>
      </trkpt>
      <trkpt lat="43.241081004962325" lon="-3.444511005654931">
        <ele>442.26</ele>
      </trkpt>
      <trkpt lat="43.241079999133945" lon="-3.444435987621546">
        <ele>445.95</ele>
      </trkpt>
      <trkpt lat="43.24109701439738" lon="-3.444354012608528">
        <ele>451.7599999999999</ele>
      </trkpt>
      <trkpt lat="43.241081004962325" lon="-3.444263990968466">
        <ele>455.11</ele>
      </trkpt>
      <trkpt lat="43.24106600135565" lon="-3.444245969876647">
        <ele>454.73</ele>
      </trkpt>
      <trkpt lat="43.24104404076934" lon="-3.444157959893346">
        <ele>457.2400000000001</ele>
      </trkpt>
      <trkpt lat="43.24098997749388" lon="-3.444111021235585">
        <ele>453.75</ele>
      </trkpt>
      <trkpt lat="43.240929963067174" lon="-3.444042038172483">
        <ele>451.12</ele>
      </trkpt>
      <trkpt lat="43.24091403745115" lon="-3.444019993767142">
        <ele>450.72</ele>
      </trkpt>
      <trkpt lat="43.2409009616822" lon="-3.443996021524072">
        <ele>450.71</ele>
      </trkpt>
      <trkpt lat="43.24085301719606" lon="-3.443973977118731">
        <ele>448.31</ele>
      </trkpt>
      <trkpt lat="43.240802977234125" lon="-3.443910023197532">
        <ele>449.1999999999999</ele>
      </trkpt>
      <trkpt lat="43.24079501442611" lon="-3.4438840392977">
        <ele>449.93</ele>
      </trkpt>
      <trkpt lat="43.24077498167753" lon="-3.443799968808889">
        <ele>451.5099999999999</ele>
      </trkpt>
      <trkpt lat="43.24077498167753" lon="-3.443799968808889">
        <ele>451.5099999999999</ele>
      </trkpt>
      <trkpt lat="43.2408319786191" lon="-3.443740038201213">
        <ele>455.23</ele>
      </trkpt>
      <trkpt lat="43.24083499610424" lon="-3.44371497631073">
        <ele>456.1600000000001</ele>
      </trkpt>
      <trkpt lat="43.2408700324595" lon="-3.443645993247628">
        <ele>460.1199999999999</ele>
      </trkpt>
      <trkpt lat="43.24088000692427" lon="-3.443582961335778">
        <ele>462.22</ele>
      </trkpt>
      <trkpt lat="43.24088101275265" lon="-3.443489000201225">
        <ele>464.23</ele>
      </trkpt>
      <trkpt lat="43.24093700386584" lon="-3.443355979397893">
        <ele>470.6800000000001</ele>
      </trkpt>
      <trkpt lat="43.24099802412093" lon="-3.443276016041637">
        <ele>475.99</ele>
      </trkpt>
      <trkpt lat="43.24106801301241" lon="-3.443307029083371">
        <ele>480.3799999999999</ele>
      </trkpt>
      <trkpt lat="43.24107496999204" lon="-3.443252965807915">
        <ele>481.42</ele>
      </trkpt>
      <trkpt lat="43.24115501716733" lon="-3.442898998036981">
        <ele>492.41</ele>
      </trkpt>
      <trkpt lat="43.24113498441875" lon="-3.442805036902428">
        <ele>489.96</ele>
      </trkpt>
      <trkpt lat="43.24113196693361" lon="-3.442673021927476">
        <ele>490.47</ele>
      </trkpt>
      <trkpt lat="43.241168009117246" lon="-3.442480992525816">
        <ele>496.9999999999999</ele>
      </trkpt>
      <trkpt lat="43.24109299108386" lon="-3.442164994776249">
        <ele>490.07</ele>
      </trkpt>
      <trkpt lat="43.241105983033776" lon="-3.441934995353222">
        <ele>491.77</ele>
      </trkpt>
      <trkpt lat="43.24119701050222" lon="-3.44173701480031">
        <ele>503.8299999999999</ele>
      </trkpt>
      <trkpt lat="43.241228023543954" lon="-3.441563006490469">
        <ele>506.24</ele>
      </trkpt>
      <trkpt lat="43.24134796857834" lon="-3.441294031217694">
        <ele>515.25</ele>
      </trkpt>
      <trkpt lat="43.2414189632982" lon="-3.441066965460777">
        <ele>522.19</ele>
      </trkpt>
      <trkpt lat="43.2413880340755" lon="-3.440698999911547">
        <ele>528.34</ele>
      </trkpt>
      <trkpt lat="43.241280997172" lon="-3.440347965806723">
        <ele>536.82</ele>
      </trkpt>
      <trkpt lat="43.24124202132225" lon="-3.440073039382696">
        <ele>552.13</ele>
      </trkpt>
      <trkpt lat="43.241228023543954" lon="-3.440029034391046">
        <ele>554.77</ele>
      </trkpt>
      <trkpt lat="43.241147976368666" lon="-3.439904982224107">
        <ele>555.33</ele>
      </trkpt>
      <trkpt lat="43.241038005799055" lon="-3.439687974750996">
        <ele>555.91</ele>
      </trkpt>
      <trkpt lat="43.24101202189922" lon="-3.439601976424456">
        <ele>556.81</ele>
      </trkpt>
      <trkpt lat="43.24102501384914" lon="-3.439550008624792">
        <ele>556.66</ele>
      </trkpt>
      <trkpt lat="43.240971034392715" lon="-3.439430985599756">
        <ele>558.14</ele>
      </trkpt>
      <trkpt lat="43.24091303162277" lon="-3.439321015030146">
        <ele>559.03</ele>
      </trkpt>
      <trkpt lat="43.2409009616822" lon="-3.439227975904942">
        <ele>558.71</ele>
      </trkpt>
      <trkpt lat="43.240847988054156" lon="-3.439079029485583">
        <ele>557.26</ele>
      </trkpt>
      <trkpt lat="43.240779004991055" lon="-3.438793960958719">
        <ele>559.18</ele>
      </trkpt>
      <trkpt lat="43.24071002192795" lon="-3.438669992610812">
        <ele>560.61</ele>
      </trkpt>
      <trkpt lat="43.24072703719139" lon="-3.438567984849215">
        <ele>561.75</ele>
      </trkpt>
      <trkpt lat="43.240758972242475" lon="-3.438530014827848">
        <ele>563.12</ele>
      </trkpt>
      <trkpt lat="43.24085997417569" lon="-3.438388025388122">
        <ele>571.19</ele>
      </trkpt>
      <trkpt lat="43.24096600525081" lon="-3.438405962660909">
        <ele>575.55</ele>
      </trkpt>
      <trkpt lat="43.24109198525548" lon="-3.43845097348094">
        <ele>580.57</ele>
      </trkpt>
      <trkpt lat="43.241148982197046" lon="-3.438610984012485">
        <ele>577.72</ele>
      </trkpt>
      <trkpt lat="43.2412479724735" lon="-3.438688013702631">
        <ele>574.83</ele>
      </trkpt>
      <trkpt lat="43.24133195914328" lon="-3.438620958477259">
        <ele>576.19</ele>
      </trkpt>
      <trkpt lat="43.24138602241874" lon="-3.438475029543042">
        <ele>575.15</ele>
      </trkpt>
      <trkpt lat="43.24134796857834" lon="-3.438425995409489">
        <ele>575.71</ele>
      </trkpt>
      <trkpt lat="43.2412669993937" lon="-3.438219968229532">
        <ele>578</ele>
      </trkpt>
      <trkpt lat="43.24127001687884" lon="-3.438045037910342">
        <ele>576.91</ele>
      </trkpt>
      <trkpt lat="43.241273034363985" lon="-3.437904976308346">
        <ele>576.29</ele>
      </trkpt>
      <trkpt lat="43.24124998413026" lon="-3.437788970768452">
        <ele>576.63</ele>
      </trkpt>
      <trkpt lat="43.24119902215898" lon="-3.437452018260956">
        <ele>581.53</ele>
      </trkpt>
      <trkpt lat="43.24118200689554" lon="-3.437124034389854">
        <ele>586.85</ele>
      </trkpt>
      <trkpt lat="43.24123799800873" lon="-3.436885988339782">
        <ele>588.56</ele>
      </trkpt>
      <trkpt lat="43.24133296497166" lon="-3.436737963929772">
        <ele>588.31</ele>
      </trkpt>
      <trkpt lat="43.24148501269519" lon="-3.436498995870352">
        <ele>588.86</ele>
      </trkpt>
      <trkpt lat="43.241572016850114" lon="-3.436315013095737">
        <ele>589.65</ele>
      </trkpt>
      <trkpt lat="43.241619039326906" lon="-3.436013013124466">
        <ele>593.54</ele>
      </trkpt>
      <trkpt lat="43.241596994921565" lon="-3.435646975412965">
        <ele>598.41</ele>
      </trkpt>
      <trkpt lat="43.24156003072858" lon="-3.435310022905469">
        <ele>603.4</ele>
      </trkpt>
      <trkpt lat="43.241576962172985" lon="-3.434999976307154">
        <ele>607.16</ele>
      </trkpt>
      <trkpt lat="43.24156296439469" lon="-3.434812976047397">
        <ele>611.47</ele>
      </trkpt>
      <trkpt lat="43.2415450271219" lon="-3.434467976912856">
        <ele>617.84</ele>
      </trkpt>
      <trkpt lat="43.241556007415056" lon="-3.434127001091838">
        <ele>623.31</ele>
      </trkpt>
      <trkpt lat="43.24159297160804" lon="-3.433764986693859">
        <ele>628.15</ele>
      </trkpt>
      <trkpt lat="43.24172196909785" lon="-3.433486958965659">
        <ele>630.82</ele>
      </trkpt>
      <trkpt lat="43.24182699434459" lon="-3.433188982307911">
        <ele>635.09</ele>
      </trkpt>
      <trkpt lat="43.24195196852088" lon="-3.432844989001751">
        <ele>635.24</ele>
      </trkpt>
      <trkpt lat="43.24208197183907" lon="-3.432478029280901">
        <ele>631.08</ele>
      </trkpt>
      <trkpt lat="43.242304008454084" lon="-3.432033034041524">
        <ele>625.04</ele>
      </trkpt>
      <trkpt lat="43.242371985688806" lon="-3.431892972439528">
        <ele>623.89</ele>
      </trkpt>
      <trkpt lat="43.24253601953387" lon="-3.431615028530359">
        <ele>617.27</ele>
      </trkpt>
      <trkpt lat="43.24257700704038" lon="-3.431433979421854">
        <ele>616.82</ele>
      </trkpt>
      <trkpt lat="43.24274900369346" lon="-3.43093098141253">
        <ele>609.81</ele>
      </trkpt>
      <trkpt lat="43.24285302311182" lon="-3.430389007553458">
        <ele>604.67</ele>
      </trkpt>
      <trkpt lat="43.242908008396626" lon="-3.430223967880011">
        <ele>601.91</ele>
      </trkpt>
      <trkpt lat="43.24302200227976" lon="-3.429906964302063">
        <ele>595.96</ele>
      </trkpt>
      <trkpt lat="43.24317597784102" lon="-3.42962097376585">
        <ele>587.87</ele>
      </trkpt>
      <trkpt lat="43.24328896589577" lon="-3.429332971572876">
        <ele>580.13</ele>
      </trkpt>
      <trkpt lat="43.243315033614635" lon="-3.428929969668388">
        <ele>573.85</ele>
      </trkpt>
      <trkpt lat="43.24329701252282" lon="-3.428789991885424">
        <ele>572.83</ele>
      </trkpt>
      <trkpt lat="43.24326700530946" lon="-3.428430994972587">
        <ele>567.91</ele>
      </trkpt>
      <trkpt lat="43.24324202723801" lon="-3.427849039435387">
        <ele>558.15</ele>
      </trkpt>
      <trkpt lat="43.243205985054374" lon="-3.42747000977397">
        <ele>549.5</ele>
      </trkpt>
      <trkpt lat="43.243058966472745" lon="-3.427200028672814">
        <ele>547.06</ele>
      </trkpt>
      <trkpt lat="43.24295897036791" lon="-3.426975980401039">
        <ele>543.06</ele>
      </trkpt>
      <trkpt lat="43.24296399950981" lon="-3.42678202316165">
        <ele>536.06</ele>
      </trkpt>
      <trkpt lat="43.24302602559328" lon="-3.426770037040114">
        <ele>532.37</ele>
      </trkpt>
      <trkpt lat="43.24298503808677" lon="-3.426522016525269">
        <ele>527.86</ele>
      </trkpt>
      <trkpt lat="43.243037005886436" lon="-3.42641900293529">
        <ele>523.41</ele>
      </trkpt>
      <trkpt lat="43.243143958970904" lon="-3.42644196934998">
        <ele>519.76</ele>
      </trkpt>
      <trkpt lat="43.243335988372564" lon="-3.426559986546636">
        <ele>514.48</ele>
      </trkpt>
      <trkpt lat="43.243445036932826" lon="-3.42648203484714">
        <ele>510.11</ele>
      </trkpt>
      <trkpt lat="43.243399020284414" lon="-3.42620400711894">
        <ele>507.8399999999999</ele>
      </trkpt>
      <trkpt lat="43.24340698309243" lon="-3.425957998260856">
        <ele>504.1399999999999</ele>
      </trkpt>
      <trkpt lat="43.24337395839393" lon="-3.425779966637492">
        <ele>502.17</ele>
      </trkpt>
      <trkpt lat="43.24331997893751" lon="-3.42560201883316">
        <ele>500.78</ele>
      </trkpt>
      <trkpt lat="43.24321897700429" lon="-3.425342012196779">
        <ele>499.64</ele>
      </trkpt>
      <trkpt lat="43.24305301532149" lon="-3.425005981698632">
        <ele>498.03</ele>
      </trkpt>
      <trkpt lat="43.24294103309512" lon="-3.424823004752398">
        <ele>499.66</ele>
      </trkpt>
      <trkpt lat="43.24271799065173" lon="-3.424533996731043">
        <ele>496.7499999999999</ele>
      </trkpt>
      <trkpt lat="43.24266199953854" lon="-3.424228979274631">
        <ele>497.15</ele>
      </trkpt>
      <trkpt lat="43.242670968174934" lon="-3.424071986228228">
        <ele>498.51</ele>
      </trkpt>
      <trkpt lat="43.242605002596974" lon="-3.423830000683665">
        <ele>501.42</ele>
      </trkpt>
      <trkpt lat="43.2426640111953" lon="-3.423652974888682">
        <ele>505.07</ele>
      </trkpt>
      <trkpt lat="43.242710027843714" lon="-3.423479972407222">
        <ele>509.0099999999999</ele>
      </trkpt>
      <trkpt lat="43.24265797622502" lon="-3.423333959653974">
        <ele>511.38</ele>
      </trkpt>
      <trkpt lat="43.24263601563871" lon="-3.422984015196562">
        <ele>520.64</ele>
      </trkpt>
      <trkpt lat="43.24263601563871" lon="-3.422984015196562">
        <ele>520.64</ele>
      </trkpt>
      <trkpt lat="43.24263601563871" lon="-3.422954007983208">
        <ele>521.7</ele>
      </trkpt>
      <trkpt lat="43.242630986496806" lon="-3.422830039635301">
        <ele>525.22</ele>
      </trkpt>
      <trkpt lat="43.242625035345554" lon="-3.422763990238309">
        <ele>527.12</ele>
      </trkpt>
      <trkpt lat="43.24259796179831" lon="-3.422685032710433">
        <ele>528.97</ele>
      </trkpt>
      <trkpt lat="43.24258295819163" lon="-3.42263599857688">
        <ele>530.06</ele>
      </trkpt>
      <trkpt lat="43.242576001212" lon="-3.42255000025034">
        <ele>532.38</ele>
      </trkpt>
      <trkpt lat="43.24258002452552" lon="-3.422517981380224">
        <ele>533.42</ele>
      </trkpt>
      <trkpt lat="43.24258002452552" lon="-3.422517981380224">
        <ele>533.42</ele>
      </trkpt>
      <trkpt lat="43.24257398955524" lon="-3.422432988882065">
        <ele>535.22</ele>
      </trkpt>
      <trkpt lat="43.24255202896893" lon="-3.422368029132485">
        <ele>535.91</ele>
      </trkpt>
      <trkpt lat="43.242562003433704" lon="-3.422344978898764">
        <ele>536.83</ele>
      </trkpt>
      <trkpt lat="43.242562003433704" lon="-3.422264009714127">
        <ele>538.76</ele>
      </trkpt>
      <trkpt lat="43.24256803840399" lon="-3.422211958095431">
        <ele>540.25</ele>
      </trkpt>
      <trkpt lat="43.242539037019014" lon="-3.422162001952529">
        <ele>540.05</ele>
      </trkpt>
      <trkpt lat="43.24252596125007" lon="-3.422105005010963">
        <ele>540.72</ele>
      </trkpt>
      <trkpt lat="43.24252503924072" lon="-3.422038033604622">
        <ele>542.17</ele>
      </trkpt>
      <trkpt lat="43.242520010098815" lon="-3.421920016407967">
        <ele>544.63</ele>
      </trkpt>
      <trkpt lat="43.24252503924072" lon="-3.421797975897789">
        <ele>548.33</ele>
      </trkpt>
      <trkpt lat="43.24250601232052" lon="-3.421612987294793">
        <ele>552.63</ele>
      </trkpt>
      <trkpt lat="43.24246603064239" lon="-3.421334037557244">
        <ele>558.65</ele>
      </trkpt>
      <trkpt lat="43.24232496321201" lon="-3.420928018167615">
        <ele>562.74</ele>
      </trkpt>
      <trkpt lat="43.242305014282465" lon="-3.420783011242747">
        <ele>564.74</ele>
      </trkpt>
      <trkpt lat="43.24233803898096" lon="-3.42048997990787">
        <ele>571.97</ele>
      </trkpt>
      <trkpt lat="43.242324041202664" lon="-3.420351007953286">
        <ele>575.07</ele>
      </trkpt>
      <trkpt lat="43.24228900484741" lon="-3.420152021571994">
        <ele>580.27</ele>
      </trkpt>
      <trkpt lat="43.24235798791051" lon="-3.419893020763993">
        <ele>589.47</ele>
      </trkpt>
      <trkpt lat="43.2424380350858" lon="-3.419786989688873">
        <ele>594.05</ele>
      </trkpt>
      <trkpt lat="43.242630986496806" lon="-3.419654974713922">
        <ele>603.11</ele>
      </trkpt>
      <trkpt lat="43.24268697760999" lon="-3.41952295973897">
        <ele>609.16</ele>
      </trkpt>
      <trkpt lat="43.242713967338204" lon="-3.419373007491231">
        <ele>614.81</ele>
      </trkpt>
      <trkpt lat="43.242797031998634" lon="-3.419249039143324">
        <ele>620.94</ele>
      </trkpt>
      <trkpt lat="43.242839025333524" lon="-3.419079976156354">
        <ele>627.5</ele>
      </trkpt>
      <trkpt lat="43.24278102256358" lon="-3.41883203946054">
        <ele>635.36</ele>
      </trkpt>
      <trkpt lat="43.242798037827015" lon="-3.418602040037513">
        <ele>644.65</ele>
      </trkpt>
      <trkpt lat="43.242904990911484" lon="-3.418442029505968">
        <ele>651.51</ele>
      </trkpt>
      <trkpt lat="43.243060978129506" lon="-3.418373968452215">
        <ele>657.59</ele>
      </trkpt>
      <trkpt lat="43.243292989209294" lon="-3.418042967095971">
        <ele>674.7</ele>
      </trkpt>
      <trkpt lat="43.243361972272396" lon="-3.417817996814847">
        <ele>682.17</ele>
      </trkpt>
      <trkpt lat="43.243404971435666" lon="-3.417595038190484">
        <ele>687.9</ele>
      </trkpt>
      <trkpt lat="43.24341502971947" lon="-3.417569976300001">
        <ele>688.54</ele>
      </trkpt>
      <trkpt lat="43.2435430213809" lon="-3.417103020474315">
        <ele>701.81</ele>
      </trkpt>
      <trkpt lat="43.24339700862765" lon="-3.416724996641278">
        <ele>704.71</ele>
      </trkpt>
      <trkpt lat="43.24330497533083" lon="-3.416338004171848">
        <ele>709.41</ele>
      </trkpt>
      <trkpt lat="43.243205985054374" lon="-3.416103981435299">
        <ele>712.23</ele>
      </trkpt>
      <trkpt lat="43.24307103641331" lon="-3.415917987003923">
        <ele>711.66</ele>
      </trkpt>
      <trkpt lat="43.24297900311649" lon="-3.415642976760864">
        <ele>714.51</ele>
      </trkpt>
      <trkpt lat="43.24289199896157" lon="-3.415479026734829">
        <ele>714.52</ele>
      </trkpt>
      <trkpt lat="43.24279200285673" lon="-3.415284985676408">
        <ele>714.46</ele>
      </trkpt>
      <trkpt lat="43.24268002063036" lon="-3.414963036775589">
        <ele>716.43</ele>
      </trkpt>
      <trkpt lat="43.24269804172218" lon="-3.414750974625349">
        <ele>719.05</ele>
      </trkpt>
      <trkpt lat="43.24268102645874" lon="-3.414627006277442">
        <ele>721.89</ele>
      </trkpt>
      <trkpt lat="43.24263601563871" lon="-3.413963997736573">
        <ele>742.31</ele>
      </trkpt>
      <trkpt lat="43.24270097538829" lon="-3.413598965853453">
        <ele>753.24</ele>
      </trkpt>
      <trkpt lat="43.2427660189569" lon="-3.41350601054728">
        <ele>755.6</ele>
      </trkpt>
      <trkpt lat="43.24298302643001" lon="-3.413343988358975">
        <ele>763.69</ele>
      </trkpt>
      <trkpt lat="43.24312602169812" lon="-3.413189006969333">
        <ele>772.99</ele>
      </trkpt>
      <trkpt lat="43.2432840205729" lon="-3.413018016144633">
        <ele>782.81</ele>
      </trkpt>
      <trkpt lat="43.2433670014143" lon="-3.412846019491553">
        <ele>789.35</ele>
      </trkpt>
      <trkpt lat="43.24349599890411" lon="-3.412886001169682">
        <ele>792.41</ele>
      </trkpt>
      <trkpt lat="43.24362700805068" lon="-3.412852976471186">
        <ele>797.46</ele>
      </trkpt>
      <trkpt lat="43.243872011080384" lon="-3.412811988964677">
        <ele>810.15</ele>
      </trkpt>
      <trkpt lat="43.24408398941159" lon="-3.412745017558336">
        <ele>814.9199999999998</ele>
      </trkpt>
      <trkpt lat="43.24419999495149" lon="-3.412912990897894">
        <ele>816.3699999999999</ele>
      </trkpt>
      <trkpt lat="43.244241988286376" lon="-3.41303301975131">
        <ele>815.61</ele>
      </trkpt>
      <trkpt lat="43.244257997721434" lon="-3.413050035014749">
        <ele>815.71</ele>
      </trkpt>
      <trkpt lat="43.24442597106099" lon="-3.413104014471173">
        <ele>815.6699999999998</ele>
      </trkpt>
      <trkpt lat="43.24468396604061" lon="-3.413172997534275">
        <ele>809.65</ele>
      </trkpt>
      <trkpt lat="43.244837019592524" lon="-3.41329101473093">
        <ele>809.39</ele>
      </trkpt>
      <trkpt lat="43.24504497461021" lon="-3.413363015279174">
        <ele>808.8099999999998</ele>
      </trkpt>
      <trkpt lat="43.24525896459818" lon="-3.413375001400709">
        <ele>807.28</ele>
      </trkpt>
      <trkpt lat="43.24549801647663" lon="-3.41327098198235">
        <ele>801.7799999999999</ele>
      </trkpt>
      <trkpt lat="43.24567303061485" lon="-3.413195963948965">
        <ele>796.4699999999999</ele>
      </trkpt>
      <trkpt lat="43.24576003476977" lon="-3.413022039458156">
        <ele>790.77</ele>
      </trkpt>
      <trkpt lat="43.24581502005458" lon="-3.412881977856159">
        <ele>784.36</ele>
      </trkpt>
      <trkpt lat="43.24585902504623" lon="-3.4129040222615">
        <ele>783.31</ele>
      </trkpt>
      <trkpt lat="43.24594301171601" lon="-3.412887006998062">
        <ele>779.9699999999999</ele>
      </trkpt>
      <trkpt lat="43.245958015322685" lon="-3.41284099034965">
        <ele>778.42</ele>
      </trkpt>
      <trkpt lat="43.24590101838112" lon="-3.412736970931292">
        <ele>777.68</ele>
      </trkpt>
      <trkpt lat="43.245870005339384" lon="-3.412548964843154">
        <ele>772.75</ele>
      </trkpt>
      <trkpt lat="43.24581803753972" lon="-3.412513006478548">
        <ele>772.52</ele>
      </trkpt>
      <trkpt lat="43.24584301561117" lon="-3.412389038130641">
        <ele>768.21</ele>
      </trkpt>
      <trkpt lat="43.24584301561117" lon="-3.412389038130641">
        <ele>768.21</ele>
      </trkpt>
      <trkpt lat="43.2459710072726" lon="-3.412189967930317">
        <ele>760.81</ele>
      </trkpt>
      <trkpt lat="43.24604803696275" lon="-3.41206700541079">
        <ele>758.16</ele>
      </trkpt>
      <trkpt lat="43.246153984218836" lon="-3.411935996264219">
        <ele>756.53</ele>
      </trkpt>
      <trkpt lat="43.2461893150631" lon="-3.4119267772829884">
        <ele>756.2319912548536</ele>
      </trkpt>
      <trkpt lat="43.24626898393035" lon="-3.411905989050865">
        <ele>755.56</ele>
      </trkpt>
      <trkpt lat="43.24636202305555" lon="-3.41178797185421">
        <ele>754.97</ele>
      </trkpt>
      <trkpt lat="43.246432120614266" lon="-3.411692654838622">
        <ele>752.7647936728658</ele>
      </trkpt>
      <trkpt lat="43.24643704108894" lon="-3.411685964092612">
        <ele>752.61</ele>
      </trkpt>
      <trkpt lat="43.24646595865488" lon="-3.411549003794789">
        <ele>750.56</ele>
      </trkpt>
      <trkpt lat="43.246497977524996" lon="-3.411343982443214">
        <ele>748.72</ele>
      </trkpt>
      <trkpt lat="43.24655628031904" lon="-3.4111738801022105">
        <ele>747.8740250001581</ele>
      </trkpt>
      <trkpt lat="43.246595" lon="-3.411064">
        <ele>752.27</ele>
      </trkpt>
      <trkpt lat="43.24663" lon="-3.411062">
        <ele>752.45</ele>
      </trkpt>
      <trkpt lat="43.246627" lon="-3.411095">
        <ele>751.92</ele>
      </trkpt>
      <trkpt lat="43.246672" lon="-3.411117">
        <ele>751.08</ele>
      </trkpt>
      <trkpt lat="43.246675" lon="-3.411151">
        <ele>750.08</ele>
      </trkpt>
      <trkpt lat="43.246701" lon="-3.411144">
        <ele>748.85</ele>
      </trkpt>
      <trkpt lat="43.246707" lon="-3.411171">
        <ele>747.72</ele>
      </trkpt>
      <trkpt lat="43.246766" lon="-3.411178">
        <ele>744.21</ele>
      </trkpt>
      <trkpt lat="43.246807" lon="-3.411164">
        <ele>742.61</ele>
      </trkpt>
      <trkpt lat="43.246807" lon="-3.411164">
        <ele>742.59</ele>
      </trkpt>
      <trkpt lat="43.246928" lon="-3.411174">
        <ele>738.06</ele>
      </trkpt>
      <trkpt lat="43.247035" lon="-3.411164">
        <ele>735.74</ele>
      </trkpt>
      <trkpt lat="43.247142" lon="-3.411188">
        <ele>733.21</ele>
      </trkpt>
      <trkpt lat="43.247293" lon="-3.411196">
        <ele>730.59</ele>
      </trkpt>
      <trkpt lat="43.247434" lon="-3.411236">
        <ele>727.79</ele>
      </trkpt>
      <trkpt lat="43.247652" lon="-3.411373">
        <ele>725.15</ele>
      </trkpt>
      <trkpt lat="43.247792" lon="-3.411386">
        <ele>725.09</ele>
      </trkpt>
      <trkpt lat="43.247823" lon="-3.411413">
        <ele>725.43</ele>
      </trkpt>
      <trkpt lat="43.247849" lon="-3.411503">
        <ele>726.38</ele>
      </trkpt>
      <trkpt lat="43.247882" lon="-3.411579">
        <ele>727.59</ele>
      </trkpt>
      <trkpt lat="43.247934" lon="-3.411649">
        <ele>730.5</ele>
      </trkpt>
      <trkpt lat="43.247953" lon="-3.411689">
        <ele>731.97</ele>
      </trkpt>
      <trkpt lat="43.247953" lon="-3.411689">
        <ele>731.96</ele>
      </trkpt>
      <trkpt lat="43.248016" lon="-3.411878">
        <ele>736.61</ele>
      </trkpt>
      <trkpt lat="43.248009" lon="-3.411917">
        <ele>737.1</ele>
      </trkpt>
      <trkpt lat="43.247988" lon="-3.411968">
        <ele>737.61</ele>
      </trkpt>
      <trkpt lat="43.247998" lon="-3.412017">
        <ele>738.87</ele>
      </trkpt>
      <trkpt lat="43.248017" lon="-3.412013">
        <ele>739.34</ele>
      </trkpt>
      <trkpt lat="43.248037" lon="-3.412033">
        <ele>740.35</ele>
      </trkpt>
      <trkpt lat="43.248113" lon="-3.412258">
        <ele>745.91</ele>
      </trkpt>
      <trkpt lat="43.248137" lon="-3.412353">
        <ele>746.89</ele>
      </trkpt>
      <trkpt lat="43.248157" lon="-3.412401">
        <ele>747.88</ele>
      </trkpt>
      <trkpt lat="43.248184" lon="-3.412387">
        <ele>749.15</ele>
      </trkpt>
      <trkpt lat="43.24823" lon="-3.412435">
        <ele>752.63</ele>
      </trkpt>
      <trkpt lat="43.248311" lon="-3.412443">
        <ele>758.24</ele>
      </trkpt>
      <trkpt lat="43.248323" lon="-3.412385">
        <ele>757.77</ele>
      </trkpt>
      <trkpt lat="43.248341" lon="-3.41234">
        <ele>757.14</ele>
      </trkpt>
      <trkpt lat="43.248367" lon="-3.412344">
        <ele>758.4</ele>
      </trkpt>
      <trkpt lat="43.248427" lon="-3.412405">
        <ele>762.11</ele>
      </trkpt>
      <trkpt lat="43.248427" lon="-3.412405">
        <ele>762.11</ele>
      </trkpt>
      <trkpt lat="43.248476" lon="-3.412455">
        <ele>765.15</ele>
      </trkpt>
      <trkpt lat="43.248578" lon="-3.412525">
        <ele>767.23</ele>
      </trkpt>
      <trkpt lat="43.248697" lon="-3.412643">
        <ele>769.9</ele>
      </trkpt>
      <trkpt lat="43.248795" lon="-3.412772">
        <ele>772.74</ele>
      </trkpt>
      <trkpt lat="43.248836" lon="-3.4128">
        <ele>772.49</ele>
      </trkpt>
      <trkpt lat="43.248904" lon="-3.412797">
        <ele>772.48</ele>
      </trkpt>
      <trkpt lat="43.248948" lon="-3.412831">
        <ele>773.16</ele>
      </trkpt>
      <trkpt lat="43.249042" lon="-3.412853">
        <ele>774.29</ele>
      </trkpt>
      <trkpt lat="43.249119" lon="-3.412905">
        <ele>776.59</ele>
      </trkpt>
      <trkpt lat="43.249134" lon="-3.412935">
        <ele>777.12</ele>
      </trkpt>
      <trkpt lat="43.249171" lon="-3.413007">
        <ele>778.38</ele>
      </trkpt>
      <trkpt lat="43.249247" lon="-3.413049">
        <ele>771.47</ele>
      </trkpt>
      <trkpt lat="43.249284" lon="-3.413092">
        <ele>772.24</ele>
      </trkpt>
      <trkpt lat="43.249314" lon="-3.413102">
        <ele>771.02</ele>
      </trkpt>
      <trkpt lat="43.249355" lon="-3.413138">
        <ele>767.39</ele>
      </trkpt>
      <trkpt lat="43.249368" lon="-3.413158">
        <ele>767.37</ele>
      </trkpt>
      <trkpt lat="43.249374" lon="-3.413209">
        <ele>771.39</ele>
      </trkpt>
      <trkpt lat="43.249392" lon="-3.413237">
        <ele>773.48</ele>
      </trkpt>
      <trkpt lat="43.249411" lon="-3.413247">
        <ele>774.2</ele>
      </trkpt>
      <trkpt lat="43.249459" lon="-3.413247">
        <ele>771.38</ele>
      </trkpt>
      <trkpt lat="43.24949199333787" lon="-3.413626039400697">
        <ele>771.96</ele>
      </trkpt>
      <trkpt lat="43.24940901249647" lon="-3.413640959188342">
        <ele>768.11</ele>
      </trkpt>
      <trkpt lat="43.249375987797976" lon="-3.41367700137198">
        <ele>765.07</ele>
      </trkpt>
      <trkpt lat="43.24933902360499" lon="-3.413765011355281">
        <ele>759.62</ele>
      </trkpt>
      <trkpt lat="43.249287977814674" lon="-3.413824019953609">
        <ele>754.97</ele>
      </trkpt>
      <trkpt lat="43.2492920011282" lon="-3.414067011326551">
        <ele>744.82</ele>
      </trkpt>
      <trkpt lat="43.24927004054189" lon="-3.414077991619706">
        <ele>743.63</ele>
      </trkpt>
      <trkpt lat="43.24931798502803" lon="-3.414182011038065">
        <ele>740.88</ele>
      </trkpt>
      <trkpt lat="43.249332988634706" lon="-3.414315031841397">
        <ele>736.3799999999999</ele>
      </trkpt>
      <trkpt lat="43.249223018065095" lon="-3.414241019636393">
        <ele>736.13</ele>
      </trkpt>
      <trkpt lat="43.24908597394824" lon="-3.414163989946246">
        <ele>735.11</ele>
      </trkpt>
      <trkpt lat="43.24882596731186" lon="-3.41404496692121">
        <ele>731.71</ele>
      </trkpt>
      <trkpt lat="43.248622035607696" lon="-3.413985036313534">
        <ele>727.55</ele>
      </trkpt>
      <trkpt lat="43.24842003174126" lon="-3.414011020213366">
        <ele>722.64</ele>
      </trkpt>
      <trkpt lat="43.24826303869486" lon="-3.414049996063113">
        <ele>719.71</ele>
      </trkpt>
      <trkpt lat="43.248168993741274" lon="-3.41419299133122">
        <ele>717.05</ele>
      </trkpt>
      <trkpt lat="43.24811803176999" lon="-3.414460038766265">
        <ele>712.63</ele>
      </trkpt>
      <trkpt lat="43.248085007071495" lon="-3.414717027917504">
        <ele>710.66</ele>
      </trkpt>
      <trkpt lat="43.24802599847317" lon="-3.414863040670753">
        <ele>711.59</ele>
      </trkpt>
      <trkpt lat="43.24801099486649" lon="-3.415021961554885">
        <ele>711.29</ele>
      </trkpt>
      <trkpt lat="43.247910998761654" lon="-3.415135033428669">
        <ele>713.51</ele>
      </trkpt>
      <trkpt lat="43.24785802513361" lon="-3.415210973471403">
        <ele>714.75</ele>
      </trkpt>
      <trkpt lat="43.247761968523264" lon="-3.415427980944514">
        <ele>717.11</ele>
      </trkpt>
      <trkpt lat="43.247720981016755" lon="-3.415586985647678">
        <ele>718.18</ele>
      </trkpt>
      <trkpt lat="43.247630037367344" lon="-3.415759988129139">
        <ele>721.4</ele>
      </trkpt>
      <trkpt lat="43.24765903875232" lon="-3.415901977568865">
        <ele>719.54</ele>
      </trkpt>
      <trkpt lat="43.24765903875232" lon="-3.415901977568865">
        <ele>719.54</ele>
      </trkpt>
      <trkpt lat="43.24766599573195" lon="-3.416056958958507">
        <ele>719.64</ele>
      </trkpt>
      <trkpt lat="43.247659960761666" lon="-3.416373962536454">
        <ele>723.25</ele>
      </trkpt>
      <trkpt lat="43.24770698323846" lon="-3.416520981118083">
        <ele>720.02</ele>
      </trkpt>
      <trkpt lat="43.24762400239706" lon="-3.416568003594875">
        <ele>721.51</ele>
      </trkpt>
      <trkpt lat="43.2475390098989" lon="-3.416656013578177">
        <ele>722.23</ele>
      </trkpt>
      <trkpt lat="43.247421998530626" lon="-3.416790962219238">
        <ele>720.98</ele>
      </trkpt>
      <trkpt lat="43.24737397022545" lon="-3.416848964989185">
        <ele>719.84</ele>
      </trkpt>
      <trkpt lat="43.24734102934599" lon="-3.417035965248942">
        <ele>716.36</ele>
      </trkpt>
      <trkpt lat="43.24723801575601" lon="-3.417225982993841">
        <ele>712.29</ele>
      </trkpt>
      <trkpt lat="43.24713399633765" lon="-3.417449025437236">
        <ele>708.31</ele>
      </trkpt>
      <trkpt lat="43.247031988576055" lon="-3.417628984898329">
        <ele>703.45</ele>
      </trkpt>
      <trkpt lat="43.246970968320966" lon="-3.417708026245236">
        <ele>701.09</ele>
      </trkpt>
      <trkpt lat="43.246902991086245" lon="-3.417816990986466">
        <ele>698.01</ele>
      </trkpt>
      <trkpt lat="43.24676997028291" lon="-3.417986975982785">
        <ele>694.26</ele>
      </trkpt>
      <trkpt lat="43.24656302109361" lon="-3.418151009827852">
        <ele>690.48</ele>
      </trkpt>
      <trkpt lat="43.246494960039854" lon="-3.41831898316741">
        <ele>686.02</ele>
      </trkpt>
      <trkpt lat="43.24637903831899" lon="-3.41849097982049">
        <ele>682.11</ele>
      </trkpt>
      <trkpt lat="43.246387001127005" lon="-3.418620983138681">
        <ele>678.84</ele>
      </trkpt>
      <trkpt lat="43.246496971696615" lon="-3.418819969519973">
        <ele>674.16</ele>
      </trkpt>
      <trkpt lat="43.24659897945821" lon="-3.418980985879898">
        <ele>670.38</ele>
      </trkpt>
      <trkpt lat="43.24659897945821" lon="-3.418980985879898">
        <ele>670.38</ele>
      </trkpt>
      <trkpt lat="43.246691012755036" lon="-3.419058015570045">
        <ele>668.26</ele>
      </trkpt>
      <trkpt lat="43.2468449883163" lon="-3.41922196559608">
        <ele>663.82</ele>
      </trkpt>
      <trkpt lat="43.24683400802314" lon="-3.419319028034806">
        <ele>662.46</ele>
      </trkpt>
      <trkpt lat="43.24693903326988" lon="-3.419517008587718">
        <ele>659.08</ele>
      </trkpt>
      <trkpt lat="43.24716702103615" lon="-3.419869970530272">
        <ele>654.75</ele>
      </trkpt>
      <trkpt lat="43.247356032952666" lon="-3.420125031843782">
        <ele>652.15</ele>
      </trkpt>
      <trkpt lat="43.247696002945304" lon="-3.420429965481162">
        <ele>643.31</ele>
      </trkpt>
      <trkpt lat="43.2479880284518" lon="-3.420825004577637">
        <ele>633.49</ele>
      </trkpt>
      <trkpt lat="43.24817402288318" lon="-3.42068200930953">
        <ele>625.85</ele>
      </trkpt>
      <trkpt lat="43.248362028971314" lon="-3.420551000162959">
        <ele>618.12</ele>
      </trkpt>
      <trkpt lat="43.248665034770966" lon="-3.420914020389319">
        <ele>606.69</ele>
      </trkpt>
      <trkpt lat="43.248665034770966" lon="-3.420914020389319">
        <ele>606.69</ele>
      </trkpt>
      <trkpt lat="43.248795960098505" lon="-3.421439984813333">
        <ele>597.01</ele>
      </trkpt>
      <trkpt lat="43.24895303696394" lon="-3.421636037528515">
        <ele>590.3</ele>
      </trkpt>
      <trkpt lat="43.24895303696394" lon="-3.421636037528515">
        <ele>590.3</ele>
      </trkpt>
      <trkpt lat="43.249157974496484" lon="-3.421769980341196">
        <ele>581.46</ele>
      </trkpt>
      <trkpt lat="43.249629037454724" lon="-3.421486001461744">
        <ele>563.47</ele>
      </trkpt>
      <trkpt lat="43.24969097971916" lon="-3.421085011214018">
        <ele>560.56</ele>
      </trkpt>
      <trkpt lat="43.249869011342525" lon="-3.420799020677805">
        <ele>554.44</ele>
      </trkpt>
      <trkpt lat="43.250080989673734" lon="-3.420697012916207">
        <ele>546.69</ele>
      </trkpt>
      <trkpt lat="43.250382989645004" lon="-3.420347990468144">
        <ele>534.71</ele>
      </trkpt>
      <trkpt lat="43.25051601044834" lon="-3.420305997133255">
        <ele>529.56</ele>
      </trkpt>
      <trkpt lat="43.250826979056" lon="-3.420184962451458">
        <ele>519.94</ele>
      </trkpt>
      <trkpt lat="43.251178013160825" lon="-3.420112961903215">
        <ele>510.6999999999999</ele>
      </trkpt>
      <trkpt lat="43.25158202089369" lon="-3.420044984668493">
        <ele>501.44</ele>
      </trkpt>
      <trkpt lat="43.25201100669801" lon="-3.420044984668493">
        <ele>493.5199999999999</ele>
      </trkpt>
      <trkpt lat="43.252210998907685" lon="-3.420213041827083">
        <ele>490.58</ele>
      </trkpt>
      <trkpt lat="43.25229397974908" lon="-3.420468019321561">
        <ele>483.32</ele>
      </trkpt>
      <trkpt lat="43.252361034974456" lon="-3.420915026217699">
        <ele>475.3099999999999</ele>
      </trkpt>
      <trkpt lat="43.25222298502922" lon="-3.421264970675111">
        <ele>468.76</ele>
      </trkpt>
      <trkpt lat="43.251974964514375" lon="-3.422180023044348">
        <ele>458.3799999999999</ele>
      </trkpt>
      <trkpt lat="43.25190296396613" lon="-3.422648990526795">
        <ele>451.75</ele>
      </trkpt>
      <trkpt lat="43.25161102227867" lon="-3.423273023217917">
        <ele>448.45</ele>
      </trkpt>
      <trkpt lat="43.251459980383515" lon="-3.423808040097356">
        <ele>440.71</ele>
      </trkpt>
      <trkpt lat="43.25144003145397" lon="-3.424282036721706">
        <ele>433.5599999999999</ele>
      </trkpt>
      <trkpt lat="43.25151002034545" lon="-3.424708005040884">
        <ele>426.71</ele>
      </trkpt>
      <trkpt lat="43.25151303783059" lon="-3.425285015255213">
        <ele>418.0199999999999</ele>
      </trkpt>
      <trkpt lat="43.2518270239234" lon="-3.425655998289585">
        <ele>411.61</ele>
      </trkpt>
      <trkpt lat="43.25185895897448" lon="-3.425895972177386">
        <ele>410.42</ele>
      </trkpt>
      <trkpt lat="43.251996003091335" lon="-3.426450015977025">
        <ele>419.34</ele>
      </trkpt>
      <trkpt lat="43.251983" lon="-3.426762">
        <ele>424.99</ele>
      </trkpt>
      <trkpt lat="43.25175" lon="-3.426744">
        <ele>424.85</ele>
      </trkpt>
      <trkpt lat="43.251682" lon="-3.426753">
        <ele>425.17</ele>
      </trkpt>
      <trkpt lat="43.251561" lon="-3.426806">
        <ele>426.62</ele>
      </trkpt>
      <trkpt lat="43.251495" lon="-3.426857">
        <ele>427.8</ele>
      </trkpt>
      <trkpt lat="43.251436" lon="-3.426919">
        <ele>429.04</ele>
      </trkpt>
      <trkpt lat="43.251348" lon="-3.427077">
        <ele>429.45</ele>
      </trkpt>
      <trkpt lat="43.251215" lon="-3.427267">
        <ele>427.39</ele>
      </trkpt>
      <trkpt lat="43.251177" lon="-3.427379">
        <ele>427.67</ele>
      </trkpt>
      <trkpt lat="43.251169" lon="-3.427437">
        <ele>427.75</ele>
      </trkpt>
      <trkpt lat="43.251172" lon="-3.427501">
        <ele>427.96</ele>
      </trkpt>
      <trkpt lat="43.251031" lon="-3.427535">
        <ele>428.34</ele>
      </trkpt>
      <trkpt lat="43.250938" lon="-3.427593">
        <ele>429.35</ele>
      </trkpt>
      <trkpt lat="43.250652" lon="-3.42795">
        <ele>438.32</ele>
      </trkpt>
      <trkpt lat="43.250269" lon="-3.428463">
        <ele>441.46</ele>
      </trkpt>
      <trkpt lat="43.250035" lon="-3.428899">
        <ele>442.86</ele>
      </trkpt>
      <trkpt lat="43.249923" lon="-3.428996">
        <ele>443.94</ele>
      </trkpt>
      <trkpt lat="43.249668" lon="-3.429128">
        <ele>444.11</ele>
      </trkpt>
      <trkpt lat="43.249518" lon="-3.42912">
        <ele>442.56</ele>
      </trkpt>
      <trkpt lat="43.249426" lon="-3.429186">
        <ele>442.26</ele>
      </trkpt>
      <trkpt lat="43.249208" lon="-3.429224">
        <ele>440.02</ele>
      </trkpt>
      <trkpt lat="43.249026" lon="-3.429236">
        <ele>440.16</ele>
      </trkpt>
      <trkpt lat="43.24884" lon="-3.429208">
        <ele>441.31</ele>
      </trkpt>
      <trkpt lat="43.248562" lon="-3.429288">
        <ele>444.11</ele>
      </trkpt>
      <trkpt lat="43.24861" lon="-3.429425">
        <ele>446.48</ele>
      </trkpt>
      <trkpt lat="43.248453" lon="-3.429481">
        <ele>446.81</ele>
      </trkpt>
      <trkpt lat="43.248357" lon="-3.429603">
        <ele>448.88</ele>
      </trkpt>
      <trkpt lat="43.248162" lon="-3.429669">
        <ele>451.03</ele>
      </trkpt>
      <trkpt lat="43.24809" lon="-3.429725">
        <ele>453.53</ele>
      </trkpt>
      <trkpt lat="43.247964" lon="-3.429725">
        <ele>456.03</ele>
      </trkpt>
      <trkpt lat="43.247669" lon="-3.42965">
        <ele>457.44</ele>
      </trkpt>
      <trkpt lat="43.247628" lon="-3.42965">
        <ele>459.03</ele>
      </trkpt>
      <trkpt lat="43.24754" lon="-3.429711">
        <ele>462.3</ele>
      </trkpt>
      <trkpt lat="43.247461" lon="-3.429786">
        <ele>463.56</ele>
      </trkpt>
      <trkpt lat="43.247466" lon="-3.429828">
        <ele>463.94</ele>
      </trkpt>
      <trkpt lat="43.247411" lon="-3.429828">
        <ele>464.34</ele>
      </trkpt>
      <trkpt lat="43.247389" lon="-3.429883">
        <ele>464.88</ele>
      </trkpt>
      <trkpt lat="43.247313" lon="-3.429883">
        <ele>463.68</ele>
      </trkpt>
      <trkpt lat="43.247293" lon="-3.429931">
        <ele>463.45</ele>
      </trkpt>
      <trkpt lat="43.247207" lon="-3.429946">
        <ele>459.85</ele>
      </trkpt>
      <trkpt lat="43.247172" lon="-3.43002">
        <ele>456.71</ele>
      </trkpt>
      <trkpt lat="43.247135" lon="-3.43002">
        <ele>455.45</ele>
      </trkpt>
      <trkpt lat="43.247071" lon="-3.43011">
        <ele>450.69</ele>
      </trkpt>
      <trkpt lat="43.246885" lon="-3.430166">
        <ele>447.91</ele>
      </trkpt>
      <trkpt lat="43.246802" lon="-3.430204">
        <ele>447.91</ele>
      </trkpt>
      <trkpt lat="43.246742" lon="-3.430282">
        <ele>446.1</ele>
      </trkpt>
      <trkpt lat="43.246723" lon="-3.430363">
        <ele>444.72</ele>
      </trkpt>
      <trkpt lat="43.246677" lon="-3.430363">
        <ele>444.45</ele>
      </trkpt>
      <trkpt lat="43.246632" lon="-3.430532">
        <ele>441.96</ele>
      </trkpt>
      <trkpt lat="43.246661" lon="-3.430612">
        <ele>441.47</ele>
      </trkpt>
      <trkpt lat="43.246666" lon="-3.430766">
        <ele>440.33</ele>
      </trkpt>
      <trkpt lat="43.246597" lon="-3.430865">
        <ele>438.85</ele>
      </trkpt>
      <trkpt lat="43.246584" lon="-3.430976">
        <ele>436.97</ele>
      </trkpt>
      <trkpt lat="43.246516" lon="-3.431059">
        <ele>434.41</ele>
      </trkpt>
      <trkpt lat="43.246488" lon="-3.431059">
        <ele>434.19</ele>
      </trkpt>
      <trkpt lat="43.246488" lon="-3.43113">
        <ele>432.55</ele>
      </trkpt>
      <trkpt lat="43.246514" lon="-3.43117">
        <ele>431.82</ele>
      </trkpt>
      <trkpt lat="43.24651" lon="-3.431326">
        <ele>429.31</ele>
      </trkpt>
      <trkpt lat="43.246473" lon="-3.431354">
        <ele>428.99</ele>
      </trkpt>
      <trkpt lat="43.246413" lon="-3.431556">
        <ele>428.05</ele>
      </trkpt>
      <trkpt lat="43.246334" lon="-3.431581">
        <ele>428.19</ele>
      </trkpt>
      <trkpt lat="43.246315" lon="-3.431722">
        <ele>427.46</ele>
      </trkpt>
      <trkpt lat="43.246218" lon="-3.431995">
        <ele>428.52</ele>
      </trkpt>
      <trkpt lat="43.246113" lon="-3.432053">
        <ele>428.05</ele>
      </trkpt>
      <trkpt lat="43.246016" lon="-3.432063">
        <ele>429.07</ele>
      </trkpt>
      <trkpt lat="43.245994" lon="-3.432169">
        <ele>429.5</ele>
      </trkpt>
      <trkpt lat="43.245865" lon="-3.432224">
        <ele>431.69</ele>
      </trkpt>
      <trkpt lat="43.24584" lon="-3.432358">
        <ele>431.2</ele>
      </trkpt>
      <trkpt lat="43.245808" lon="-3.432371">
        <ele>431.83</ele>
      </trkpt>
      <trkpt lat="43.245784" lon="-3.432444">
        <ele>433.38</ele>
      </trkpt>
      <trkpt lat="43.245784" lon="-3.432444">
        <ele>433.39</ele>
      </trkpt>
      <trkpt lat="43.245762" lon="-3.43251">
        <ele>434.78</ele>
      </trkpt>
      <trkpt lat="43.245772" lon="-3.432663">
        <ele>436.01</ele>
      </trkpt>
      <trkpt lat="43.245727" lon="-3.432742">
        <ele>436.96</ele>
      </trkpt>
      <trkpt lat="43.245661" lon="-3.432762">
        <ele>438.04</ele>
      </trkpt>
      <trkpt lat="43.245647" lon="-3.432822">
        <ele>438.04</ele>
      </trkpt>
      <trkpt lat="43.245557" lon="-3.432901">
        <ele>439.7</ele>
      </trkpt>
      <trkpt lat="43.245544" lon="-3.433012">
        <ele>438.75</ele>
      </trkpt>
      <trkpt lat="43.245555" lon="-3.433075">
        <ele>437.73</ele>
      </trkpt>
      <trkpt lat="43.245527" lon="-3.433135">
        <ele>437.84</ele>
      </trkpt>
      <trkpt lat="43.245534" lon="-3.433254">
        <ele>436.24</ele>
      </trkpt>
      <trkpt lat="43.24547" lon="-3.433375">
        <ele>437.36</ele>
      </trkpt>
      <trkpt lat="43.24547" lon="-3.43342">
        <ele>436.93</ele>
      </trkpt>
      <trkpt lat="43.245446" lon="-3.433461">
        <ele>437.21</ele>
      </trkpt>
      <trkpt lat="43.245446" lon="-3.433519">
        <ele>436.26</ele>
      </trkpt>
      <trkpt lat="43.245417" lon="-3.433574">
        <ele>436.35</ele>
      </trkpt>
      <trkpt lat="43.245406" lon="-3.43365">
        <ele>436.2</ele>
      </trkpt>
      <trkpt lat="43.245369" lon="-3.433708">
        <ele>437.07</ele>
      </trkpt>
      <trkpt lat="43.245386" lon="-3.433809">
        <ele>436.16</ele>
      </trkpt>
      <trkpt lat="43.245364" lon="-3.433867">
        <ele>436.87</ele>
      </trkpt>
      <trkpt lat="43.245373" lon="-3.433998">
        <ele>436.57</ele>
      </trkpt>
      <trkpt lat="43.245364" lon="-3.43427">
        <ele>437.94</ele>
      </trkpt>
      <trkpt lat="43.24534" lon="-3.434311">
        <ele>438.71</ele>
      </trkpt>
      <trkpt lat="43.245232" lon="-3.434244">
        <ele>439.68</ele>
      </trkpt>
      <trkpt lat="43.245144" lon="-3.434231">
        <ele>441.28</ele>
      </trkpt>
      <trkpt lat="43.245025" lon="-3.434324">
        <ele>443.46</ele>
      </trkpt>
      <trkpt lat="43.244906" lon="-3.434301">
        <ele>446</ele>
      </trkpt>
      <trkpt lat="43.244725" lon="-3.43435">
        <ele>449.77</ele>
      </trkpt>
      <trkpt lat="43.244473" lon="-3.434479">
        <ele>453.39</ele>
      </trkpt>
      <trkpt lat="43.244331" lon="-3.434709">
        <ele>453.15</ele>
      </trkpt>
      <trkpt lat="43.244321" lon="-3.434913">
        <ele>450.88</ele>
      </trkpt>
      <trkpt lat="43.244399" lon="-3.435108">
        <ele>446.62</ele>
      </trkpt>
      <trkpt lat="43.244428" lon="-3.435245">
        <ele>443.91</ele>
      </trkpt>
      <trkpt lat="43.244447" lon="-3.435462">
        <ele>440.92</ele>
      </trkpt>
      <trkpt lat="43.244418" lon="-3.435573">
        <ele>439.87</ele>
      </trkpt>
      <trkpt lat="43.244421" lon="-3.435892">
        <ele>436.13</ele>
      </trkpt>
      <trkpt lat="43.244334" lon="-3.436517">
        <ele>430.2</ele>
      </trkpt>
      <trkpt lat="43.244276" lon="-3.436614">
        <ele>429.26</ele>
      </trkpt>
      <trkpt lat="43.244183" lon="-3.43669">
        <ele>428.69</ele>
      </trkpt>
      <trkpt lat="43.244053" lon="-3.436911">
        <ele>426.48</ele>
      </trkpt>
      <trkpt lat="43.243937" lon="-3.437275">
        <ele>421.14</ele>
      </trkpt>
      <trkpt lat="43.243882" lon="-3.437709">
        <ele>416.76</ele>
      </trkpt>
      <trkpt lat="43.243899" lon="-3.438072">
        <ele>415.6</ele>
      </trkpt>
      <trkpt lat="43.243899" lon="-3.438072">
        <ele>415.6</ele>
      </trkpt>
      <trkpt lat="43.243976" lon="-3.438338">
        <ele>411.92</ele>
      </trkpt>
      <trkpt lat="43.244056" lon="-3.438651">
        <ele>410.89</ele>
      </trkpt>
      <trkpt lat="43.244136" lon="-3.438965">
        <ele>417.36</ele>
      </trkpt>
      <trkpt lat="43.244215" lon="-3.439348">
        <ele>420.58</ele>
      </trkpt>
      <trkpt lat="43.244196" lon="-3.439607">
        <ele>421.73</ele>
      </trkpt>
      <trkpt lat="43.244141" lon="-3.439913">
        <ele>423.31</ele>
      </trkpt>
      <trkpt lat="43.244044" lon="-3.440148">
        <ele>420.83</ele>
      </trkpt>
      <trkpt lat="43.244022" lon="-3.440367">
        <ele>419.29</ele>
      </trkpt>
      <trkpt lat="43.244012" lon="-3.440589">
        <ele>416.05</ele>
      </trkpt>
      <trkpt lat="43.24397" lon="-3.440914">
        <ele>413.26</ele>
      </trkpt>
      <trkpt lat="43.244039" lon="-3.441094">
        <ele>408.78</ele>
      </trkpt>
      <trkpt lat="43.244076" lon="-3.44127">
        <ele>405.74</ele>
      </trkpt>
      <trkpt lat="43.244123" lon="-3.441379">
        <ele>402.49</ele>
      </trkpt>
      <trkpt lat="43.244205" lon="-3.441705">
        <ele>394.91</ele>
      </trkpt>
      <trkpt lat="43.244212" lon="-3.441885">
        <ele>392.42</ele>
      </trkpt>
      <trkpt lat="43.244248" lon="-3.442093">
        <ele>389.15</ele>
      </trkpt>
      <trkpt lat="43.244231" lon="-3.442299">
        <ele>387.49</ele>
      </trkpt>
      <trkpt lat="43.244257" lon="-3.442469">
        <ele>386.39</ele>
      </trkpt>
      <trkpt lat="43.244275" lon="-3.442538">
        <ele>386.02</ele>
      </trkpt>
      <trkpt lat="43.244274" lon="-3.442586">
        <ele>385.46</ele>
      </trkpt>
      <trkpt lat="43.244254" lon="-3.442624">
        <ele>385.18</ele>
      </trkpt>
      <trkpt lat="43.244219" lon="-3.442771">
        <ele>384.17</ele>
      </trkpt>
      <trkpt lat="43.244233" lon="-3.442902">
        <ele>383.31</ele>
      </trkpt>
      <trkpt lat="43.244225" lon="-3.44295">
        <ele>383.09</ele>
      </trkpt>
      <trkpt lat="43.244194" lon="-3.443013">
        <ele>382.97</ele>
      </trkpt>
      <trkpt lat="43.244144" lon="-3.443079">
        <ele>383.19</ele>
      </trkpt>
      <trkpt lat="43.244108" lon="-3.443179">
        <ele>383.18</ele>
      </trkpt>
      <trkpt lat="43.24408" lon="-3.443361">
        <ele>383.43</ele>
      </trkpt>
      <trkpt lat="43.244029" lon="-3.443509">
        <ele>383.63</ele>
      </trkpt>
      <trkpt lat="43.244008" lon="-3.443758">
        <ele>382.65</ele>
      </trkpt>
      <trkpt lat="43.244095" lon="-3.44373">
        <ele>381.78</ele>
      </trkpt>
      <trkpt lat="43.244095" lon="-3.44373">
        <ele>381.78</ele>
      </trkpt>
      <trkpt lat="43.24418" lon="-3.443703">
        <ele>380.93</ele>
      </trkpt>
      <trkpt lat="43.244246" lon="-3.443731">
        <ele>380.38</ele>
      </trkpt>
      <trkpt lat="43.244318" lon="-3.443709">
        <ele>380.48</ele>
      </trkpt>
      <trkpt lat="43.244342" lon="-3.443678">
        <ele>380.94</ele>
      </trkpt>
      <trkpt lat="43.24441" lon="-3.443667">
        <ele>381.88</ele>
      </trkpt>
      <trkpt lat="43.24446" lon="-3.443672">
        <ele>382.64</ele>
      </trkpt>
      <trkpt lat="43.244499" lon="-3.443701">
        <ele>383.27</ele>
      </trkpt>
      <trkpt lat="43.244558" lon="-3.443788">
        <ele>384.02</ele>
      </trkpt>
      <trkpt lat="43.244595" lon="-3.443821">
        <ele>384.87</ele>
      </trkpt>
      <trkpt lat="43.24465" lon="-3.443856">
        <ele>386.39</ele>
      </trkpt>
      <trkpt lat="43.244735" lon="-3.443877">
        <ele>389.65</ele>
      </trkpt>
      <trkpt lat="43.244764" lon="-3.443949">
        <ele>390.95</ele>
      </trkpt>
      <trkpt lat="43.244776" lon="-3.444072">
        <ele>392.04</ele>
      </trkpt>
      <trkpt lat="43.244813" lon="-3.444212">
        <ele>395.02</ele>
      </trkpt>
      <trkpt lat="43.244809" lon="-3.444258">
        <ele>395.03</ele>
      </trkpt>
      <trkpt lat="43.244809" lon="-3.444258">
        <ele>395.03</ele>
      </trkpt>
      <trkpt lat="43.244807" lon="-3.44429">
        <ele>395.04</ele>
      </trkpt>
      <trkpt lat="43.244778" lon="-3.444391">
        <ele>394.02</ele>
      </trkpt>
      <trkpt lat="43.244782" lon="-3.444791">
        <ele>397.7</ele>
      </trkpt>
      <trkpt lat="43.244816" lon="-3.44501">
        <ele>402.1</ele>
      </trkpt>
      <trkpt lat="43.244808" lon="-3.445152">
        <ele>403.24</ele>
      </trkpt>
      <trkpt lat="43.244716" lon="-3.445476">
        <ele>402</ele>
      </trkpt>
      <trkpt lat="43.244624" lon="-3.445801">
        <ele>404.64</ele>
      </trkpt>
      <trkpt lat="43.244715" lon="-3.446232">
        <ele>413.97</ele>
      </trkpt>
      <trkpt lat="43.244806" lon="-3.446664">
        <ele>420.36</ele>
      </trkpt>
      <trkpt lat="43.244971" lon="-3.446835">
        <ele>425.34</ele>
      </trkpt>
      <trkpt lat="43.245202" lon="-3.446917">
        <ele>422.37</ele>
      </trkpt>
      <trkpt lat="43.245327" lon="-3.447249">
        <ele>425.29</ele>
      </trkpt>
      <trkpt lat="43.245273" lon="-3.447613">
        <ele>430.05</ele>
      </trkpt>
      <trkpt lat="43.245168" lon="-3.447629">
        <ele>434.9</ele>
      </trkpt>
      <trkpt lat="43.245141" lon="-3.447744">
        <ele>438.83</ele>
      </trkpt>
      <trkpt lat="43.245254" lon="-3.447941">
        <ele>434.55</ele>
      </trkpt>
      <trkpt lat="43.245442" lon="-3.448097">
        <ele>423.6</ele>
      </trkpt>
      <trkpt lat="43.245489" lon="-3.448269">
        <ele>422.89</ele>
      </trkpt>
      <trkpt lat="43.245582" lon="-3.448518">
        <ele>420.14</ele>
      </trkpt>
      <trkpt lat="43.245737" lon="-3.448626">
        <ele>414.6</ele>
      </trkpt>
      <trkpt lat="43.245875" lon="-3.448968">
        <ele>416.13</ele>
      </trkpt>
      <trkpt lat="43.245877" lon="-3.449219">
        <ele>416.97</ele>
      </trkpt>
      <trkpt lat="43.246023" lon="-3.449513">
        <ele>409.87</ele>
      </trkpt>
      <trkpt lat="43.246019" lon="-3.449715">
        <ele>405.58</ele>
      </trkpt>
      <trkpt lat="43.246055" lon="-3.449874">
        <ele>399.6</ele>
      </trkpt>
      <trkpt lat="43.246027" lon="-3.450027">
        <ele>396.25</ele>
      </trkpt>
      <trkpt lat="43.245939" lon="-3.450667">
        <ele>384.59</ele>
      </trkpt>
      <trkpt lat="43.245992" lon="-3.450957">
        <ele>377.81</ele>
      </trkpt>
      <trkpt lat="43.246087" lon="-3.451009">
        <ele>374.99</ele>
      </trkpt>
      <trkpt lat="43.246087" lon="-3.451009">
        <ele>374.98</ele>
      </trkpt>
      <trkpt lat="43.246568" lon="-3.451272">
        <ele>360.61</ele>
      </trkpt>
      <trkpt lat="43.246812" lon="-3.45139">
        <ele>355.02</ele>
      </trkpt>
      <trkpt lat="43.24702" lon="-3.451393">
        <ele>358.49</ele>
      </trkpt>
      <trkpt lat="43.247071" lon="-3.451264">
        <ele>362.1</ele>
      </trkpt>
      <trkpt lat="43.247038" lon="-3.451164">
        <ele>362.93</ele>
      </trkpt>
      <trkpt lat="43.247038" lon="-3.451164">
        <ele>362.93</ele>
      </trkpt>
      <trkpt lat="43.247031" lon="-3.45114">
        <ele>363.12</ele>
      </trkpt>
      <trkpt lat="43.247086" lon="-3.450826">
        <ele>366.36</ele>
      </trkpt>
      <trkpt lat="43.247127" lon="-3.45067">
        <ele>366.86</ele>
      </trkpt>
      <trkpt lat="43.247202" lon="-3.450408">
        <ele>365.37</ele>
      </trkpt>
      <trkpt lat="43.247321" lon="-3.450073">
        <ele>359.67</ele>
      </trkpt>
      <trkpt lat="43.247309" lon="-3.449794">
        <ele>358.98</ele>
      </trkpt>
      <trkpt lat="43.247359" lon="-3.449522">
        <ele>353.28</ele>
      </trkpt>
      <trkpt lat="43.247414" lon="-3.449449">
        <ele>349.34</ele>
      </trkpt>
      <trkpt lat="43.247449" lon="-3.449313">
        <ele>346.73</ele>
      </trkpt>
      <trkpt lat="43.247548" lon="-3.449103">
        <ele>342.4</ele>
      </trkpt>
      <trkpt lat="43.247679" lon="-3.448853">
        <ele>338.19</ele>
      </trkpt>
      <trkpt lat="43.247735" lon="-3.448685">
        <ele>337.45</ele>
      </trkpt>
      <trkpt lat="43.247816" lon="-3.448676">
        <ele>335.67</ele>
      </trkpt>
      <trkpt lat="43.24789" lon="-3.448837">
        <ele>336.42</ele>
      </trkpt>
      <trkpt lat="43.24789" lon="-3.448837">
        <ele>336.42</ele>
      </trkpt>
      <trkpt lat="43.247935" lon="-3.448933">
        <ele>336.87</ele>
      </trkpt>
      <trkpt lat="43.248058" lon="-3.449033">
        <ele>338.24</ele>
      </trkpt>
      <trkpt lat="43.248284" lon="-3.449238">
        <ele>338.82</ele>
      </trkpt>
      <trkpt lat="43.24854" lon="-3.449355">
        <ele>336.51</ele>
      </trkpt>
      <trkpt lat="43.248846" lon="-3.449343">
        <ele>329.52</ele>
      </trkpt>
      <trkpt lat="43.249079" lon="-3.449195">
        <ele>324.91</ele>
      </trkpt>
      <trkpt lat="43.249253" lon="-3.449192">
        <ele>319.71</ele>
      </trkpt>
      <trkpt lat="43.24948" lon="-3.449217">
        <ele>313.2</ele>
      </trkpt>
      <trkpt lat="43.249586" lon="-3.449353">
        <ele>310.59</ele>
      </trkpt>
      <trkpt lat="43.249676" lon="-3.44972">
        <ele>305.54</ele>
      </trkpt>
      <trkpt lat="43.249836" lon="-3.450031">
        <ele>298.67</ele>
      </trkpt>
      <trkpt lat="43.250036" lon="-3.450092">
        <ele>293.2</ele>
      </trkpt>
      <trkpt lat="43.250252" lon="-3.450069">
        <ele>288.17</ele>
      </trkpt>
      <trkpt lat="43.250288" lon="-3.450057">
        <ele>287.99</ele>
      </trkpt>
      <trkpt lat="43.250288" lon="-3.450057">
        <ele>287.99</ele>
      </trkpt>
      <trkpt lat="43.25047" lon="-3.449996">
        <ele>287.11</ele>
      </trkpt>
      <trkpt lat="43.250708" lon="-3.45002">
        <ele>283.89</ele>
      </trkpt>
      <trkpt lat="43.250932" lon="-3.449898">
        <ele>282.17</ele>
      </trkpt>
      <trkpt lat="43.251065" lon="-3.449339">
        <ele>280.83</ele>
      </trkpt>
      <trkpt lat="43.251106" lon="-3.449279">
        <ele>281.67</ele>
      </trkpt>
      <trkpt lat="43.251313" lon="-3.44907">
        <ele>283.95</ele>
      </trkpt>
      <trkpt lat="43.25152" lon="-3.448862">
        <ele>283.21</ele>
      </trkpt>
      <trkpt lat="43.251536" lon="-3.448755">
        <ele>282.28</ele>
      </trkpt>
      <trkpt lat="43.251536" lon="-3.448755">
        <ele>282.28</ele>
      </trkpt>
      <trkpt lat="43.251578" lon="-3.448477">
        <ele>279.85</ele>
      </trkpt>
      <trkpt lat="43.251635" lon="-3.448092">
        <ele>273.5</ele>
      </trkpt>
      <trkpt lat="43.251469" lon="-3.447766">
        <ele>268.9</ele>
      </trkpt>
      <trkpt lat="43.251303" lon="-3.447441">
        <ele>271.94</ele>
      </trkpt>
      <trkpt lat="43.251239" lon="-3.44707">
        <ele>273.96</ele>
      </trkpt>
      <trkpt lat="43.251163" lon="-3.44663">
        <ele>272.27</ele>
      </trkpt>
      <trkpt lat="43.251163" lon="-3.44663">
        <ele>272.26</ele>
      </trkpt>
      <trkpt lat="43.251046" lon="-3.445957">
        <ele>278.23</ele>
      </trkpt>
      <trkpt lat="43.250916" lon="-3.445621">
        <ele>280.44</ele>
      </trkpt>
      <trkpt lat="43.250786" lon="-3.445286">
        <ele>277.51</ele>
      </trkpt>
      <trkpt lat="43.250656" lon="-3.44495">
        <ele>279.97</ele>
      </trkpt>
      <trkpt lat="43.250525" lon="-3.444614">
        <ele>278.7</ele>
      </trkpt>
      <trkpt lat="43.250521" lon="-3.444325">
        <ele>275.92</ele>
      </trkpt>
      <trkpt lat="43.250517" lon="-3.444036">
        <ele>276.96</ele>
      </trkpt>
      <trkpt lat="43.250639" lon="-3.444136">
        <ele>275.46</ele>
      </trkpt>
      <trkpt lat="43.250678" lon="-3.444134">
        <ele>275.03</ele>
      </trkpt>
      <trkpt lat="43.250678" lon="-3.444134">
        <ele>275.03</ele>
      </trkpt>
      <trkpt lat="43.250814" lon="-3.444127">
        <ele>273.54</ele>
      </trkpt>
      <trkpt lat="43.251425" lon="-3.443485">
        <ele>258.04</ele>
      </trkpt>
      <trkpt lat="43.251521" lon="-3.443485">
        <ele>258.39</ele>
      </trkpt>
      <trkpt lat="43.251694" lon="-3.443343">
        <ele>258.46</ele>
      </trkpt>
      <trkpt lat="43.251811" lon="-3.443332">
        <ele>257.94</ele>
      </trkpt>
      <trkpt lat="43.252084" lon="-3.443407">
        <ele>257.19</ele>
      </trkpt>
      <trkpt lat="43.252284" lon="-3.443424">
        <ele>256.49</ele>
      </trkpt>
      <trkpt lat="43.252436" lon="-3.443375">
        <ele>254.03</ele>
      </trkpt>
      <trkpt lat="43.252545" lon="-3.443236">
        <ele>251.53</ele>
      </trkpt>
      <trkpt lat="43.252659" lon="-3.443048">
        <ele>246.32</ele>
      </trkpt>
      <trkpt lat="43.252748" lon="-3.442978">
        <ele>244.37</ele>
      </trkpt>
      <trkpt lat="43.252877" lon="-3.44301">
        <ele>240.96</ele>
      </trkpt>
      <trkpt lat="43.252999" lon="-3.442935">
        <ele>238.59</ele>
      </trkpt>
      <trkpt lat="43.253151" lon="-3.442758">
        <ele>235.99</ele>
      </trkpt>
      <trkpt lat="43.253327" lon="-3.442635">
        <ele>233.13</ele>
      </trkpt>
      <trkpt lat="43.253378" lon="-3.442616">
        <ele>232.24</ele>
      </trkpt>
      <trkpt lat="43.253378" lon="-3.442616">
        <ele>232.23</ele>
      </trkpt>
      <trkpt lat="43.25346" lon="-3.442587">
        <ele>230.8</ele>
      </trkpt>
      <trkpt lat="43.253608" lon="-3.442662">
        <ele>230.81</ele>
      </trkpt>
      <trkpt lat="43.253753" lon="-3.442721">
        <ele>230.83</ele>
      </trkpt>
      <trkpt lat="43.253854" lon="-3.442721">
        <ele>229.65</ele>
      </trkpt>
      <trkpt lat="43.253979" lon="-3.442705">
        <ele>228.06</ele>
      </trkpt>
      <trkpt lat="43.254112" lon="-3.442742">
        <ele>227.89</ele>
      </trkpt>
      <trkpt lat="43.254249" lon="-3.442796">
        <ele>227.11</ele>
      </trkpt>
      <trkpt lat="43.25437" lon="-3.442866">
        <ele>226.14</ele>
      </trkpt>
      <trkpt lat="43.254464" lon="-3.442871">
        <ele>224.83</ele>
      </trkpt>
      <trkpt lat="43.254608" lon="-3.442935">
        <ele>223.65</ele>
      </trkpt>
      <trkpt lat="43.254796" lon="-3.442984">
        <ele>221.6</ele>
      </trkpt>
      <trkpt lat="43.25489" lon="-3.442968">
        <ele>219.94</ele>
      </trkpt>
      <trkpt lat="43.254922" lon="-3.442935">
        <ele>218.74</ele>
      </trkpt>
      <trkpt lat="43.254897" lon="-3.443255">
        <ele>223.26</ele>
      </trkpt>
      <trkpt lat="43.254812" lon="-3.443402">
        <ele>224.97</ele>
      </trkpt>
      <trkpt lat="43.254752" lon="-3.443508">
        <ele>226.21</ele>
      </trkpt>
      <trkpt lat="43.254726" lon="-3.443648">
        <ele>225.42</ele>
      </trkpt>
      <trkpt lat="43.254538" lon="-3.444061">
        <ele>225.55</ele>
      </trkpt>
      <trkpt lat="43.25442" lon="-3.444399">
        <ele>226.04</ele>
      </trkpt>
      <trkpt lat="43.254302" lon="-3.444738">
        <ele>223.61</ele>
      </trkpt>
      <trkpt lat="43.25427" lon="-3.444937">
        <ele>221.73</ele>
      </trkpt>
      <trkpt lat="43.254324" lon="-3.445091">
        <ele>220.07</ele>
      </trkpt>
      <trkpt lat="43.254302" lon="-3.44531">
        <ele>218.46</ele>
      </trkpt>
      <trkpt lat="43.254128" lon="-3.445857">
        <ele>211.08</ele>
      </trkpt>
      <trkpt lat="43.253954" lon="-3.445982">
        <ele>210.63</ele>
      </trkpt>
      <trkpt lat="43.25385100208223" lon="-3.447305029258132">
        <ele>213.17</ele>
      </trkpt>
      <trkpt lat="43.25357004068792" lon="-3.447655979543924">
        <ele>220.11</ele>
      </trkpt>
      <trkpt lat="43.25327801518142" lon="-3.447910035029054">
        <ele>228.23</ele>
      </trkpt>
      <trkpt lat="43.252937039360404" lon="-3.448197031393647">
        <ele>238.14</ele>
      </trkpt>
      <trkpt lat="43.25283997692168" lon="-3.448083959519863">
        <ele>241.22</ele>
      </trkpt>
      <trkpt lat="43.25273998081684" lon="-3.447810038924217">
        <ele>244.74</ele>
      </trkpt>
      <trkpt lat="43.25266898609698" lon="-3.447759998962283">
        <ele>246.48</ele>
      </trkpt>
      <trkpt lat="43.25266898609698" lon="-3.447759998962283">
        <ele>246.48</ele>
      </trkpt>
      <trkpt lat="43.2524829916656" lon="-3.447741977870464">
        <ele>250.25</ele>
      </trkpt>
      <trkpt lat="43.25239397585392" lon="-3.447762010619044">
        <ele>252.52</ele>
      </trkpt>
      <trkpt lat="43.25216297060251" lon="-3.44796996563673">
        <ele>259.7</ele>
      </trkpt>
      <trkpt lat="43.252083007246256" lon="-3.448250005021691">
        <ele>261.59</ele>
      </trkpt>
      <trkpt lat="43.25206900946796" lon="-3.448689971119165">
        <ele>264.38</ele>
      </trkpt>
      <trkpt lat="43.25206900946796" lon="-3.448689971119165">
        <ele>264.38</ele>
      </trkpt>
      <trkpt lat="43.25206599198282" lon="-3.449180983006954">
        <ele>266.15</ele>
      </trkpt>
      <trkpt lat="43.25208895839751" lon="-3.449609968811274">
        <ele>262.06</ele>
      </trkpt>
      <trkpt lat="43.25209801085293" lon="-3.450191002339125">
        <ele>252.18</ele>
      </trkpt>
      <trkpt lat="43.252232037484646" lon="-3.450548993423581">
        <ele>244.85</ele>
      </trkpt>
      <trkpt lat="43.25233396142721" lon="-3.450965993106365">
        <ele>241.09</ele>
      </trkpt>
      <trkpt lat="43.25227134861052" lon="-3.451593965291977">
        <ele>262.583</ele>
      </trkpt>
      <trkpt lat="43.252213848754764" lon="-3.451852882280946">
        <ele>265.423</ele>
      </trkpt>
      <trkpt lat="43.2522" lon="-3.451868">
        <ele>242.9</ele>
      </trkpt>
      <trkpt lat="43.252473" lon="-3.452338">
        <ele>240.26</ele>
      </trkpt>
      <trkpt lat="43.252772" lon="-3.452854">
        <ele>239.46</ele>
      </trkpt>
      <trkpt lat="43.252831" lon="-3.453222">
        <ele>242.95</ele>
      </trkpt>
      <trkpt lat="43.25289" lon="-3.453589">
        <ele>243.76</ele>
      </trkpt>
      <trkpt lat="43.252949" lon="-3.453957">
        <ele>242.3</ele>
      </trkpt>
      <trkpt lat="43.253026" lon="-3.454276">
        <ele>241.59</ele>
      </trkpt>
      <trkpt lat="43.253182" lon="-3.454913">
        <ele>234.14</ele>
      </trkpt>
      <trkpt lat="43.253383" lon="-3.455741">
        <ele>219.05</ele>
      </trkpt>
      <trkpt lat="43.253383" lon="-3.455741">
        <ele>219.05</ele>
      </trkpt>
      <trkpt lat="43.253415" lon="-3.45587">
        <ele>216.69</ele>
      </trkpt>
      <trkpt lat="43.253286" lon="-3.456135">
        <ele>215.73</ele>
      </trkpt>
      <trkpt lat="43.253029" lon="-3.456666">
        <ele>205.24</ele>
      </trkpt>
      <trkpt lat="43.252627" lon="-3.45702">
        <ele>195.92</ele>
      </trkpt>
      <trkpt lat="43.252076" lon="-3.458092">
        <ele>166.04</ele>
      </trkpt>
      <trkpt lat="43.252244" lon="-3.458508">
        <ele>154.35</ele>
      </trkpt>
      <trkpt lat="43.252405" lon="-3.45868">
        <ele>148.42</ele>
      </trkpt>
      <trkpt lat="43.25251" lon="-3.458725">
        <ele>147.18</ele>
      </trkpt>
      <trkpt lat="43.252578" lon="-3.458727">
        <ele>146.53</ele>
      </trkpt>
      <trkpt lat="43.252578" lon="-3.458727">
        <ele>146.53</ele>
      </trkpt>
      <trkpt lat="43.252767" lon="-3.458733">
        <ele>144.74</ele>
      </trkpt>
      <trkpt lat="43.253268" lon="-3.458902">
        <ele>133.21</ele>
      </trkpt>
      <trkpt lat="43.253656" lon="-3.458945">
        <ele>124.46</ele>
      </trkpt>
      <trkpt lat="43.253753" lon="-3.45899">
        <ele>121.17</ele>
      </trkpt>
      <trkpt lat="43.253818" lon="-3.459066">
        <ele>118.33</ele>
      </trkpt>
      <trkpt lat="43.253902" lon="-3.459196">
        <ele>114</ele>
      </trkpt>
      <trkpt lat="43.254053" lon="-3.459229">
        <ele>110.87</ele>
      </trkpt>
      <trkpt lat="43.254072" lon="-3.459242">
        <ele>110.36</ele>
      </trkpt>
      <trkpt lat="43.254099" lon="-3.459293">
        <ele>109.02</ele>
      </trkpt>
      <trkpt lat="43.254152" lon="-3.459433">
        <ele>106.15</ele>
      </trkpt>
      <trkpt lat="43.254225" lon="-3.459588">
        <ele>104.59</ele>
      </trkpt>
      <trkpt lat="43.254378" lon="-3.459847">
        <ele>103.57</ele>
      </trkpt>
      <trkpt lat="43.254432" lon="-3.459925">
        <ele>104.16</ele>
      </trkpt>
      <trkpt lat="43.254401" lon="-3.459935">
        <ele>104.21</ele>
      </trkpt>
      <trkpt lat="43.254417" lon="-3.459961">
        <ele>104.37</ele>
      </trkpt>
      <trkpt lat="43.254417" lon="-3.459961">
        <ele>104.37</ele>
      </trkpt>
      <trkpt lat="43.254401" lon="-3.459935">
        <ele>104.21</ele>
      </trkpt>
      <trkpt lat="43.254432" lon="-3.459925">
        <ele>104.16</ele>
      </trkpt>
      <trkpt lat="43.254453" lon="-3.459997">
        <ele>104.46</ele>
      </trkpt>
      <trkpt lat="43.254502" lon="-3.460272">
        <ele>104.52</ele>
      </trkpt>
      <trkpt lat="43.254614" lon="-3.460577">
        <ele>103.63</ele>
      </trkpt>
      <trkpt lat="43.254663" lon="-3.460762">
        <ele>103.21</ele>
      </trkpt>
      <trkpt lat="43.254597" lon="-3.460834">
        <ele>103.66</ele>
      </trkpt>
      <trkpt lat="43.254476" lon="-3.460867">
        <ele>104.27</ele>
      </trkpt>
      <trkpt lat="43.254415" lon="-3.4609">
        <ele>104.21</ele>
      </trkpt>
      <trkpt lat="43.254266" lon="-3.461053">
        <ele>102.16</ele>
      </trkpt>
      <trkpt lat="43.254156" lon="-3.461082">
        <ele>100.66</ele>
      </trkpt>
      <trkpt lat="43.254117" lon="-3.461102">
        <ele>99.81</ele>
      </trkpt>
      <trkpt lat="43.254071" lon="-3.461147">
        <ele>98.82</ele>
      </trkpt>
      <trkpt lat="43.254055" lon="-3.461193">
        <ele>98.25</ele>
      </trkpt>
      <trkpt lat="43.253931" lon="-3.46143">
        <ele>95</ele>
      </trkpt>
      <trkpt lat="43.253837" lon="-3.461584">
        <ele>95</ele>
      </trkpt>
      <trkpt lat="43.253834" lon="-3.46158">
        <ele>94.99</ele>
      </trkpt>
      <trkpt lat="43.253871" lon="-3.461656">
        <ele>94.78</ele>
      </trkpt>
      <trkpt lat="43.253888" lon="-3.461732">
        <ele>94.34</ele>
      </trkpt>
      <trkpt lat="43.253897" lon="-3.461843">
        <ele>94</ele>
      </trkpt>
      <trkpt lat="43.253889" lon="-3.46206">
        <ele>94</ele>
      </trkpt>
      <trkpt lat="43.253838" lon="-3.462308">
        <ele>93</ele>
      </trkpt>
      <trkpt lat="43.253848" lon="-3.462361">
        <ele>93</ele>
      </trkpt>
      <trkpt lat="43.253936" lon="-3.462574">
        <ele>92.44</ele>
      </trkpt>
      <trkpt lat="43.253935" lon="-3.462628">
        <ele>92.12</ele>
      </trkpt>
      <trkpt lat="43.25391" lon="-3.462678">
        <ele>92</ele>
      </trkpt>
      <trkpt lat="43.254006" lon="-3.462799">
        <ele>92.07</ele>
      </trkpt>
      <trkpt lat="43.254042" lon="-3.462797">
        <ele>92.12</ele>
      </trkpt>
      <trkpt lat="43.254552" lon="-3.463254">
        <ele>91.57</ele>
      </trkpt>
      <trkpt lat="43.254662" lon="-3.463335">
        <ele>91.98</ele>
      </trkpt>
      <trkpt lat="43.254668" lon="-3.463348">
        <ele>92</ele>
      </trkpt>
      <trkpt lat="43.254934" lon="-3.463569">
        <ele>92</ele>
      </trkpt>
      <trkpt lat="43.255342" lon="-3.463821">
        <ele>90.85</ele>
      </trkpt>
      <trkpt lat="43.256192" lon="-3.464367">
        <ele>87.98</ele>
      </trkpt>
      <trkpt lat="43.256192" lon="-3.464367">
        <ele>87.98</ele>
      </trkpt>
      <trkpt lat="43.256226" lon="-3.464388">
        <ele>87.96</ele>
      </trkpt>
      <trkpt lat="43.256226" lon="-3.464388">
        <ele>87.96</ele>
      </trkpt>
      <trkpt lat="43.256418" lon="-3.464514">
        <ele>87.35</ele>
      </trkpt>
      <trkpt lat="43.256478" lon="-3.46453">
        <ele>87.18</ele>
      </trkpt>
    </trkseg>
  </trk>
</gpx>
