<?xml version="1.0" encoding="UTF-8"?>
<gpx creator="Wikiloc - https://www.wikiloc.com" version="1.1" xmlns="http://www.topografix.com/GPX/1/1" xmlns:xsi="http://www.w3.org/2001/XMLSchema-instance" xsi:schemaLocation="http://www.topografix.com/GPX/1/1 http://www.topografix.com/GPX/1/1/gpx.xsd">
  <metadata>
    <name>Wikiloc - Paseo saludable Vegacorredor</name>
    <link href="https://www.wikiloc.com/hiking-trails/paseo-saludable-vegacorredor-85619940">
      <text>Paseo saludable Vegacorredor - Wikiloc on Wikiloc</text>
    </link>
    <time>2021-08-10T13:30:11Z</time>
  </metadata>
  <trk>
    <name>Paseo saludable Vegacorredor - Wikiloc</name>
    <cmt>Empezando la ruta en la plaza Duques de la Victoria, por detrás de la iglesia cogemos la calle Manuel Marure que nos llevará a Entrepuentes, zona donde se unen el río Asón y su principal afluente, el río Gándara. Aquí encontraremos un antiguo puente medieval, un molino (ahora propiedad privada) y la presa Don Cecilio. Siguiendo la carretera atravesaremos una zona ajardinada y área recreativa que nos lleva al Bº Vegacorredor. Una vez aquí subimos por la carretera de la izquierda en dirección al Bº Helguero, el cual atravesaremos y donde podremos visitar la Fuente Iseña, manantial que abastece Ramales. Siguiendo el camino regresaremos hasta el Humilladero Ánima de Iseña y desde aquí, volveremos por el mismo recorrido hasta la plaza.</cmt>
    <desc>Empezando la ruta en la plaza Duques de la Victoria, por detrás de la iglesia cogemos la calle Manuel Marure que nos llevará a Entrepuentes, zona donde se unen el río Asón y su principal afluente, el río Gándara. Aquí encontraremos un antiguo puente medieval, un molino (ahora propiedad privada) y la presa Don Cecilio. Siguiendo la carretera atravesaremos una zona ajardinada y área recreativa que nos lleva al Bº Vegacorredor. Una vez aquí subimos por la carretera de la izquierda en dirección al Bº Helguero, el cual atravesaremos y donde podremos visitar la Fuente Iseña, manantial que abastece Ramales. Siguiendo el camino regresaremos hasta el Humilladero Ánima de Iseña y desde aquí, volveremos por el mismo recorrido hasta la plaza.</desc>
    <trkseg>
      <trkpt lat="43.257786" lon="-3.465075">
        <ele>84.053</ele>
        <time>2021-08-10T11:54:33Z</time>
      </trkpt>
      <trkpt lat="43.257854" lon="-3.465315">
        <ele>133.104</ele>
        <time>2021-08-10T11:54:49Z</time>
      </trkpt>
      <trkpt lat="43.258165" lon="-3.465423">
        <ele>150.914</ele>
        <time>2021-08-10T11:55:02Z</time>
      </trkpt>
      <trkpt lat="43.258344" lon="-3.466059">
        <ele>143.308</ele>
        <time>2021-08-10T11:55:38Z</time>
      </trkpt>
      <trkpt lat="43.258440" lon="-3.466091">
        <ele>142.463</ele>
        <time>2021-08-10T11:55:49Z</time>
      </trkpt>
      <trkpt lat="43.258554" lon="-3.466327">
        <ele>141.510</ele>
        <time>2021-08-10T11:56:05Z</time>
      </trkpt>
      <trkpt lat="43.258521" lon="-3.466931">
        <ele>142.341</ele>
        <time>2021-08-10T11:56:35Z</time>
      </trkpt>
      <trkpt lat="43.258138" lon="-3.467906">
        <ele>139.066</ele>
        <time>2021-08-10T11:57:37Z</time>
      </trkpt>
      <trkpt lat="43.257556" lon="-3.468428">
        <ele>132.264</ele>
        <time>2021-08-10T11:58:33Z</time>
      </trkpt>
      <trkpt lat="43.257492" lon="-3.468838">
        <ele>128.954</ele>
        <time>2021-08-10T11:58:56Z</time>
      </trkpt>
      <trkpt lat="43.257572" lon="-3.468961">
        <ele>129.049</ele>
        <time>2021-08-10T11:59:59Z</time>
      </trkpt>
      <trkpt lat="43.257540" lon="-3.469235">
        <ele>129.135</ele>
        <time>2021-08-10T12:00:33Z</time>
      </trkpt>
      <trkpt lat="43.256923" lon="-3.469872">
        <ele>127.013</ele>
        <time>2021-08-10T12:01:31Z</time>
      </trkpt>
      <trkpt lat="43.256869" lon="-3.470148">
        <ele>127.543</ele>
        <time>2021-08-10T12:01:47Z</time>
      </trkpt>
      <trkpt lat="43.256449" lon="-3.470562">
        <ele>127.507</ele>
        <time>2021-08-10T12:03:22Z</time>
      </trkpt>
      <trkpt lat="43.256139" lon="-3.471492">
        <ele>129.608</ele>
        <time>2021-08-10T12:04:24Z</time>
      </trkpt>
      <trkpt lat="43.255923" lon="-3.473492">
        <ele>119.389</ele>
        <time>2021-08-10T12:06:14Z</time>
      </trkpt>
      <trkpt lat="43.255991" lon="-3.474102">
        <ele>121.636</ele>
        <time>2021-08-10T12:06:48Z</time>
      </trkpt>
      <trkpt lat="43.255784" lon="-3.474505">
        <ele>125.437</ele>
        <time>2021-08-10T12:07:11Z</time>
      </trkpt>
      <trkpt lat="43.255725" lon="-3.475123">
        <ele>133.212</ele>
        <time>2021-08-10T12:07:46Z</time>
      </trkpt>
      <trkpt lat="43.255800" lon="-3.476145">
        <ele>129.960</ele>
        <time>2021-08-10T12:09:20Z</time>
      </trkpt>
      <trkpt lat="43.256120" lon="-3.476384">
        <ele>127.660</ele>
        <time>2021-08-10T12:10:35Z</time>
      </trkpt>
      <trkpt lat="43.256368" lon="-3.476389">
        <ele>129.455</ele>
        <time>2021-08-10T12:10:56Z</time>
      </trkpt>
      <trkpt lat="43.256456" lon="-3.476461">
        <ele>129.311</ele>
        <time>2021-08-10T12:11:04Z</time>
      </trkpt>
      <trkpt lat="43.256648" lon="-3.477212">
        <ele>124.683</ele>
        <time>2021-08-10T12:12:01Z</time>
      </trkpt>
      <trkpt lat="43.256834" lon="-3.477416">
        <ele>121.925</ele>
        <time>2021-08-10T12:12:19Z</time>
      </trkpt>
      <trkpt lat="43.257007" lon="-3.478125">
        <ele>132.117</ele>
        <time>2021-08-10T12:13:04Z</time>
      </trkpt>
      <trkpt lat="43.257574" lon="-3.478786">
        <ele>133.608</ele>
        <time>2021-08-10T12:14:13Z</time>
      </trkpt>
      <trkpt lat="43.257782" lon="-3.479245">
        <ele>122.066</ele>
        <time>2021-08-10T12:14:54Z</time>
      </trkpt>
      <trkpt lat="43.258014" lon="-3.479520">
        <ele>121.383</ele>
        <time>2021-08-10T12:15:17Z</time>
      </trkpt>
      <trkpt lat="43.257994" lon="-3.480074">
        <ele>132.324</ele>
        <time>2021-08-10T12:15:49Z</time>
      </trkpt>
      <trkpt lat="43.258112" lon="-3.480450">
        <ele>140.769</ele>
        <time>2021-08-10T12:16:16Z</time>
      </trkpt>
      <trkpt lat="43.258781" lon="-3.481373">
        <ele>136.717</ele>
        <time>2021-08-10T12:17:29Z</time>
      </trkpt>
      <trkpt lat="43.258828" lon="-3.481642">
        <ele>134.517</ele>
        <time>2021-08-10T12:17:42Z</time>
      </trkpt>
      <trkpt lat="43.259664" lon="-3.483299">
        <ele>137.122</ele>
        <time>2021-08-10T12:20:19Z</time>
      </trkpt>
      <trkpt lat="43.260193" lon="-3.483714">
        <ele>134.458</ele>
        <time>2021-08-10T12:21:04Z</time>
      </trkpt>
      <trkpt lat="43.260490" lon="-3.483640">
        <ele>136.125</ele>
        <time>2021-08-10T12:21:28Z</time>
      </trkpt>
      <trkpt lat="43.260696" lon="-3.483752">
        <ele>139.526</ele>
        <time>2021-08-10T12:21:44Z</time>
      </trkpt>
      <trkpt lat="43.261135" lon="-3.484207">
        <ele>134.908</ele>
        <time>2021-08-10T12:22:25Z</time>
      </trkpt>
      <trkpt lat="43.261284" lon="-3.484272">
        <ele>133.708</ele>
        <time>2021-08-10T12:22:36Z</time>
      </trkpt>
      <trkpt lat="43.261570" lon="-3.484138">
        <ele>137.480</ele>
        <time>2021-08-10T12:22:58Z</time>
      </trkpt>
      <trkpt lat="43.261759" lon="-3.484335">
        <ele>135.817</ele>
        <time>2021-08-10T12:23:15Z</time>
      </trkpt>
      <trkpt lat="43.262204" lon="-3.484281">
        <ele>141.988</ele>
        <time>2021-08-10T12:23:48Z</time>
      </trkpt>
      <trkpt lat="43.262916" lon="-3.484473">
        <ele>141.563</ele>
        <time>2021-08-10T12:24:45Z</time>
      </trkpt>
      <trkpt lat="43.263041" lon="-3.484361">
        <ele>141.571</ele>
        <time>2021-08-10T12:24:56Z</time>
      </trkpt>
      <trkpt lat="43.263536" lon="-3.484219">
        <ele>139.121</ele>
        <time>2021-08-10T12:25:36Z</time>
      </trkpt>
      <trkpt lat="43.263919" lon="-3.484815">
        <ele>139.116</ele>
        <time>2021-08-10T12:26:19Z</time>
      </trkpt>
      <trkpt lat="43.264682" lon="-3.485234">
        <ele>137.632</ele>
        <time>2021-08-10T12:27:25Z</time>
      </trkpt>
      <trkpt lat="43.264878" lon="-3.485064">
        <ele>134.822</ele>
        <time>2021-08-10T12:29:35Z</time>
      </trkpt>
      <trkpt lat="43.265061" lon="-3.484479">
        <ele>141.362</ele>
        <time>2021-08-10T12:30:12Z</time>
      </trkpt>
      <trkpt lat="43.265100" lon="-3.484514">
        <ele>141.208</ele>
        <time>2021-08-10T12:30:18Z</time>
      </trkpt>
      <trkpt lat="43.264280" lon="-3.486046">
        <ele>137.008</ele>
        <time>2021-08-10T12:31:59Z</time>
      </trkpt>
      <trkpt lat="43.264067" lon="-3.486219">
        <ele>145.860</ele>
        <time>2021-08-10T12:32:19Z</time>
      </trkpt>
      <trkpt lat="43.263493" lon="-3.486399">
        <ele>144.717</ele>
        <time>2021-08-10T12:33:06Z</time>
      </trkpt>
      <trkpt lat="43.263505" lon="-3.486983">
        <ele>148.248</ele>
        <time>2021-08-10T12:33:47Z</time>
      </trkpt>
      <trkpt lat="43.263430" lon="-3.486890">
        <ele>154.843</ele>
        <time>2021-08-10T12:34:05Z</time>
      </trkpt>
      <trkpt lat="43.263106" lon="-3.487198">
        <ele>163.051</ele>
        <time>2021-08-10T12:35:15Z</time>
      </trkpt>
      <trkpt lat="43.263014" lon="-3.487247">
        <ele>163.611</ele>
        <time>2021-08-10T12:35:24Z</time>
      </trkpt>
      <trkpt lat="43.262907" lon="-3.487172">
        <ele>169.356</ele>
        <time>2021-08-10T12:35:41Z</time>
      </trkpt>
      <trkpt lat="43.262305" lon="-3.487635">
        <ele>169.272</ele>
        <time>2021-08-10T12:36:45Z</time>
      </trkpt>
      <trkpt lat="43.262140" lon="-3.487596">
        <ele>168.498</ele>
        <time>2021-08-10T12:37:13Z</time>
      </trkpt>
      <trkpt lat="43.261921" lon="-3.487892">
        <ele>169.315</ele>
        <time>2021-08-10T12:37:33Z</time>
      </trkpt>
      <trkpt lat="43.261408" lon="-3.488047">
        <ele>170.026</ele>
        <time>2021-08-10T12:38:18Z</time>
      </trkpt>
      <trkpt lat="43.261105" lon="-3.488627">
        <ele>170.208</ele>
        <time>2021-08-10T12:38:54Z</time>
      </trkpt>
      <trkpt lat="43.260981" lon="-3.489069">
        <ele>169.477</ele>
        <time>2021-08-10T12:39:22Z</time>
      </trkpt>
      <trkpt lat="43.260168" lon="-3.489975">
        <ele>171.184</ele>
        <time>2021-08-10T12:40:44Z</time>
      </trkpt>
      <trkpt lat="43.259956" lon="-3.490835">
        <ele>157.375</ele>
        <time>2021-08-10T12:41:32Z</time>
      </trkpt>
      <trkpt lat="43.259673" lon="-3.491346">
        <ele>155.240</ele>
        <time>2021-08-10T12:42:08Z</time>
      </trkpt>
      <trkpt lat="43.259550" lon="-3.491807">
        <ele>150.288</ele>
        <time>2021-08-10T12:42:33Z</time>
      </trkpt>
      <trkpt lat="43.259227" lon="-3.492031">
        <ele>151.658</ele>
        <time>2021-08-10T12:42:59Z</time>
      </trkpt>
      <trkpt lat="43.258543" lon="-3.493050">
        <ele>159.123</ele>
        <time>2021-08-10T12:44:25Z</time>
      </trkpt>
      <trkpt lat="43.258306" lon="-3.493200">
        <ele>161.489</ele>
        <time>2021-08-10T12:44:47Z</time>
      </trkpt>
      <trkpt lat="43.258198" lon="-3.493445">
        <ele>163.826</ele>
        <time>2021-08-10T12:45:03Z</time>
      </trkpt>
      <trkpt lat="43.257911" lon="-3.493528">
        <ele>166.347</ele>
        <time>2021-08-10T12:45:29Z</time>
      </trkpt>
      <trkpt lat="43.257361" lon="-3.494135">
        <ele>157.511</ele>
        <time>2021-08-10T12:46:25Z</time>
      </trkpt>
      <trkpt lat="43.257216" lon="-3.494089">
        <ele>156.208</ele>
        <time>2021-08-10T12:46:36Z</time>
      </trkpt>
      <trkpt lat="43.257049" lon="-3.494237">
        <ele>161.360</ele>
        <time>2021-08-10T12:46:54Z</time>
      </trkpt>
      <trkpt lat="43.257006" lon="-3.493155">
        <ele>159.597</ele>
        <time>2021-08-10T12:47:59Z</time>
      </trkpt>
      <trkpt lat="43.256714" lon="-3.491361">
        <ele>142.328</ele>
        <time>2021-08-10T12:49:42Z</time>
      </trkpt>
      <trkpt lat="43.256073" lon="-3.489987">
        <ele>145.373</ele>
        <time>2021-08-10T12:51:11Z</time>
      </trkpt>
      <trkpt lat="43.255680" lon="-3.488506">
        <ele>151.691</ele>
        <time>2021-08-10T12:52:53Z</time>
      </trkpt>
      <trkpt lat="43.255556" lon="-3.488284">
        <ele>151.611</ele>
        <time>2021-08-10T12:53:09Z</time>
      </trkpt>
      <trkpt lat="43.255333" lon="-3.487377">
        <ele>146.296</ele>
        <time>2021-08-10T12:54:04Z</time>
      </trkpt>
      <trkpt lat="43.255373" lon="-3.486920">
        <ele>146.662</ele>
        <time>2021-08-10T12:54:33Z</time>
      </trkpt>
      <trkpt lat="43.255280" lon="-3.486776">
        <ele>145.128</ele>
        <time>2021-08-10T12:54:45Z</time>
      </trkpt>
      <trkpt lat="43.255081" lon="-3.486726">
        <ele>143.689</ele>
        <time>2021-08-10T12:55:00Z</time>
      </trkpt>
      <trkpt lat="43.254826" lon="-3.486390">
        <ele>143.717</ele>
        <time>2021-08-10T12:55:26Z</time>
      </trkpt>
      <trkpt lat="43.254675" lon="-3.486365">
        <ele>142.508</ele>
        <time>2021-08-10T12:55:38Z</time>
      </trkpt>
      <trkpt lat="43.254432" lon="-3.486010">
        <ele>141.680</ele>
        <time>2021-08-10T12:56:06Z</time>
      </trkpt>
      <trkpt lat="43.254268" lon="-3.486011">
        <ele>138.177</ele>
        <time>2021-08-10T12:56:19Z</time>
      </trkpt>
      <trkpt lat="43.254205" lon="-3.486169">
        <ele>137.528</ele>
        <time>2021-08-10T12:56:29Z</time>
      </trkpt>
      <trkpt lat="43.254514" lon="-3.486044">
        <ele>144.883</ele>
        <time>2021-08-10T13:00:28Z</time>
      </trkpt>
      <trkpt lat="43.254760" lon="-3.486335">
        <ele>147.081</ele>
        <time>2021-08-10T13:01:02Z</time>
      </trkpt>
      <trkpt lat="43.255004" lon="-3.486455">
        <ele>149.541</ele>
        <time>2021-08-10T13:01:22Z</time>
      </trkpt>
      <trkpt lat="43.255078" lon="-3.486786">
        <ele>147.466</ele>
        <time>2021-08-10T13:01:40Z</time>
      </trkpt>
      <trkpt lat="43.255371" lon="-3.486780">
        <ele>144.672</ele>
        <time>2021-08-10T13:02:06Z</time>
      </trkpt>
      <trkpt lat="43.256132" lon="-3.486006">
        <ele>144.998</ele>
        <time>2021-08-10T13:03:34Z</time>
      </trkpt>
      <trkpt lat="43.256268" lon="-3.484938">
        <ele>147.215</ele>
        <time>2021-08-10T13:04:37Z</time>
      </trkpt>
      <trkpt lat="43.256246" lon="-3.484460">
        <ele>143.726</ele>
        <time>2021-08-10T13:05:03Z</time>
      </trkpt>
      <trkpt lat="43.256345" lon="-3.484213">
        <ele>144.408</ele>
        <time>2021-08-10T13:05:18Z</time>
      </trkpt>
      <trkpt lat="43.256579" lon="-3.483950">
        <ele>144.047</ele>
        <time>2021-08-10T13:05:41Z</time>
      </trkpt>
      <trkpt lat="43.256796" lon="-3.483125">
        <ele>142.464</ele>
        <time>2021-08-10T13:06:32Z</time>
      </trkpt>
      <trkpt lat="43.257055" lon="-3.482621">
        <ele>143.945</ele>
        <time>2021-08-10T13:07:05Z</time>
      </trkpt>
      <trkpt lat="43.257121" lon="-3.482221">
        <ele>146.650</ele>
        <time>2021-08-10T13:07:29Z</time>
      </trkpt>
      <trkpt lat="43.257313" lon="-3.481897">
        <ele>145.298</ele>
        <time>2021-08-10T13:07:55Z</time>
      </trkpt>
      <trkpt lat="43.257419" lon="-3.480875">
        <ele>145.658</ele>
        <time>2021-08-10T13:08:57Z</time>
      </trkpt>
      <trkpt lat="43.257584" lon="-3.480705">
        <ele>144.453</ele>
        <time>2021-08-10T13:09:12Z</time>
      </trkpt>
      <trkpt lat="43.257713" lon="-3.480220">
        <ele>142.599</ele>
        <time>2021-08-10T13:09:44Z</time>
      </trkpt>
      <trkpt lat="43.258037" lon="-3.479757">
        <ele>142.358</ele>
        <time>2021-08-10T13:10:19Z</time>
      </trkpt>
      <trkpt lat="43.258018" lon="-3.479553">
        <ele>143.652</ele>
        <time>2021-08-10T13:10:30Z</time>
      </trkpt>
      <trkpt lat="43.257724" lon="-3.479171">
        <ele>138.217</ele>
        <time>2021-08-10T13:10:59Z</time>
      </trkpt>
      <trkpt lat="43.257610" lon="-3.478855">
        <ele>137.308</ele>
        <time>2021-08-10T13:11:19Z</time>
      </trkpt>
      <trkpt lat="43.257288" lon="-3.478658">
        <ele>140.423</ele>
        <time>2021-08-10T13:11:51Z</time>
      </trkpt>
      <trkpt lat="43.257090" lon="-3.478195">
        <ele>140.950</ele>
        <time>2021-08-10T13:12:16Z</time>
      </trkpt>
      <trkpt lat="43.256806" lon="-3.478024">
        <ele>139.071</ele>
        <time>2021-08-10T13:12:40Z</time>
      </trkpt>
      <trkpt lat="43.256649" lon="-3.477348">
        <ele>137.176</ele>
        <time>2021-08-10T13:13:19Z</time>
      </trkpt>
      <trkpt lat="43.256530" lon="-3.477201">
        <ele>135.494</ele>
        <time>2021-08-10T13:13:29Z</time>
      </trkpt>
      <trkpt lat="43.256526" lon="-3.476746">
        <ele>138.684</ele>
        <time>2021-08-10T13:13:53Z</time>
      </trkpt>
      <trkpt lat="43.256365" lon="-3.476465">
        <ele>140.389</ele>
        <time>2021-08-10T13:14:12Z</time>
      </trkpt>
      <trkpt lat="43.255808" lon="-3.476211">
        <ele>139.225</ele>
        <time>2021-08-10T13:15:14Z</time>
      </trkpt>
      <trkpt lat="43.255663" lon="-3.475423">
        <ele>137.514</ele>
        <time>2021-08-10T13:16:31Z</time>
      </trkpt>
      <trkpt lat="43.255779" lon="-3.474975">
        <ele>136.854</ele>
        <time>2021-08-10T13:16:58Z</time>
      </trkpt>
      <trkpt lat="43.255704" lon="-3.474574">
        <ele>138.909</ele>
        <time>2021-08-10T13:17:23Z</time>
      </trkpt>
      <trkpt lat="43.255827" lon="-3.474323">
        <ele>138.908</ele>
        <time>2021-08-10T13:17:37Z</time>
      </trkpt>
      <trkpt lat="43.255914" lon="-3.473759">
        <ele>137.189</ele>
        <time>2021-08-10T13:18:10Z</time>
      </trkpt>
      <trkpt lat="43.256075" lon="-3.471962">
        <ele>131.296</ele>
        <time>2021-08-10T13:19:56Z</time>
      </trkpt>
      <trkpt lat="43.256290" lon="-3.471105">
        <ele>130.837</ele>
        <time>2021-08-10T13:20:48Z</time>
      </trkpt>
      <trkpt lat="43.256762" lon="-3.470084">
        <ele>133.722</ele>
        <time>2021-08-10T13:22:29Z</time>
      </trkpt>
      <trkpt lat="43.257518" lon="-3.469200">
        <ele>137.940</ele>
        <time>2021-08-10T13:24:01Z</time>
      </trkpt>
      <trkpt lat="43.257666" lon="-3.468296">
        <ele>135.250</ele>
        <time>2021-08-10T13:25:41Z</time>
      </trkpt>
      <trkpt lat="43.257860" lon="-3.468057">
        <ele>138.365</ele>
        <time>2021-08-10T13:26:04Z</time>
      </trkpt>
      <trkpt lat="43.258148" lon="-3.467895">
        <ele>139.331</ele>
        <time>2021-08-10T13:26:29Z</time>
      </trkpt>
      <trkpt lat="43.258294" lon="-3.467543">
        <ele>138.369</ele>
        <time>2021-08-10T13:26:54Z</time>
      </trkpt>
      <trkpt lat="43.258446" lon="-3.466346">
        <ele>145.304</ele>
        <time>2021-08-10T13:28:10Z</time>
      </trkpt>
      <trkpt lat="43.258357" lon="-3.466076">
        <ele>152.924</ele>
        <time>2021-08-10T13:28:56Z</time>
      </trkpt>
      <trkpt lat="43.258223" lon="-3.465979">
        <ele>150.808</ele>
        <time>2021-08-10T13:29:07Z</time>
      </trkpt>
      <trkpt lat="43.258065" lon="-3.465430">
        <ele>151.274</ele>
        <time>2021-08-10T13:29:48Z</time>
      </trkpt>
      <trkpt lat="43.257852" lon="-3.465144">
        <ele>149.311</ele>
        <time>2021-08-10T13:30:11Z</time>
      </trkpt>
    </trkseg>
  </trk></gpx>